{"type":"FeatureCollection","features":[{"type":"Feature","id":"lakes_base:1159109553","properties":{"pandolab_id":"lakes_base:1159109553","layer_id":"lakes_base","category":"lake","name":"lake-233","name_ko":"","name_en":"","name_original":"","feature_class":"Lake","scale_rank":7,"min_zoom":5.7,"stroke_width":1.4400000000000002,"source_id":1159109553,"wikidata_id":"","note":"_untitled_48","source":"Natural Earth 5.0.0 1:10m"},"geometry":{"type":"Polygon","coordinates":[[[-107.16252056008966,54.83809011381214],[-107.16693602199663,54.836618293176485],[-107.16973248120438,54.82808173348968],[-107.16649447580593,54.81601280427728],[-107.15839946230982,54.81218607062456],[-107.13485033213928,54.81100861411605],[-107.09628863148502,54.801588962047816],[-107.08598588703542,54.79040312521681],[-107.09393371846798,54.76950327219046],[-107.08510279465403,54.76420471790212],[-107.0778908735393,54.75507942996103],[-107.07538877845869,54.744776685511425],[-107.08024578655636,54.735357033443194],[-107.0611121182928,54.72917538677345],[-107.03638553161373,54.729764115027706],[-107.01210049112537,54.73594576169745],[-106.99458582556105,54.7456597778928],[-106.98943445333623,54.74624850614708],[-106.99090627397189,54.735357033443194],[-106.9960576461967,54.721227555340874],[-107.00179774667576,54.71151353914553],[-107.01018712429902,54.70356570771298],[-107.01798777366801,54.69767842517035],[-107.02726024367266,54.69267423500912],[-107.03932917288505,54.68767004484786],[-107.11910185133773,54.67295183849129],[-107.16119592151756,54.649402708320764],[-107.18842460327724,54.644398518159505],[-107.21241527963848,54.651757621337794],[-107.22492575504157,54.67383493087269],[-107.22109902138885,54.67972221341532],[-107.21300400789274,54.68914186548352],[-107.20741108947723,54.69915024580601],[-107.21064909487569,54.707981169619956],[-107.22360111646948,54.71004171850987],[-107.23714186631753,54.70238825120447],[-107.25009388791133,54.69237987088198],[-107.26216281712372,54.68767004484786],[-107.28011902887876,54.68354894706803],[-107.33133838699968,54.66264909404168],[-107.34782277811904,54.652640713719194],[-107.35194387589888,54.64675343117656],[-107.35709524812368,54.63144649656573],[-107.36151071003067,54.626147942277356],[-107.37534582400585,54.62055502386184],[-107.38770911734538,54.621143752116126],[-107.39992522862134,54.62408739338744],[-107.4130244322787,54.626147942277356],[-107.42494617942754,54.62408739338744],[-107.43789820102133,54.61996629560758],[-107.45026149436086,54.618494474971925],[-107.4604170567469,54.62261557275178],[-107.44334393737327,54.65146325721068],[-107.43657356244924,54.65970545277037],[-107.42656518212677,54.66412091467734],[-107.4027216878291,54.66971383309283],[-107.39565694877794,54.67383493087269],[-107.39006403036244,54.68472640357655],[-107.39403794607871,54.68855313722926],[-107.40419350846476,54.68973059373778],[-107.42273844847405,54.69502914802615],[-107.43701510863994,54.69326296326338],[-107.44334393737327,54.69385169151764],[-107.44422702975466,54.69738406104321],[-107.44393266562753,54.70415443596724],[-107.44525730419963,54.71092481089127],[-107.45085022261513,54.71475154454399],[-107.46321351595466,54.7159290010525],[-107.47395780659497,54.714457180416844],[-107.48146409183683,54.708864262001356],[-107.48440773310814,54.69738406104321],[-107.4897062873965,54.688847501356406],[-107.51369696375774,54.67913348516106],[-107.51914270010967,54.67059692547423],[-107.52341097995308,54.658527996261824],[-107.5328306320213,54.661177273406025],[-107.5422502840895,54.66912510483857],[-107.55490794155617,54.68560949595795],[-107.5685958734678,54.708864262001356],[-107.57536624839182,54.73182466391762],[-107.56344450124298,54.742127408367224],[-107.54769602044145,54.74536541376568],[-107.50280549105386,54.76361598964783],[-107.48808728469729,54.77303564171606],[-107.47528244516705,54.79334676648813],[-107.48043381739186,54.80747624459045],[-107.49191401834999,54.82219445094705],[-107.49809566501976,54.84456612460906],[-107.47955072501047,54.87665181446641],[-107.43672074451281,54.89814039574702],[-107.38520702226477,54.90991496083228],[-107.34090522113145,54.913447330357855],[-107.31426526762603,54.910209324959425],[-107.29380696079038,54.89725730336562],[-107.27452611046326,54.882539097009044],[-107.25156570854699,54.872530716686555],[-107.20579208677802,54.86870398303384],[-107.1856281440695,54.864288521126866],[-107.16973248120438,54.85192522778735],[-107.16163746770826,54.8404450268292],[-107.16252056008966,54.83809011381214]]]}},{"type":"Feature","id":"lakes_base:1159110303","properties":{"pandolab_id":"lakes_base:1159110303","layer_id":"lakes_base","category":"lake","name":"lake-288","name_ko":"","name_en":"","name_original":"","feature_class":"Lake","scale_rank":8,"min_zoom":6.0,"stroke_width":1.2600000000000002,"source_id":1159110303,"wikidata_id":"","note":"_untitled_52","source":"Natural Earth 5.0.0 1:10m"},"geometry":{"type":"Polygon","coordinates":[[[-101.03650871035248,61.03386626167952],[-101.04151290051372,61.01738187056017],[-101.04283753908581,61.00236930007645],[-101.03371225114473,60.97617089276173],[-101.01266521605481,60.965868148312126],[-100.98970481413855,60.95968650164235],[-100.97454506159127,60.94467393115863],[-100.97336760508274,60.91847552384391],[-100.98720271905793,60.90169676859742],[-101.01001593891063,60.892277116529186],[-101.03606716416178,60.88933347525787],[-101.05961629433232,60.882268736206726],[-101.09420407927028,60.85018304634937],[-101.11863630182222,60.84105775840828],[-101.13026368484392,60.841352122535426],[-101.14247979611989,60.846356312696656],[-101.15263535850593,60.847828133332314],[-101.16853102137104,60.846356312696656],[-101.1966427955121,60.83693666062845],[-101.23667631680202,60.82987192157728],[-101.31026734858493,60.792782041558695],[-101.42345035546707,60.75745834630288],[-101.54340373727322,60.74480068883622],[-101.7226714906964,60.6888715046812],[-101.75608181912585,60.69770242849518],[-101.76285219404988,60.69770242849518],[-101.75755363976151,60.71036008596184],[-101.77183029992739,60.71713046088587],[-101.81127509296304,60.725078292318415],[-101.79847025343281,60.73449794438662],[-101.78021967755065,60.74067959105639],[-101.72797004498477,60.74656687359902],[-101.71428211307315,60.751865427887395],[-101.68705343131347,60.76658363424397],[-101.69765053989022,60.776886378693575],[-101.70147727354292,60.779535655837776],[-101.68793652369487,60.786011666634664],[-101.64613681764217,60.80014114473698],[-101.63715871176466,60.79131022092304],[-101.62744469556931,60.78748348727032],[-101.60183501650886,60.78630603076181],[-101.5882942666608,60.78807221552458],[-101.57431197062205,60.79219331330444],[-101.56813032395227,60.798669324101326],[-101.57784434014762,60.806911519661014],[-101.57784434014762,60.81309316633079],[-101.54428682965461,60.820452269509076],[-101.50763849582673,60.838702845391225],[-101.47187325438023,60.84812249745946],[-101.44067065690426,60.82751700856022],[-101.44214247753992,60.81633117172922],[-101.4228616272128,60.81986354125482],[-101.37870700814305,60.83487611173854],[-101.36914017401126,60.83310992697574],[-101.35986770400662,60.828694465068764],[-101.34971214162059,60.825456459670306],[-101.33705448415392,60.82751700856022],[-101.3289594706578,60.83252119872148],[-101.32174754954308,60.839585937772625],[-101.31026734858493,60.854598508256345],[-101.33205029399268,60.86696180159586],[-101.34323613082368,60.87608708953695],[-101.34308894876011,60.8866841981137],[-101.33087283748415,60.90257986097882],[-101.31321098985626,60.91788679558965],[-101.30629343286866,60.92524589876794],[-101.30349697366091,60.93378245845477],[-101.31056171271207,60.93937537687026],[-101.3267517397043,60.9405528333788],[-101.35869024749809,60.937314827980344],[-101.39283648624537,60.924951534640826],[-101.40284486656785,60.92289098575088],[-101.41432506752598,60.92436280638654],[-101.41874052943295,60.92789517591214],[-101.42300880927637,60.93260500194623],[-101.43390028198024,60.937314827980344],[-101.46083459961278,60.94173028988732],[-101.53633899822206,60.937314827980344],[-101.52736089234455,60.94967812131986],[-101.50410612630114,60.96704560482064],[-101.49542238455075,60.978231441651644],[-101.49542238455075,61.0197367835772],[-101.50454767249184,61.027684615009775],[-101.54369810140035,61.04652391914618],[-101.5482607453709,61.0521168375617],[-101.55091002251507,61.05918157661284],[-101.55429520997708,61.0650688591555],[-101.56047685664686,61.067718136299675],[-101.56754159569802,61.068601228681075],[-101.57754997602049,61.07154486995239],[-101.58682244602514,61.07596033185936],[-101.59153227205924,61.08125888614774],[-101.58682244602514,61.09185599472448],[-101.57210423966856,61.09892073377563],[-101.54369810140035,61.108634749970975],[-101.53074607980656,61.11893749442058],[-101.52971580536159,61.12335295632755],[-101.53207071837865,61.12924023887018],[-101.52942144123446,61.14278098871824],[-101.50896313439881,61.16279774936319],[-101.48158727057557,61.165447026507394],[-101.46304233056627,61.15337809729499],[-101.46863524898177,61.12894587474307],[-101.4642197870748,61.12158677156478],[-101.46318951262984,61.115405124895005],[-101.46289514850271,61.10922347822523],[-101.46112896373991,61.101275646792686],[-101.45789095834147,61.093622179487255],[-101.45494731707015,61.09067853821594],[-101.45156212960813,61.087734896944625],[-101.44685230357403,61.08125888614774],[-101.42448062991203,61.03945918009504],[-101.40446386926708,61.01473259341597],[-101.39739913021592,61.0112002238904],[-101.37914855433375,61.0206198759586],[-101.36987608432909,61.015910049924514],[-101.36075079638802,61.00913967500048],[-101.3513311443198,61.00560730547488],[-101.33322775050121,61.00972840325474],[-101.31836236208106,61.01885369119583],[-101.293635775402,61.04328591374775],[-101.27729856634619,61.04887883216324],[-101.23432140378496,61.04446337025627],[-101.2178370126656,61.0503506527989],[-101.20444344488111,61.05888721248573],[-101.18869496407956,61.06300831026556],[-101.17633167074003,61.05977030486713],[-101.17324084740514,61.04652391914618],[-101.18486823042684,61.03474935406092],[-101.22622639028884,61.03239444104386],[-101.23520449616636,61.0232691531028],[-101.24256359934465,61.01384950103457],[-101.2591951725276,61.00236930007645],[-101.29054495206711,60.98559054482993],[-101.27818165872759,60.97057797434621],[-101.2569874415741,60.949089393065606],[-101.23667631680202,60.93672609972609],[-101.22784539298807,60.94791193655709],[-101.22357711314466,60.95792031687955],[-101.20473780900824,60.97764271339739],[-101.19458224662219,61.000897479440795],[-101.18133586090127,60.99942565880514],[-101.16750074692608,60.991772191499706],[-101.15955291549352,60.98559054482993],[-101.14998608136175,60.96881178958344],[-101.14292134231059,60.94967812131986],[-101.13306014405167,60.93937537687026],[-101.11510393229663,60.94791193655709],[-101.09920826943153,60.96616251243924],[-101.0933209868889,60.98352999594002],[-101.0975892667323,61.00119184356791],[-101.11171874483462,61.0197367835772],[-101.10009136181293,61.035043718188064],[-101.07183240560828,61.05888721248573],[-101.06329584592146,61.07389978296945],[-101.06550357687495,61.08125888614774],[-101.07242113386255,61.085968712181824],[-101.07742532402378,61.09067853821594],[-101.0738929544982,61.097743277267114],[-101.0627071176672,61.1051023804454],[-101.05284591940828,61.106868565208174],[-101.04224881083155,61.106868565208174],[-101.02914960717419,61.108634749970975],[-100.99235409128273,61.11834876616632],[-100.97277887682847,61.126296597598866],[-100.96085712967964,61.1365993420485],[-100.96129867587034,61.152200640786475],[-100.97115987412926,61.16986248841437],[-100.98823299350289,61.19429471096629],[-100.98396471365947,61.20930728145001],[-100.96527259158663,61.227263493205044],[-100.96085712967964,61.24227606368876],[-100.9533508444378,61.258171726553854],[-100.93701363538197,61.25640554179108],[-100.92052924426261,61.244042248451535],[-100.91317014108431,61.22844094971356],[-100.90433921727036,61.19694398811049],[-100.88859073646881,61.16426956999885],[-100.88167317948123,61.1339500649043],[-100.89948220917269,61.108634749970975],[-100.88549991313394,61.0921503588516],[-100.87917108440061,61.081847614401994],[-100.87828799201921,61.07389978296945],[-100.8865301875789,61.06801250042682],[-100.89918784504556,61.06742377217253],[-100.91258141283005,61.07095614169813],[-100.94084036903469,61.086851804563224],[-100.96350640682383,61.08714616869037],[-100.98749708318506,61.08008142963919],[-101.0092800285928,61.067718136299675],[-101.02620596590288,61.0512337451803],[-101.03650871035248,61.03386626167952]]]}},{"type":"Feature","id":"lakes_base:1159108091","properties":{"pandolab_id":"lakes_base:1159108091","layer_id":"lakes_base","category":"lake","name":"lake-120","name_ko":"","name_en":"","name_original":"","feature_class":"Lake","scale_rank":6,"min_zoom":5.0,"stroke_width":1.62,"source_id":1159108091,"wikidata_id":"","note":"_untitled_39","source":"Natural Earth 5.0.0 1:10m"},"geometry":{"type":"Polygon","coordinates":[[[-155.4772406565284,58.546489387416926],[-155.36626538059977,58.54854993630684],[-155.3506640818618,58.538835920111495],[-155.3699449321889,58.527061355026234],[-155.44986479270514,58.52735571915338],[-155.4772406565284,58.521468436610746],[-155.50240878939815,58.50969387152546],[-155.53552475370046,58.504689681364226],[-155.65694995614228,58.50969387152546],[-155.68815255361824,58.51646424644949],[-155.709935499026,58.52853317566189],[-155.7249480695097,58.54266265376421],[-155.73466208570505,58.5491386645611],[-155.74496483015466,58.552082305832414],[-155.76350977016395,58.55443721884947],[-155.76880832445232,58.560618865519245],[-155.76969141683372,58.56944978933319],[-155.77513715318565,58.579752533782795],[-155.80795875336082,58.60006365855489],[-155.84490145131585,58.60536221284326],[-155.92599876834063,58.60035802268203],[-156.06596891079172,58.61537059316575],[-156.1479493201979,58.595648196647915],[-156.1982855859374,58.59505946839366],[-156.2478859413591,58.600652386809145],[-156.28262090836066,58.610660767131634],[-156.3013130304335,58.61360440840295],[-156.32383188615907,58.613310044275806],[-156.3431127364862,58.61684241380141],[-156.35120774998234,58.631560620157984],[-156.35503448363502,58.6465731906417],[-156.3620992226862,58.657464663345564],[-156.36533722808466,58.66865050017657],[-156.35797812490637,58.68277997827889],[-156.38167443714045,58.68984471733006],[-156.41037493953579,58.69161090209283],[-156.43848671367687,58.68719544018586],[-156.46100556940243,58.6754208751006],[-156.45143873527064,58.68366307066029],[-156.4228854149389,58.69573199987269],[-156.39624546143347,58.71574876051764],[-156.37608151872496,58.72340222782307],[-156.35459293744435,58.72870078211142],[-156.29527856582732,58.731938787509876],[-156.27688080788158,58.730172602747075],[-156.25553940866453,58.72369659195019],[-156.22168753404438,58.706917836703695],[-156.20328977609867,58.70309110305098],[-156.18724693117,58.710155842102125],[-156.1949003984754,58.71309948337344],[-156.21462279499323,58.72369659195019],[-156.18533356434364,58.73488242878119],[-156.16973226560566,58.737826070052506],[-156.15192323591418,58.73753170592539],[-156.13529166273125,58.73252751576413],[-156.05713798697778,58.71751494528041],[-156.0558133484057,58.71251075511918],[-156.0562548945964,58.69955873352541],[-156.07656601936847,58.67983633700757],[-156.1121840787514,58.68101379351609],[-156.12484173621806,58.69072780971143],[-156.0768603834956,58.69661509225406],[-156.09864332890334,58.71309948337344],[-156.12896283399792,58.70868402146647],[-156.15722179020256,58.69131653796572],[-156.17355899925838,58.669239228430826],[-156.13234802145993,58.65805339159982],[-156.0734751960336,58.65304920143859],[-156.01813474013284,58.65952521223548],[-155.98752087091114,58.68277997827889],[-156.0222558379127,58.69661509225406],[-155.9976764332972,58.71309948337344],[-155.9572013658166,58.705151651940895],[-155.88493497260575,58.6754208751006],[-155.83930853290036,58.66806177192231],[-155.53596629989116,58.67071104906648],[-155.52183682178884,58.669239228430826],[-155.51271153384778,58.666001223032396],[-155.49755178130047,58.657464663345564],[-155.49151731669429,58.655698478582764],[-155.44294723571755,58.66953359255797],[-155.41704319252997,58.67218286970214],[-155.40585735569897,58.65864211985408],[-155.41233336649586,58.64215772873473],[-155.4289649396788,58.637447902700615],[-155.47356110493925,58.64127463635333],[-155.46899846096872,58.62037478332698],[-155.5150664468648,58.61301568014869],[-155.80310174526315,58.62096351158124],[-155.73039380586164,58.59034964235954],[-155.7068446756911,58.58681727283397],[-155.6938926540973,58.582401810926996],[-155.68903564599964,58.572982158858764],[-155.68623918679188,58.56356250679056],[-155.67991035805855,58.55944140901073],[-155.4772406565284,58.546489387416926]]]}}]}
