{"type":"FeatureCollection","features":[{"type":"Feature","id":15425,"properties":{"fid":15425,"logicalFid":4050,"awId":"lakes_base:1159109553","name":"lake-233","layerId":"lakes_natural_earth","category":"lake","bounds":[-107575366,54618494,-106989434,54913447],"stage":0,"flags":0,"fragmentIndex":0,"fragmentCount":1,"width":1,"sourceId":"1159109553","source":"Natural Earth 5.0.0 1:10m"},"geometry":{"type":"Polygon","coordinates":[[[-107.162521,54.83809],[-107.166936,54.836618],[-107.169732,54.828082],[-107.166494,54.816013],[-107.158399,54.812186],[-107.13485,54.811009],[-107.096289,54.801589],[-107.085986,54.790403],[-107.093934,54.769503],[-107.085103,54.764205],[-107.077891,54.755079],[-107.075389,54.744777],[-107.080246,54.735357],[-107.061112,54.729175],[-107.036386,54.729764],[-107.0121,54.735946],[-106.994586,54.74566],[-106.989434,54.746249],[-106.990906,54.735357],[-106.996058,54.721228],[-107.001798,54.711514],[-107.010187,54.703566],[-107.017988,54.697678],[-107.02726,54.692674],[-107.039329,54.68767],[-107.119102,54.672952],[-107.161196,54.649403],[-107.188425,54.644399],[-107.212415,54.651758],[-107.224926,54.673835],[-107.221099,54.679722],[-107.213004,54.689142],[-107.207411,54.69915],[-107.210649,54.707981],[-107.223601,54.710042],[-107.237142,54.702388],[-107.250094,54.69238],[-107.262163,54.68767],[-107.280119,54.683549],[-107.331338,54.662649],[-107.347823,54.652641],[-107.351944,54.646753],[-107.357095,54.631446],[-107.361511,54.626148],[-107.375346,54.620555],[-107.387709,54.621144],[-107.399925,54.624087],[-107.413024,54.626148],[-107.424946,54.624087],[-107.437898,54.619966],[-107.450261,54.618494],[-107.460417,54.622616],[-107.443344,54.651463],[-107.436574,54.659705],[-107.426565,54.664121],[-107.402722,54.669714],[-107.395657,54.673835],[-107.390064,54.684726],[-107.394038,54.688553],[-107.404194,54.689731],[-107.422738,54.695029],[-107.437015,54.693263],[-107.443344,54.693852],[-107.444227,54.697384],[-107.443933,54.704154],[-107.445257,54.710925],[-107.45085,54.714752],[-107.463214,54.715929],[-107.473958,54.714457],[-107.481464,54.708864],[-107.484408,54.697384],[-107.489706,54.688848],[-107.513697,54.679133],[-107.519143,54.670597],[-107.523411,54.658528],[-107.532831,54.661177],[-107.54225,54.669125],[-107.554908,54.685609],[-107.568596,54.708864],[-107.575366,54.731825],[-107.563445,54.742127],[-107.547696,54.745365],[-107.502805,54.763616],[-107.488087,54.773036],[-107.475282,54.793347],[-107.480434,54.807476],[-107.491914,54.822194],[-107.498096,54.844566],[-107.479551,54.876652],[-107.436721,54.89814],[-107.385207,54.909915],[-107.340905,54.913447],[-107.314265,54.910209],[-107.293807,54.897257],[-107.274526,54.882539],[-107.251566,54.872531],[-107.205792,54.868704],[-107.185628,54.864289],[-107.169732,54.851925],[-107.161637,54.840445],[-107.162521,54.83809]]]}},{"type":"Feature","id":15480,"properties":{"fid":15480,"logicalFid":4105,"awId":"lakes_base:1159110303","name":"lake-288","layerId":"lakes_natural_earth","category":"lake","bounds":[-101811275,60688872,-100878288,61258172],"stage":0,"flags":0,"fragmentIndex":0,"fragmentCount":1,"width":1,"sourceId":"1159110303","source":"Natural Earth 5.0.0 1:10m"},"geometry":{"type":"Polygon","coordinates":[[[-101.036509,61.033866],[-101.041513,61.017382],[-101.042838,61.002369],[-101.033712,60.976171],[-101.012665,60.965868],[-100.989705,60.959687],[-100.974545,60.944674],[-100.973368,60.918476],[-100.987203,60.901697],[-101.010016,60.892277],[-101.036067,60.889333],[-101.059616,60.882269],[-101.094204,60.850183],[-101.118636,60.841058],[-101.130264,60.841352],[-101.14248,60.846356],[-101.152635,60.847828],[-101.168531,60.846356],[-101.196643,60.836937],[-101.236676,60.829872],[-101.310267,60.792782],[-101.42345,60.757458],[-101.543404,60.744801],[-101.722671,60.688872],[-101.756082,60.697702],[-101.762852,60.697702],[-101.757554,60.71036],[-101.77183,60.71713],[-101.811275,60.725078],[-101.79847,60.734498],[-101.78022,60.74068],[-101.72797,60.746567],[-101.714282,60.751865],[-101.687053,60.766584],[-101.697651,60.776886],[-101.701477,60.779536],[-101.687937,60.786012],[-101.646137,60.800141],[-101.637159,60.79131],[-101.627445,60.787483],[-101.601835,60.786306],[-101.588294,60.788072],[-101.574312,60.792193],[-101.56813,60.798669],[-101.577844,60.806912],[-101.577844,60.813093],[-101.544287,60.820452],[-101.507638,60.838703],[-101.471873,60.848122],[-101.440671,60.827517],[-101.442142,60.816331],[-101.422862,60.819864],[-101.378707,60.834876],[-101.36914,60.83311],[-101.359868,60.828694],[-101.349712,60.825456],[-101.337054,60.827517],[-101.328959,60.832521],[-101.321748,60.839586],[-101.310267,60.854599],[-101.33205,60.866962],[-101.343236,60.876087],[-101.343089,60.886684],[-101.330873,60.90258],[-101.313211,60.917887],[-101.306293,60.925246],[-101.303497,60.933782],[-101.310562,60.939375],[-101.326752,60.940553],[-101.35869,60.937315],[-101.392836,60.924952],[-101.402845,60.922891],[-101.414325,60.924363],[-101.418741,60.927895],[-101.423009,60.932605],[-101.4339,60.937315],[-101.460835,60.94173],[-101.536339,60.937315],[-101.527361,60.949678],[-101.504106,60.967046],[-101.495422,60.978231],[-101.495422,61.019737],[-101.504548,61.027685],[-101.543698,61.046524],[-101.548261,61.052117],[-101.55091,61.059182],[-101.554295,61.065069],[-101.560477,61.067718],[-101.567542,61.068601],[-101.57755,61.071545],[-101.586822,61.07596],[-101.591532,61.081259],[-101.586822,61.091856],[-101.572104,61.098921],[-101.543698,61.108635],[-101.530746,61.118937],[-101.529716,61.123353],[-101.532071,61.12924],[-101.529421,61.142781],[-101.508963,61.162798],[-101.481587,61.165447],[-101.463042,61.153378],[-101.468635,61.128946],[-101.46422,61.121587],[-101.46319,61.115405],[-101.462895,61.109223],[-101.461129,61.101276],[-101.457891,61.093622],[-101.454947,61.090679],[-101.451562,61.087735],[-101.446852,61.081259],[-101.424481,61.039459],[-101.404464,61.014733],[-101.397399,61.0112],[-101.379149,61.02062],[-101.369876,61.01591],[-101.360751,61.00914],[-101.351331,61.005607],[-101.333228,61.009728],[-101.318362,61.018854],[-101.293636,61.043286],[-101.277299,61.048879],[-101.234321,61.044463],[-101.217837,61.050351],[-101.204443,61.058887],[-101.188695,61.063008],[-101.176332,61.05977],[-101.173241,61.046524],[-101.184868,61.034749],[-101.226226,61.032394],[-101.235204,61.023269],[-101.242564,61.01385],[-101.259195,61.002369],[-101.290545,60.985591],[-101.278182,60.970578],[-101.256987,60.949089],[-101.236676,60.936726],[-101.227845,60.947912],[-101.223577,60.95792],[-101.204738,60.977643],[-101.194582,61.000897],[-101.181336,60.999426],[-101.167501,60.991772],[-101.159553,60.985591],[-101.149986,60.968812],[-101.142921,60.949678],[-101.13306,60.939375],[-101.115104,60.947912],[-101.099208,60.966163],[-101.093321,60.98353],[-101.097589,61.001192],[-101.111719,61.019737],[-101.100091,61.035044],[-101.071832,61.058887],[-101.063296,61.0739],[-101.065504,61.081259],[-101.072421,61.085969],[-101.077425,61.090679],[-101.073893,61.097743],[-101.062707,61.105102],[-101.052846,61.106869],[-101.042249,61.106869],[-101.02915,61.108635],[-100.992354,61.118349],[-100.972779,61.126297],[-100.960857,61.136599],[-100.961299,61.152201],[-100.97116,61.169862],[-100.988233,61.194295],[-100.983965,61.209307],[-100.965273,61.227263],[-100.960857,61.242276],[-100.953351,61.258172],[-100.937014,61.256406],[-100.920529,61.244042],[-100.91317,61.228441],[-100.904339,61.196944],[-100.888591,61.16427],[-100.881673,61.13395],[-100.899482,61.108635],[-100.8855,61.09215],[-100.879171,61.081848],[-100.878288,61.0739],[-100.88653,61.068013],[-100.899188,61.067424],[-100.912581,61.070956],[-100.94084,61.086852],[-100.963506,61.087146],[-100.987497,61.080081],[-101.00928,61.067718],[-101.026206,61.051234],[-101.036509,61.033866]]]}},{"type":"Feature","id":15312,"properties":{"fid":15312,"logicalFid":3937,"awId":"lakes_base:1159108091","name":"lake-120","layerId":"lakes_natural_earth","category":"lake","bounds":[-156461006,58504690,-155350664,58737826],"stage":0,"flags":0,"fragmentIndex":0,"fragmentCount":1,"width":1,"sourceId":"1159108091","source":"Natural Earth 5.0.0 1:10m"},"geometry":{"type":"Polygon","coordinates":[[[-155.477241,58.546489],[-155.366265,58.54855],[-155.350664,58.538836],[-155.369945,58.527061],[-155.449865,58.527356],[-155.477241,58.521468],[-155.502409,58.509694],[-155.535525,58.50469],[-155.65695,58.509694],[-155.688153,58.516464],[-155.709935,58.528533],[-155.724948,58.542663],[-155.734662,58.549139],[-155.744965,58.552082],[-155.76351,58.554437],[-155.768808,58.560619],[-155.769691,58.56945],[-155.775137,58.579753],[-155.807959,58.600064],[-155.844901,58.605362],[-155.925999,58.600358],[-156.065969,58.615371],[-156.147949,58.595648],[-156.198286,58.595059],[-156.247886,58.600652],[-156.282621,58.610661],[-156.301313,58.613604],[-156.323832,58.61331],[-156.343113,58.616842],[-156.351208,58.631561],[-156.355034,58.646573],[-156.362099,58.657465],[-156.365337,58.668651],[-156.357978,58.68278],[-156.381674,58.689845],[-156.410375,58.691611],[-156.438487,58.687195],[-156.461006,58.675421],[-156.451439,58.683663],[-156.422885,58.695732],[-156.396245,58.715749],[-156.376082,58.723402],[-156.354593,58.728701],[-156.295279,58.731939],[-156.276881,58.730173],[-156.255539,58.723697],[-156.221688,58.706918],[-156.20329,58.703091],[-156.187247,58.710156],[-156.1949,58.713099],[-156.214623,58.723697],[-156.185334,58.734882],[-156.169732,58.737826],[-156.151923,58.737532],[-156.135292,58.732528],[-156.057138,58.717515],[-156.055813,58.712511],[-156.056255,58.699559],[-156.076566,58.679836],[-156.112184,58.681014],[-156.124842,58.690728],[-156.07686,58.696615],[-156.098643,58.713099],[-156.128963,58.708684],[-156.157222,58.691317],[-156.173559,58.669239],[-156.132348,58.658053],[-156.073475,58.653049],[-156.018135,58.659525],[-155.987521,58.68278],[-156.022256,58.696615],[-155.997676,58.713099],[-155.957201,58.705152],[-155.884935,58.675421],[-155.839309,58.668062],[-155.535966,58.670711],[-155.521837,58.669239],[-155.512712,58.666001],[-155.497552,58.657465],[-155.491517,58.655698],[-155.442947,58.669534],[-155.417043,58.672183],[-155.405857,58.658642],[-155.412333,58.642158],[-155.428965,58.637448],[-155.473561,58.641275],[-155.468998,58.620375],[-155.515066,58.613016],[-155.803102,58.620964],[-155.730394,58.59035],[-155.706845,58.586817],[-155.693893,58.582402],[-155.689036,58.572982],[-155.686239,58.563563],[-155.67991,58.559441],[-155.477241,58.546489]]]}}]}
