{"type":"FeatureCollection","features":[{"type":"Feature","id":"lakes_base:1159108453","properties":{"pandolab_id":"lakes_base:1159108453","layer_id":"lakes_base","category":"lake","name":"lake-147","name_ko":"","name_en":"","name_original":"","feature_class":"Lake","scale_rank":6,"min_zoom":5.0,"stroke_width":1.62,"source_id":1159108453,"wikidata_id":"","note":"_untitled_7","source":"Natural Earth 5.0.0 1:10m"},"geometry":{"type":"Polygon","coordinates":[[[-106.86800925089442,55.93459648737763],[-106.88949783217504,55.918112096258255],[-106.89626820709906,55.90604316704585],[-106.88714291915798,55.896329150850505],[-106.86123887597039,55.88661513465516],[-106.89273583757348,55.866304009883066],[-106.93880382346958,55.86512655337455],[-106.98222253222151,55.85923927083192],[-107.00518293413778,55.82538739621177],[-106.97250851602617,55.825976124466024],[-106.95690721728819,55.82420993970325],[-106.943072103313,55.81832265716062],[-106.98104507571298,55.8015439019141],[-107.00179774667576,55.79801153238853],[-107.0188708660494,55.80478190731256],[-107.03918199082149,55.79742280413427],[-107.05757974876721,55.79418479873581],[-107.07450568607729,55.796834075880014],[-107.0908428951331,55.80801991271102],[-107.08981262068814,55.818617021287736],[-107.0667050367083,55.849525254636575],[-107.0667050367083,55.866304009883066],[-107.05228119447885,55.866304009883066],[-107.03756298812226,55.86895328702727],[-107.02372787414707,55.873663113061355],[-107.01136458080754,55.87984475973113],[-107.00017874397653,55.889558775926474],[-106.98590208381066,55.91163608546134],[-106.9779542523781,55.92076137340243],[-106.9546994863347,55.93430212325049],[-106.92040606552386,55.94695978071715],[-106.88743728328511,55.94960905786132],[-106.86800925089442,55.93459648737763]]]}},{"type":"Feature","id":"lakes_base:1159108469","properties":{"pandolab_id":"lakes_base:1159108469","layer_id":"lakes_base","category":"lake","name":"lake-148","name_ko":"","name_en":"","name_original":"","feature_class":"Lake","scale_rank":6,"min_zoom":5.0,"stroke_width":1.62,"source_id":1159108469,"wikidata_id":"","note":"_untitled_6","source":"Natural Earth 5.0.0 1:10m"},"geometry":{"type":"Polygon","coordinates":[[[-106.55863255327904,55.68262079455292],[-106.55333399899067,55.688213712968405],[-106.55215654248214,55.69174608249401],[-106.55333399899067,55.69616154440098],[-106.55377554518137,55.69969391392655],[-106.54965444740152,55.70116573456221],[-106.54229534422323,55.70028264218081],[-106.5286074123116,55.69586718027384],[-106.52168985532401,55.694984087892436],[-106.50196745880619,55.70146009868935],[-106.46649658148682,55.730013419021105],[-106.44280026925273,55.73648942981802],[-106.40144210939073,55.743259804742024],[-106.3171067869675,55.76886948380249],[-106.27206907551636,55.770046940311005],[-106.27972254282177,55.76622020665832],[-106.28472673298302,55.76121601649706],[-106.29267456441558,55.7494414514118],[-106.30960050172564,55.74031616347071],[-106.38407462588995,55.715883940918786],[-106.39717382954731,55.70793610948624],[-106.42234196241708,55.68173770217152],[-106.40276674796281,55.67614478375603],[-106.36008394952873,55.68556443582423],[-106.33977282475664,55.68173770217152],[-106.3287341699892,55.668196952323456],[-106.3334439960233,55.654656202475394],[-106.34830938444345,55.64376472977153],[-106.36773741683415,55.6396436319917],[-106.43220316067598,55.64170418088162],[-106.44662700290543,55.636405626593245],[-106.46370012227908,55.6249254256351],[-106.48548306768681,55.62080432785527],[-106.50741319515812,55.62345360499944],[-106.52536940691316,55.63287325706767],[-106.51653848309921,55.6369943548475],[-106.50859065166665,55.64523655040719],[-106.50226182293332,55.65583365898394],[-106.49814072515348,55.6676082240692],[-106.51609693690851,55.65995475676377],[-106.53434751279067,55.65495056660254],[-106.55348118105424,55.65436183834828],[-106.57320357757206,55.66024912089091],[-106.55863255327904,55.68262079455292]]]}},{"type":"Feature","id":"lakes_base:1159109723","properties":{"pandolab_id":"lakes_base:1159109723","layer_id":"lakes_base","category":"lake","name":"lake-246","name_ko":"","name_en":"","name_original":"","feature_class":"Lake","scale_rank":7,"min_zoom":5.7,"stroke_width":1.4400000000000002,"source_id":1159109723,"wikidata_id":"","note":"_untitled_35","source":"Natural Earth 5.0.0 1:10m"},"geometry":{"type":"Polygon","coordinates":[[[-106.01479482840328,55.738255614580794],[-106.00375617363584,55.72265431584282],[-105.98418095918159,55.7085248377405],[-106.0457030617521,55.694984087892436],[-106.06012690398155,55.68762498471415],[-106.08632531129628,55.668196952323456],[-106.10016042527145,55.66024912089091],[-106.13136302274742,55.654656202475394],[-106.15608960942647,55.664958946925026],[-106.17021908752879,55.68674189233275],[-106.16904163102028,55.71529521266453],[-106.16477335117686,55.72294867996996],[-106.15314596815516,55.73207396791102],[-106.14858332418463,55.73648942981802],[-106.14784741386678,55.74267107648777],[-106.15005514482029,55.758272375225744],[-106.14858332418463,55.76386529364126],[-106.13798621560788,55.770930032692405],[-106.07926057224512,55.796834075880014],[-106.0642480017614,55.801838266041244],[-106.04849952095985,55.8041931790583],[-106.03201512984047,55.80478190731256],[-106.01611946697537,55.801838266041244],[-105.99963507585599,55.795362255244356],[-105.9922759726777,55.78653133143038],[-106.00405053776296,55.776817315235036],[-106.01553073872111,55.755917462208686],[-106.01479482840328,55.738255614580794]]]}}]}
