{"type":"FeatureCollection","features":[{"type":"Feature","id":15339,"properties":{"fid":15339,"logicalFid":3964,"awId":"lakes_base:1159108453","name":"lake-147","layerId":"lakes_natural_earth","category":"lake","bounds":[-107090843,55794185,-106861239,55949609],"stage":0,"flags":0,"fragmentIndex":0,"fragmentCount":1,"width":1,"sourceId":"1159108453","source":"Natural Earth 5.0.0 1:10m"},"geometry":{"type":"Polygon","coordinates":[[[-106.868009,55.934596],[-106.889498,55.918112],[-106.896268,55.906043],[-106.887143,55.896329],[-106.861239,55.886615],[-106.892736,55.866304],[-106.938804,55.865127],[-106.982223,55.859239],[-107.005183,55.825387],[-106.972509,55.825976],[-106.956907,55.82421],[-106.943072,55.818323],[-106.981045,55.801544],[-107.001798,55.798012],[-107.018871,55.804782],[-107.039182,55.797423],[-107.05758,55.794185],[-107.074506,55.796834],[-107.090843,55.80802],[-107.089813,55.818617],[-107.066705,55.849525],[-107.066705,55.866304],[-107.052281,55.866304],[-107.037563,55.868953],[-107.023728,55.873663],[-107.011365,55.879845],[-107.000179,55.889559],[-106.985902,55.911636],[-106.977954,55.920761],[-106.954699,55.934302],[-106.920406,55.94696],[-106.887437,55.949609],[-106.868009,55.934596]]]}},{"type":"Feature","id":15340,"properties":{"fid":15340,"logicalFid":3965,"awId":"lakes_base:1159108469","name":"lake-148","layerId":"lakes_natural_earth","category":"lake","bounds":[-106573204,55620804,-106272069,55770047],"stage":0,"flags":0,"fragmentIndex":0,"fragmentCount":1,"width":1,"sourceId":"1159108469","source":"Natural Earth 5.0.0 1:10m"},"geometry":{"type":"Polygon","coordinates":[[[-106.558633,55.682621],[-106.553334,55.688214],[-106.552157,55.691746],[-106.553334,55.696162],[-106.553776,55.699694],[-106.549654,55.701166],[-106.542295,55.700283],[-106.528607,55.695867],[-106.52169,55.694984],[-106.501967,55.70146],[-106.466497,55.730013],[-106.4428,55.736489],[-106.401442,55.74326],[-106.317107,55.768869],[-106.272069,55.770047],[-106.279723,55.76622],[-106.284727,55.761216],[-106.292675,55.749441],[-106.309601,55.740316],[-106.384075,55.715884],[-106.397174,55.707936],[-106.422342,55.681738],[-106.402767,55.676145],[-106.360084,55.685564],[-106.339773,55.681738],[-106.328734,55.668197],[-106.333444,55.654656],[-106.348309,55.643765],[-106.367737,55.639644],[-106.432203,55.641704],[-106.446627,55.636406],[-106.4637,55.624925],[-106.485483,55.620804],[-106.507413,55.623454],[-106.525369,55.632873],[-106.516538,55.636994],[-106.508591,55.645237],[-106.502262,55.655834],[-106.498141,55.667608],[-106.516097,55.659955],[-106.534348,55.654951],[-106.553481,55.654362],[-106.573204,55.660249],[-106.558633,55.682621]]]}},{"type":"Feature","id":15438,"properties":{"fid":15438,"logicalFid":4063,"awId":"lakes_base:1159109723","name":"lake-246","layerId":"lakes_natural_earth","category":"lake","bounds":[-106170219,55654656,-105984181,55804782],"stage":0,"flags":0,"fragmentIndex":0,"fragmentCount":1,"width":1,"sourceId":"1159109723","source":"Natural Earth 5.0.0 1:10m"},"geometry":{"type":"Polygon","coordinates":[[[-106.014795,55.738256],[-106.003756,55.722654],[-105.984181,55.708525],[-106.045703,55.694984],[-106.060127,55.687625],[-106.086325,55.668197],[-106.10016,55.660249],[-106.131363,55.654656],[-106.15609,55.664959],[-106.170219,55.686742],[-106.169042,55.715295],[-106.164773,55.722949],[-106.153146,55.732074],[-106.148583,55.736489],[-106.147847,55.742671],[-106.150055,55.758272],[-106.148583,55.763865],[-106.137986,55.77093],[-106.079261,55.796834],[-106.064248,55.801838],[-106.0485,55.804193],[-106.032015,55.804782],[-106.016119,55.801838],[-105.999635,55.795362],[-105.992276,55.786531],[-106.004051,55.776817],[-106.015531,55.755917],[-106.014795,55.738256]]]}}]}
