{"type":"FeatureCollection","features":[{"type":"Feature","id":"lakes_base:1159123163","properties":{"pandolab_id":"lakes_base:1159123163","layer_id":"lakes_base","category":"lake","name":"lake-1052","name_ko":"","name_en":"","name_original":"","feature_class":"Reservoir","scale_rank":4,"min_zoom":4.0,"stroke_width":1.9800000000000002,"source_id":1159123163,"wikidata_id":"","note":"","source":"Natural Earth 5.0.0 1:10m"},"geometry":{"type":"Polygon","coordinates":[[[33.5364674697972,49.0023212934268],[33.58562627902819,49.008208575969434],[33.618595061266944,48.996728375011315],[33.66333840859093,48.980832712146196],[33.71956195687309,48.959049766738445],[33.75547438038316,48.94963011467024],[33.77372495626531,48.94609774514467],[33.79521353754592,48.93697245720358],[33.82612177089476,48.934911908313666],[33.86026800964203,48.92931898989815],[33.89294242775364,48.91283459877877],[33.89294242775364,48.91283459877877],[33.93974632396757,48.89458402289662],[33.97654183985904,48.8778052676501],[33.99596987224973,48.865441974310585],[34.053959605294665,48.877216539395846],[34.09870295261868,48.88163200130282],[34.109005697068284,48.88869674035399],[34.11136061008534,48.91195150639737],[34.12372390342489,48.93049644640669],[34.13991393041712,48.916366968304345],[34.13196609898455,48.88163200130282],[34.109888789449684,48.85337304509818],[34.1137155231024,48.836888653978804],[34.13785338152721,48.84307030064858],[34.15698704979076,48.85513922986098],[34.17612071805431,48.86338142542067],[34.201141668860515,48.8683856155819],[34.21909788061555,48.861320876530726],[34.20173039711477,48.855433593988096],[34.18141927234268,48.845425213665635],[34.20202476124189,48.83335628445323],[34.22645698379384,48.83512246921603],[34.24411883142173,48.83306192032609],[34.256187760634134,48.81304515968114],[34.25677648888839,48.79214530665479],[34.260308858413964,48.76977363299278],[34.26766796159225,48.75652724727186],[34.30416911335658,48.7421034050424],[34.3294844282899,48.72238100852459],[34.356565927986026,48.706779709786616],[34.41808803055653,48.67969821009049],[34.46871866042318,48.6602701776998],[34.50992963822162,48.62494648244402],[34.56056026808827,48.593743884968035],[34.57027428428361,48.56224692336497],[34.52258729568828,48.52486267921924],[34.491090334085186,48.531927418270385],[34.46901302455032,48.54841180938976],[34.47696085598287,48.56842857003471],[34.47401721471155,48.58079186337426],[34.45635536708366,48.58756223829829],[34.43663297056585,48.59845371100215],[34.41043456325113,48.59786498274789],[34.38276433530075,48.597276254493636],[34.36510248767286,48.61258318910447],[34.369812313706944,48.63701541165639],[34.36510248767286,48.65585471579283],[34.32830697178139,48.65879835706414],[34.297104374305434,48.66586309611532],[34.29357200477986,48.690000954540096],[34.27944252667754,48.7020698837525],[34.24176391840467,48.70619098153236],[34.215271146962834,48.732389388847054],[34.192016380919426,48.749168144093574],[34.15875323455356,48.748579415839316],[34.13490974025589,48.75976525267032],[34.10105786563574,48.766829991721465],[34.06779471926987,48.772717274264096],[34.044834317353576,48.7839031110951],[34.02776119797994,48.79302839903619],[34.014809176386166,48.80038750221448],[33.99596987224973,48.78979039363773],[33.972126377952065,48.785963659985015],[33.962117997629576,48.802742415231535],[33.947399791273,48.82805773016486],[33.92473375348388,48.84395339302998],[33.88676078108389,48.861320876530726],[33.85290890646374,48.86397015367493],[33.84466671090405,48.87515599050593],[33.80875428739398,48.88869674035399],[33.77931787468083,48.89664457178654],[33.75694620101882,48.90694731623614],[33.72927597306844,48.91518951179583],[33.70925921242349,48.90665295210903],[33.70396065813512,48.89841075654934],[33.695424098448285,48.911362778143115],[33.66569332160799,48.93079081053381],[33.63095835460646,48.93756118545784],[33.597695208240594,48.953162484195815],[33.56825879552741,48.97082433182371],[33.5364674697972,49.0023212934268]]]}},{"type":"Feature","id":"lakes_base:1159123567","properties":{"pandolab_id":"lakes_base:1159123567","layer_id":"lakes_base","category":"lake","name":"lake-1077","name_ko":"","name_en":"","name_original":"","feature_class":"Reservoir","scale_rank":9,"min_zoom":7.0,"stroke_width":1.0800000000000003,"source_id":1159123567,"wikidata_id":"","note":"","source":"Natural Earth 5.0.0 1:10m"},"geometry":{"type":"Polygon","coordinates":[[[-47.47092131413902,-18.162447230079096],[-47.44545881714214,-18.162152865951953],[-47.441484901425866,-18.163919050714753],[-47.452965102383985,-18.179225985325587],[-47.47592550430025,-18.19364982755505],[-47.521110397814965,-18.214844044708514],[-47.53185468845527,-18.21778768597983],[-47.54392361766767,-18.21867077836123],[-47.555256636562234,-18.22132005550543],[-47.56364601418551,-18.22809043042946],[-47.56644247339324,-18.23368334884495],[-47.569680478791696,-18.244869185675952],[-47.57365439450797,-18.251050832345726],[-47.58322122863976,-18.258704299651157],[-47.586459234038216,-18.26311976155813],[-47.58675359816533,-18.26989013648216],[-47.57277130212657,-18.271950685372076],[-47.544217981794816,-18.266652131083703],[-47.52994132162891,-18.26547467457516],[-47.54186306877776,-18.280781609186022],[-47.56394037831262,-18.290495625381368],[-47.5795416770506,-18.30227019046663],[-47.57218257387231,-18.32228695111158],[-47.583368410703315,-18.330529146671267],[-47.59735070674208,-18.33582770095964],[-47.60588726642888,-18.343775532392186],[-47.600147165949835,-18.35849373874879],[-47.58851978292813,-18.368207754944137],[-47.55864182402425,-18.380276684156513],[-47.54598416655759,-18.387930151461944],[-47.55599254688008,-18.392051249241803],[-47.5714466635545,-18.39263997749606],[-47.58719514435603,-18.390579428606145],[-47.59867534531418,-18.387047059080544],[-47.61442382611571,-18.37586122224954],[-47.656959442486226,-18.364381021291422],[-47.67005864614359,-18.36349792891002],[-47.682863485673835,-18.365264113672794],[-47.69478523282265,-18.370268303834052],[-47.704499249018,-18.381159776537913],[-47.70479361314514,-18.393228705750317],[-47.69846478441181,-18.40500327083558],[-47.68757331170792,-18.41442292290381],[-47.67359101566919,-18.419132748937898],[-47.65857844518547,-18.421193297827813],[-47.64489051327385,-18.424725667353414],[-47.63444058676066,-18.434734047675875],[-47.63031948898083,-18.44680297688828],[-47.62678711945523,-18.4721182918216],[-47.62237165754826,-18.484187221034006],[-47.62899485040873,-18.473884476584402],[-47.63635395358702,-18.465642281024714],[-47.64533205946452,-18.459754998482083],[-47.65681226042267,-18.455928264829367],[-47.666084730427315,-18.454750808320824],[-47.6738853797963,-18.455928264829367],[-47.67771211344902,-18.460932454990598],[-47.67579874662266,-18.4703521070588],[-47.681097300911034,-18.46034372673634],[-47.68933949647072,-18.44945225403245],[-47.69934787679318,-18.44179878672705],[-47.710092167433515,-18.442387514981306],[-47.7161266320397,-18.452101531176652],[-47.71539072172186,-18.46623100927897],[-47.71126962394203,-18.480949215635547],[-47.706559797907914,-18.491840688339437],[-47.73746803125675,-18.464759188643313],[-47.75351087618543,-18.44121005847279],[-47.762341799999376,-18.43090731402316],[-47.77382200095752,-18.425608759734814],[-47.788393025250514,-18.428846765133244],[-47.7885402073141,-18.44032696609139],[-47.77544100365674,-18.468291558168886],[-47.766462897779206,-18.500671612153383],[-47.7583678842831,-18.519805280416932],[-47.742472221417984,-18.547475508367313],[-47.74026449046451,-18.55718952456266],[-47.74983132459627,-18.555128975672744],[-47.75851506634666,-18.55041914963863],[-47.76587416952495,-18.543648774714597],[-47.77205581619472,-18.535995307409166],[-47.78162265032651,-18.519216552162675],[-47.787804296996256,-18.511857448984387],[-47.79575212842883,-18.507736351204528],[-47.798401405573,-18.520982736925447],[-47.80046195446292,-18.516567275018474],[-47.829604003048956,-18.481832308016948],[-47.83549128559159,-18.477122481982832],[-47.84726585067685,-18.47182392769446],[-47.85992350814351,-18.46946901467743],[-47.87228680148306,-18.47182392769446],[-47.88258954593266,-18.480066123254147],[-47.88612191545823,-18.487425226432464],[-47.885533187203976,-18.493901237229352],[-47.87949872259779,-18.50626453056887],[-47.87684944545359,-18.515684182637102],[-47.87434735037297,-18.543648774714597],[-47.89200919800086,-18.535995307409166],[-47.89980984736985,-18.530991117247936],[-47.90658022229388,-18.524220742323905],[-47.91070132007374,-18.515684182637102],[-47.91614705642567,-18.49537305786501],[-47.91997379007839,-18.488308318813836],[-47.94308137405821,-18.476828117855717],[-47.9642755912117,-18.484187221034006],[-47.98517544423805,-18.498316699136325],[-48.007841482027175,-18.507441987077414],[-48.0034260201202,-18.495961786119267],[-47.98988527027217,-18.473295748330116],[-47.98650008281015,-18.461815547371998],[-47.98856063170007,-18.450924074668137],[-47.995478188687656,-18.45033534641385],[-48.004603476628745,-18.454162080066567],[-48.01343440044269,-18.455633900702225],[-48.014611856951205,-18.455045172447967],[-48.015494949332606,-18.45445644419371],[-48.018732954731064,-18.44591988450688],[-48.017261134095406,-18.43355659116736],[-48.01284567218843,-18.422076390209213],[-48.00769429996362,-18.417072200047983],[-47.98679444693727,-18.412951102268124],[-47.97060441994503,-18.40441454258132],[-47.96030167549543,-18.389696336224745],[-47.95706367009697,-18.36761902668985],[-47.93307299373575,-18.41353983052241],[-47.931895537227206,-18.41942711306504],[-47.93086526278225,-18.431201678150302],[-47.92924626008303,-18.43679459656579],[-47.92129842865049,-18.429729857514644],[-47.90496121959467,-18.401176537182863],[-47.89701338816212,-18.394994890513118],[-47.878762812279945,-18.391168156860402],[-47.869931888466,-18.387341423207687],[-47.86389742385981,-18.37851049939374],[-47.86213123909701,-18.365264113672794],[-47.863750241796225,-18.35172336382476],[-47.86757697544894,-18.341126255248014],[-47.8703734346567,-18.337888249849556],[-47.87346425799157,-18.33582770095964],[-47.87567198894507,-18.33317842381547],[-47.87640789926289,-18.32905732603561],[-47.864191787986925,-18.334355880323983],[-47.840495475752846,-18.349662814934817],[-47.828279364476856,-18.353783912714675],[-47.817829437963695,-18.350545907316217],[-47.81002878859471,-18.341126255248014],[-47.804730234306334,-18.32905732603561],[-47.80208095716216,-18.317871489204606],[-47.80208095716216,-18.311689842534832],[-47.80399432398852,-18.298737820941056],[-47.80428868811563,-18.292556174271283],[-47.80163941097146,-18.30079836983097],[-47.79501621811099,-18.31227857078912],[-47.78118110413581,-18.330234782544153],[-47.77161427000402,-18.33671079334104],[-47.760134069045876,-18.340537526993757],[-47.748801050151314,-18.340243162866614],[-47.73982294427381,-18.334355880323983],[-47.735996210621096,-18.327879869527095],[-47.73540748236684,-18.32317004349298],[-47.74350249586294,-18.301092733958114],[-47.745121498562185,-18.28902380474571],[-47.74482713443504,-18.264591582193788],[-47.72451600966295,-18.27901542442322],[-47.707442890289315,-18.299620913322457],[-47.68889795028002,-18.315222212060434],[-47.66387699947384,-18.314339119679033],[-47.65136652407074,-18.306980016500745],[-47.64003350517618,-18.2972660003054],[-47.6312025813622,-18.285197071092995],[-47.62634557326453,-18.271656321244933],[-47.62413784231106,-18.25046210409147],[-47.62590402707386,-18.22809043042946],[-47.63134976342579,-18.206601849148825],[-47.64076941549399,-18.187468180885276],[-47.648275700735866,-18.177165436435672],[-47.65048343168934,-18.1736330669101],[-47.651072159943595,-18.1701006973845],[-47.650630613752895,-18.167157056113183],[-47.65092497788004,-18.163919050714753],[-47.653279890897096,-18.160681045316295],[-47.6320856737436,-18.173927431037214],[-47.62546248088316,-18.165685235477525],[-47.61457100817927,-18.146551567213976],[-47.60750626912812,-18.139192464035688],[-47.60574008436532,-18.148317751976776],[-47.59999998388625,-18.166568327858926],[-47.59867534531418,-18.175987979927157],[-47.60029434801339,-18.185113267868218],[-47.60677035881028,-18.203069479623252],[-47.60662317674672,-18.2127834958186],[-47.597939434996334,-18.22043696312403],[-47.583368410703315,-18.21631586534417],[-47.56850302228318,-18.206013120894568],[-47.55893618815139,-18.19629910469922],[-47.55172426703666,-18.18275835485116],[-47.546131348621174,-18.168923240875984],[-47.535239875917284,-18.180109077706987],[-47.529794139565354,-18.180992170088388],[-47.52037448749715,-18.177165436435672],[-47.51272102019172,-18.1727499745287],[-47.50639219145839,-18.16686269198607],[-47.50227109367856,-18.15950358880778],[-47.501535183360716,-18.15037830086669],[-47.494323262245985,-18.155676855155065],[-47.487405705258396,-18.159209224680637],[-47.47989942001655,-18.161564137697695],[-47.47092131413902,-18.162447230079096]]]}}]}
