{"type":"FeatureCollection","features":[{"type":"Feature","id":16244,"properties":{"fid":16244,"logicalFid":4869,"awId":"lakes_base:1159123163","name":"lake-1052","layerId":"lakes_natural_earth","category":"lake","bounds":[33536467,48524863,34570274,49008209],"stage":0,"flags":0,"fragmentIndex":0,"fragmentCount":1,"width":1,"sourceId":"1159123163","source":"Natural Earth 5.0.0 1:10m"},"geometry":{"type":"Polygon","coordinates":[[[33.536467,49.002321],[33.585626,49.008209],[33.618595,48.996728],[33.663338,48.980833],[33.719562,48.95905],[33.755474,48.94963],[33.773725,48.946098],[33.795214,48.936972],[33.826122,48.934912],[33.860268,48.929319],[33.892942,48.912835],[33.892942,48.912835],[33.939746,48.894584],[33.976542,48.877805],[33.99597,48.865442],[34.05396,48.877217],[34.098703,48.881632],[34.109006,48.888697],[34.111361,48.911952],[34.123724,48.930496],[34.139914,48.916367],[34.131966,48.881632],[34.109889,48.853373],[34.113716,48.836889],[34.137853,48.84307],[34.156987,48.855139],[34.176121,48.863381],[34.201142,48.868386],[34.219098,48.861321],[34.20173,48.855434],[34.181419,48.845425],[34.202025,48.833356],[34.226457,48.835122],[34.244119,48.833062],[34.256188,48.813045],[34.256776,48.792145],[34.260309,48.769774],[34.267668,48.756527],[34.304169,48.742103],[34.329484,48.722381],[34.356566,48.70678],[34.418088,48.679698],[34.468719,48.66027],[34.50993,48.624946],[34.56056,48.593744],[34.570274,48.562247],[34.522587,48.524863],[34.49109,48.531927],[34.469013,48.548412],[34.476961,48.568429],[34.474017,48.580792],[34.456355,48.587562],[34.436633,48.598454],[34.410435,48.597865],[34.382764,48.597276],[34.365102,48.612583],[34.369812,48.637015],[34.365102,48.655855],[34.328307,48.658798],[34.297104,48.665863],[34.293572,48.690001],[34.279443,48.70207],[34.241764,48.706191],[34.215271,48.732389],[34.192016,48.749168],[34.158753,48.748579],[34.13491,48.759765],[34.101058,48.76683],[34.067795,48.772717],[34.044834,48.783903],[34.027761,48.793028],[34.014809,48.800388],[33.99597,48.78979],[33.972126,48.785964],[33.962118,48.802742],[33.9474,48.828058],[33.924734,48.843953],[33.886761,48.861321],[33.852909,48.86397],[33.844667,48.875156],[33.808754,48.888697],[33.779318,48.896645],[33.756946,48.906947],[33.729276,48.91519],[33.709259,48.906653],[33.703961,48.898411],[33.695424,48.911363],[33.665693,48.930791],[33.630958,48.937561],[33.597695,48.953162],[33.568259,48.970824],[33.536467,49.002321]]]}},{"type":"Feature","id":16269,"properties":{"fid":16269,"logicalFid":4894,"awId":"lakes_base:1159123567","name":"lake-1077","layerId":"lakes_natural_earth","category":"lake","bounds":[-48018733,-18557190,-47441485,-18139192],"stage":2,"flags":0,"fragmentIndex":0,"fragmentCount":1,"width":1,"sourceId":"1159123567","source":"Natural Earth 5.0.0 1:10m"},"geometry":{"type":"Polygon","coordinates":[[[-47.470921,-18.162447],[-47.445459,-18.162153],[-47.441485,-18.163919],[-47.452965,-18.179226],[-47.475926,-18.19365],[-47.52111,-18.214844],[-47.531855,-18.217788],[-47.543924,-18.218671],[-47.555257,-18.22132],[-47.563646,-18.22809],[-47.566442,-18.233683],[-47.56968,-18.244869],[-47.573654,-18.251051],[-47.583221,-18.258704],[-47.586459,-18.26312],[-47.586754,-18.26989],[-47.572771,-18.271951],[-47.544218,-18.266652],[-47.529941,-18.265475],[-47.541863,-18.280782],[-47.56394,-18.290496],[-47.579542,-18.30227],[-47.572183,-18.322287],[-47.583368,-18.330529],[-47.597351,-18.335828],[-47.605887,-18.343776],[-47.600147,-18.358494],[-47.58852,-18.368208],[-47.558642,-18.380277],[-47.545984,-18.38793],[-47.555993,-18.392051],[-47.571447,-18.39264],[-47.587195,-18.390579],[-47.598675,-18.387047],[-47.614424,-18.375861],[-47.656959,-18.364381],[-47.670059,-18.363498],[-47.682863,-18.365264],[-47.694785,-18.370268],[-47.704499,-18.38116],[-47.704794,-18.393229],[-47.698465,-18.405003],[-47.687573,-18.414423],[-47.673591,-18.419133],[-47.658578,-18.421193],[-47.644891,-18.424726],[-47.634441,-18.434734],[-47.630319,-18.446803],[-47.626787,-18.472118],[-47.622372,-18.484187],[-47.628995,-18.473884],[-47.636354,-18.465642],[-47.645332,-18.459755],[-47.656812,-18.455928],[-47.666085,-18.454751],[-47.673885,-18.455928],[-47.677712,-18.460932],[-47.675799,-18.470352],[-47.681097,-18.460344],[-47.689339,-18.449452],[-47.699348,-18.441799],[-47.710092,-18.442388],[-47.716127,-18.452102],[-47.715391,-18.466231],[-47.71127,-18.480949],[-47.70656,-18.491841],[-47.737468,-18.464759],[-47.753511,-18.44121],[-47.762342,-18.430907],[-47.773822,-18.425609],[-47.788393,-18.428847],[-47.78854,-18.440327],[-47.775441,-18.468292],[-47.766463,-18.500672],[-47.758368,-18.519805],[-47.742472,-18.547476],[-47.740264,-18.55719],[-47.749831,-18.555129],[-47.758515,-18.550419],[-47.765874,-18.543649],[-47.772056,-18.535995],[-47.781623,-18.519217],[-47.787804,-18.511857],[-47.795752,-18.507736],[-47.798401,-18.520983],[-47.800462,-18.516567],[-47.829604,-18.481832],[-47.835491,-18.477122],[-47.847266,-18.471824],[-47.859924,-18.469469],[-47.872287,-18.471824],[-47.88259,-18.480066],[-47.886122,-18.487425],[-47.885533,-18.493901],[-47.879499,-18.506265],[-47.876849,-18.515684],[-47.874347,-18.543649],[-47.892009,-18.535995],[-47.89981,-18.530991],[-47.90658,-18.524221],[-47.910701,-18.515684],[-47.916147,-18.495373],[-47.919974,-18.488308],[-47.943081,-18.476828],[-47.964276,-18.484187],[-47.985175,-18.498317],[-48.007841,-18.507442],[-48.003426,-18.495962],[-47.989885,-18.473296],[-47.9865,-18.461816],[-47.988561,-18.450924],[-47.995478,-18.450335],[-48.004603,-18.454162],[-48.013434,-18.455634],[-48.014612,-18.455045],[-48.015495,-18.454456],[-48.018733,-18.44592],[-48.017261,-18.433557],[-48.012846,-18.422076],[-48.007694,-18.417072],[-47.986794,-18.412951],[-47.970604,-18.404415],[-47.960302,-18.389696],[-47.957064,-18.367619],[-47.933073,-18.41354],[-47.931896,-18.419427],[-47.930865,-18.431202],[-47.929246,-18.436795],[-47.921298,-18.42973],[-47.904961,-18.401177],[-47.897013,-18.394995],[-47.878763,-18.391168],[-47.869932,-18.387341],[-47.863897,-18.37851],[-47.862131,-18.365264],[-47.86375,-18.351723],[-47.867577,-18.341126],[-47.870373,-18.337888],[-47.873464,-18.335828],[-47.875672,-18.333178],[-47.876408,-18.329057],[-47.864192,-18.334356],[-47.840495,-18.349663],[-47.828279,-18.353784],[-47.817829,-18.350546],[-47.810029,-18.341126],[-47.80473,-18.329057],[-47.802081,-18.317871],[-47.802081,-18.31169],[-47.803994,-18.298738],[-47.804289,-18.292556],[-47.801639,-18.300798],[-47.795016,-18.312279],[-47.781181,-18.330235],[-47.771614,-18.336711],[-47.760134,-18.340538],[-47.748801,-18.340243],[-47.739823,-18.334356],[-47.735996,-18.32788],[-47.735407,-18.32317],[-47.743502,-18.301093],[-47.745121,-18.289024],[-47.744827,-18.264592],[-47.724516,-18.279015],[-47.707443,-18.299621],[-47.688898,-18.315222],[-47.663877,-18.314339],[-47.651367,-18.30698],[-47.640034,-18.297266],[-47.631203,-18.285197],[-47.626346,-18.271656],[-47.624138,-18.250462],[-47.625904,-18.22809],[-47.63135,-18.206602],[-47.640769,-18.187468],[-47.648276,-18.177165],[-47.650483,-18.173633],[-47.651072,-18.170101],[-47.650631,-18.167157],[-47.650925,-18.163919],[-47.65328,-18.160681],[-47.632086,-18.173927],[-47.625462,-18.165685],[-47.614571,-18.146552],[-47.607506,-18.139192],[-47.60574,-18.148318],[-47.6,-18.166568],[-47.598675,-18.175988],[-47.600294,-18.185113],[-47.60677,-18.203069],[-47.606623,-18.212783],[-47.597939,-18.220437],[-47.583368,-18.216316],[-47.568503,-18.206013],[-47.558936,-18.196299],[-47.551724,-18.182758],[-47.546131,-18.168923],[-47.53524,-18.180109],[-47.529794,-18.180992],[-47.520374,-18.177165],[-47.512721,-18.17275],[-47.506392,-18.166863],[-47.502271,-18.159504],[-47.501535,-18.150378],[-47.494323,-18.155677],[-47.487406,-18.159209],[-47.479899,-18.161564],[-47.470921,-18.162447]]]}}]}
