{"type":"FeatureCollection","features":[{"type":"Feature","id":"lakes_base:1159109497","properties":{"pandolab_id":"lakes_base:1159109497","layer_id":"lakes_base","category":"lake","name":"lake-229","name_ko":"","name_en":"","name_original":"","feature_class":"Lake","scale_rank":7,"min_zoom":5.7,"stroke_width":1.4400000000000002,"source_id":1159109497,"wikidata_id":"","note":"_untitled_51","source":"Natural Earth 5.0.0 1:10m"},"geometry":{"type":"Polygon","coordinates":[[[-111.94520171566145,63.76762591035134],[-111.92150540342736,63.77586810591103],[-111.712801237291,63.78734830686918],[-111.69734712061658,63.785582122106376],[-111.66702761552203,63.77645683416529],[-111.65142631678405,63.77439628527537],[-111.64038766201661,63.77645683416529],[-111.62714127629569,63.78087229607226],[-111.61831035248174,63.785582122106376],[-111.62773000454995,63.79411868179321],[-111.61183434168484,63.8091312522769],[-111.57592191817477,63.83591838784591],[-111.66305369980576,63.822377637997846],[-111.69263729458248,63.8220832738707],[-111.6718846236197,63.836507116100165],[-111.64215384677941,63.849753501821084],[-111.61124561343058,63.85946751801643],[-111.58651902675152,63.862999887542],[-111.58342820341663,63.86770971357612],[-111.55855443467401,63.894202485017956],[-111.54516086688952,63.90008976756059],[-111.50895407925232,63.903327772959045],[-111.49335278051434,63.910981240264476],[-111.4840803105097,63.92275580534974],[-111.48555213114535,63.92805435963811],[-111.49099786749728,63.93158672916368],[-111.49335278051434,63.938357104087714],[-111.49232250606939,63.94807112028306],[-111.4892316827345,63.95660767996989],[-111.48054794098411,63.96308369076678],[-111.46259172922909,63.96543860378384],[-111.45670444668644,63.971031522199326],[-111.44125033001204,63.996052473005534],[-111.43815950667715,64.00400030443808],[-111.44007287350351,64.02195651619311],[-111.43462713715158,64.02725507048149],[-111.41828992809577,64.03520290191403],[-111.40313017554848,64.03844090731249],[-111.26316003309738,64.03343671715123],[-111.25197419626637,64.02637197810009],[-111.2475587343594,64.01047631523497],[-111.24005244911754,64.00429466856522],[-111.19236546052221,63.9866328209373],[-111.18441762908965,63.97956808188616],[-111.17720570797493,63.97044279394507],[-111.16734450971602,63.96278932663964],[-111.15071293653308,63.95955132124121],[-111.13599473017649,63.963378054893894],[-111.1183328825486,63.971031522199326],[-111.1006710349207,63.9754469841063],[-111.08595282856412,63.96926533743655],[-111.05754669029591,63.95219221806289],[-110.95216433278277,63.938357104087714],[-110.94142004214247,63.93305854979934],[-110.92390537657813,63.92157834884122],[-110.9111005370479,63.918340343442765],[-110.89667669481845,63.920106528205565],[-110.8637079125797,63.92746563138385],[-110.84913688828668,63.92452199011254],[-110.83721514113785,63.910981240264476],[-110.84383833399832,63.898323582797815],[-110.87710148036419,63.87683500151721],[-110.84545733669754,63.85858442563503],[-110.76906984570687,63.854757691982314],[-110.73301024013324,63.84622113229551],[-110.70843083551775,63.84445494753271],[-110.51900751970852,63.8944968491451],[-110.45836850951939,63.90067849581487],[-110.43099264569615,63.90980378375593],[-110.40567733076283,63.92275580534974],[-110.36549662740936,63.953369674571434],[-110.35342769819695,63.96838224505515],[-110.3519558775613,63.98486663617453],[-110.36593817360004,64.00400030443808],[-110.37933174138455,64.01135940761637],[-110.40950406441554,64.01783541841326],[-110.42113144743723,64.02431142921017],[-110.42363354251786,64.03225926064272],[-110.4255469093442,64.0608125809745],[-110.42451663489925,64.06876041240704],[-110.40199777917368,64.08495043939928],[-110.34238904342952,64.0990799175016],[-110.29646823959698,64.12763323783338],[-110.24304115052257,64.14146835180856],[-110.21905047416135,64.1511823680039],[-110.20035835208849,64.16737239499616],[-110.16974448286679,64.20446227501475],[-110.15090517873037,64.21947484549847],[-110.12117440189007,64.23066068232947],[-110.09247389949473,64.23242686709224],[-109.8319616469832,64.18385678611554],[-109.81444698141887,64.17855823182717],[-109.78000637854446,64.15500910165662],[-109.76602408250571,64.1511823680039],[-109.79398867458322,64.14382326482561],[-109.83490528825452,64.14529508546127],[-109.87582190192582,64.1520654603853],[-109.90408085813046,64.16148511245353],[-109.92998490131805,64.1641343895977],[-110.0266835170808,64.13675852577447],[-110.08820561965132,64.12998815085044],[-110.12882786919549,64.11232630322255],[-110.13986652396292,64.10967702607834],[-110.15237699936603,64.10437847178997],[-110.1740127627102,64.0814180698737],[-110.18843660493965,64.07611951558533],[-110.19918089557996,64.07405896669542],[-110.23641795766211,64.06199003748301],[-110.24642633798459,64.05492529843187],[-110.2442186070311,64.03373108127838],[-110.20698154494895,64.00135102729388],[-110.20860054764817,63.98310045141173],[-110.22905885448382,63.96455551140244],[-110.25275516671792,63.95160348980863],[-110.30161961182178,63.93217545741794],[-110.3734444588419,63.88389974056835],[-110.39360840155042,63.87683500151721],[-110.40670760520779,63.874774452627264],[-110.43643838204808,63.86535480055906],[-110.65014673834568,63.84445494753271],[-110.73507078902317,63.82591000752342],[-110.91551599895487,63.822377637997846],[-111.04150384536723,63.80177214909861],[-111.15292066748657,63.76438790495291],[-111.17867752861059,63.76762591035134],[-111.13143208620596,63.80118342084435],[-110.96585226469439,63.862999887542],[-110.98086483517811,63.87212517548309],[-111.00618015011143,63.87889555040712],[-111.02148708472228,63.886549017712554],[-111.00676887836569,63.897440490416415],[-111.00676887836569,63.904210865340445],[-111.03326164980754,63.904210865340445],[-111.08462818999202,63.91039251201022],[-111.10979632286178,63.904210865340445],[-111.10538086095481,63.89479121327224],[-111.10229003761992,63.89096447961953],[-111.15483403431293,63.86712098532186],[-111.30599001359504,63.85505205610946],[-111.34322707567719,63.82855928466759],[-111.33307151329115,63.813841078311015],[-111.28641479914079,63.78528775797923],[-111.28450143231443,63.7708639157498],[-111.29789500009892,63.76350481257151],[-111.31570402979038,63.759678078918796],[-111.33439615186325,63.75997244304591],[-111.36618747759346,63.767920274478485],[-111.3814944122043,63.76497663320717],[-111.41078364285391,63.75408516050328],[-111.42859267254538,63.75084715510485],[-111.46318045748335,63.74908097034205],[-111.47966484860272,63.74643169319788],[-111.49202814194226,63.741133138909504],[-111.51395826941356,63.72847548144284],[-111.55619952165695,63.71993892175601],[-111.60844915422282,63.69226869380563],[-111.63729683868173,63.68490959062734],[-111.69263729458248,63.691974329678516],[-111.71103505252822,63.69874470460255],[-111.712801237291,63.70492635127229],[-111.71029914221039,63.71228545445058],[-111.71589206062589,63.722882563027326],[-111.72957999253751,63.727003660807185],[-111.85703965958552,63.71993892175601],[-111.87529023546769,63.721116378264554],[-111.88956689563356,63.72494311191724],[-111.91856176215605,63.740250046528104],[-111.91973921866456,63.73907259001959],[-111.92062231104596,63.74231059541802],[-111.92032794691883,63.74819787796065],[-111.91856176215605,63.75408516050328],[-111.92621522946146,63.75614570939322],[-111.94520171566145,63.76762591035134]]]}},{"type":"Feature","id":"lakes_base:1159106899","properties":{"pandolab_id":"lakes_base:1159106899","layer_id":"lakes_base","category":"lake","name":"lake-26","name_ko":"","name_en":"","name_original":"","feature_class":"Lake","scale_rank":3,"min_zoom":3.0,"stroke_width":2.16,"source_id":1159106899,"wikidata_id":"","note":"_untitled_1","source":"Natural Earth 5.0.0 1:10m"},"geometry":{"type":"Polygon","coordinates":[[[-155.96073373534216,57.91154596519391],[-155.95690700168944,57.89152920454896],[-155.95131408327396,57.87504481342958],[-155.95204999359177,57.86385897659858],[-155.9675041102662,57.860326607073006],[-155.9786899470972,57.84089857468231],[-156.1320536573328,57.825886004198594],[-156.10600243208165,57.81823253689316],[-156.0222558379127,57.81882126514745],[-156.0001785283778,57.81205089022342],[-155.98266386281347,57.800865053392414],[-155.97972022154215,57.78850176005287],[-156.00165034901346,57.77790465147615],[-155.99605743059797,57.77407791782343],[-155.98928705567394,57.7673075428994],[-155.98590186821193,57.760831532102486],[-155.99870670774214,57.7543555213056],[-156.0006200745685,57.74552459749165],[-156.00120880282276,57.734927488914906],[-156.00474117234836,57.7263909292281],[-156.021814291722,57.71667691303276],[-156.0437444191933,57.709023445727325],[-156.06081753856694,57.700486886040494],[-156.063172451584,57.68841795682812],[-156.0808342992119,57.68076448952269],[-156.10129260604754,57.66869556031028],[-156.1182185433576,57.652211169190906],[-156.12528328240876,57.630428223783184],[-156.12999310844287,57.62483530536767],[-156.14132612733744,57.61688747393512],[-156.15471969512194,57.60982273488395],[-156.16619989608006,57.607173457739776],[-156.18651102085215,57.61070582726535],[-156.18474483608935,57.61688747393512],[-156.15928233909247,57.63396059330876],[-156.14780213813435,57.64661825077542],[-156.14191485559172,57.65574353871651],[-156.13955994257466,57.66486882665757],[-156.1009982419204,57.692244690480834],[-156.10158697017468,57.709906538108726],[-156.1143918097049,57.733161304152134],[-156.12145654875604,57.754061157178484],[-156.10467779350955,57.76436390162809],[-156.10865170922582,57.772606097187776],[-156.114686173832,57.778493379730406],[-156.1226340052646,57.78290884163738],[-156.1320536573328,57.78467502640015],[-156.0911370436615,57.798510140375356],[-156.14986268702427,57.814405803240476],[-156.28262090836066,57.811756526096275],[-156.34429019299472,57.81882126514745],[-156.35577039395287,57.82294236292728],[-156.38594271698386,57.839426754046656],[-156.42097204811253,57.85149568325906],[-156.43024451811718,57.85708860167455],[-156.44172471907532,57.860326607073006],[-156.49176662068768,57.860326607073006],[-156.49765390323034,57.86238715596292],[-156.50045036243807,57.86709698199704],[-156.50236372926443,57.87239553628541],[-156.5054545525993,57.87739972644664],[-156.51222492752333,57.8806377318451],[-156.5175234818117,57.87916591120944],[-156.5210558513373,57.87592790581098],[-156.52252767197297,57.87416172104818],[-156.54975635373265,57.86798007437844],[-156.55534927214813,57.86827443850555],[-156.57036184263185,57.87416172104818],[-156.62393611376982,57.880343367717956],[-156.66867946109383,57.87151244390401],[-156.69708559936203,57.87828281882804],[-156.74904086780077,57.902126313125706],[-156.8036454133837,57.91507833471948],[-156.81350661164262,57.9215543455164],[-156.8338177364147,57.93951055727143],[-156.84147120372012,57.943042926797006],[-156.84529793737283,57.946280932195464],[-156.87532307834027,57.96659205696753],[-156.88415400215422,57.97483425252722],[-156.8888638281883,57.98189899157839],[-156.88959973850615,57.99043555126519],[-156.88621455104413,58.003976301113255],[-156.8790026299294,58.01604523032566],[-156.84147120372012,58.06226039828533],[-156.8186579838674,58.073446235116336],[-156.76891044638216,58.07226877860779],[-156.723872734931,58.09316863163414],[-156.6945835042814,58.097584093541116],[-156.6390958663171,58.099939006558174],[-156.61687137471864,58.10553192497369],[-156.60671581233262,58.10464883259229],[-156.57860403819154,58.085809528455854],[-156.5688900219962,58.08198279480314],[-156.5572626389745,58.07962788178611],[-156.5188481203838,58.06049421352253],[-156.2552450445374,58.01457340969],[-156.13897121432038,57.96659205696753],[-156.1217509128832,57.953051307119466],[-156.10394188319174,57.94451474743266],[-156.05507743808786,57.94951893759389],[-156.02961494109098,57.94922457346678],[-155.9894342377375,57.937155644254375],[-155.96941747709255,57.92596980742337],[-155.96073373534216,57.91154596519391]]]}},{"type":"Feature","id":"lakes_base:1159107065","properties":{"pandolab_id":"lakes_base:1159107065","layer_id":"lakes_base","category":"lake","name":"lake-44","name_ko":"","name_en":"","name_original":"","feature_class":"Lake","scale_rank":4,"min_zoom":4.0,"stroke_width":1.9800000000000002,"source_id":1159107065,"wikidata_id":"","note":"_untitled_27","source":"Natural Earth 5.0.0 1:10m"},"geometry":{"type":"Polygon","coordinates":[[[-76.54629642537898,56.13829646335273],[-76.58544685428748,56.15919631637908],[-76.61311708223786,56.16096250114188],[-76.61311708223786,56.16802724019303],[-76.49360524662241,56.16007940876048],[-76.45607382041312,56.16802724019303],[-76.48109477121932,56.18333417480389],[-76.54453024061618,56.17479761511706],[-76.5716117403123,56.18156799004109],[-76.52201138489062,56.19275382687209],[-76.49919816503791,56.20335093544884],[-76.48963133090614,56.22601697323796],[-76.48668768963482,56.23661408181471],[-76.47947576852009,56.246622462137196],[-76.46976175232474,56.25427592944263],[-76.4596061899387,56.25721957071394],[-76.4475372607263,56.26222376087517],[-76.45033371993405,56.27340959770618],[-76.46299137740071,56.290777081206954],[-76.4457710759635,56.30225728216507],[-76.39087216625346,56.31285439074182],[-76.36982513116354,56.32197967868291],[-76.36805894640075,56.33699224916663],[-76.38822288910927,56.34964990663329],[-76.41736493769531,56.35789210219295],[-76.44253307056506,56.35965828695575],[-76.4354683315139,56.37084412378675],[-76.4126551116612,56.382618688872014],[-76.40765092149996,56.390272156177446],[-76.41294947578834,56.39733689522862],[-76.43620424183173,56.40734527555108],[-76.44253307056506,56.414410014602254],[-76.43517396738677,56.43678168826426],[-76.41162483721624,56.45002807398518],[-76.38454333752013,56.46091954668904],[-76.3661455795744,56.47563775304562],[-76.38115815005811,56.48476304098671],[-76.38822288910927,56.49035595940222],[-76.3941101716519,56.49683197019911],[-76.39263835101625,56.49948124734328],[-76.3992615438767,56.528034567675064],[-76.40146927483019,56.53038948069212],[-76.40249954927516,56.536571127361896],[-76.40411855197438,56.54010349688747],[-76.40235236721159,56.54451895879444],[-76.3941101716519,56.55217242609987],[-76.38527924783796,56.556587888006845],[-76.3630547562395,56.561592078168076],[-76.3531935579806,56.56512444769365],[-76.34892527813719,56.554821703244045],[-76.35731465576045,56.54275277403164],[-76.3531935579806,56.53038948069212],[-76.31772268066123,56.513905089572745],[-76.30815584652946,56.507134714648714],[-76.30594811557597,56.49683197019911],[-76.32081350399612,56.493005236546395],[-76.3531935579806,56.49006159527508],[-76.31625086002558,56.46857301399447],[-76.29608691731706,56.46062518256193],[-76.26988851000235,56.45532662827355],[-76.27871943381629,56.44090278604409],[-76.2843123522318,56.43413241112006],[-76.29167145541008,56.42795076445029],[-76.20512840203337,56.41970856889063],[-76.20100730425352,56.41588183523791],[-76.20218476076205,56.40793400380534],[-76.2179332415636,56.3926270691945],[-76.24324855649692,56.38673978665187],[-76.29785310207984,56.38703415077899],[-76.28254616746901,56.37732013458364],[-76.28504826254962,56.37054975965964],[-76.29402636842714,56.36495684124412],[-76.29785310207984,56.35965828695575],[-76.28813908588451,56.34788372187049],[-76.27474551810002,56.343468259963515],[-76.25943858348917,56.340818982819314],[-76.22853035014035,56.331693694878254],[-76.19364820107523,56.32551204820848],[-76.1817264539264,56.31874167328445],[-76.17466171487524,56.30549528756353],[-76.17451453281168,56.29725309200384],[-76.17112934534967,56.29018835295267],[-76.15420340803959,56.280768700884465],[-75.97184483128153,56.218069141805415],[-75.94461614952185,56.20511712021164],[-75.92180292966914,56.18833836496512],[-75.9465295163482,56.18833836496512],[-75.95771535317921,56.18657218020232],[-75.96831246175594,56.18156799004109],[-75.94814851904742,56.172148337972885],[-75.90060871251566,56.15595831098065],[-75.88324122901489,56.143595017641104],[-75.88736232679473,56.13182045255584],[-75.9185649242707,56.13182045255584],[-75.97567156493423,56.14006264811553],[-76.00451924939314,56.13653027858996],[-76.05117596354351,56.117102246199266],[-76.07869900943032,56.11268678429229],[-76.20218476076205,56.12681626239461],[-76.30462347700387,56.11268678429229],[-76.33567889241627,56.11474733318221],[-76.42075012515733,56.13299790906436],[-76.4470957145356,56.13653027858996],[-76.5237775696534,56.13299790906436],[-76.54629642537898,56.13829646335273]]]}}]}
