{"type":"FeatureCollection","features":[{"type":"Feature","id":"lakes_base:1159109497","properties":{"fid":15421,"logicalFid":4046,"awId":"lakes_base:1159109497","name":"lake-229","layerId":"lakes_natural_earth","category":"lake","bounds":[-111945202,63684910,-109766024,64232427],"stage":0,"flags":0,"fragmentIndex":0,"fragmentCount":1,"width":1,"sourceId":"1159109497","source":"Natural Earth 5.0.0 1:10m"},"geometry":{"type":"Polygon","coordinates":[[[-111.945202,63.767626],[-111.921505,63.775868],[-111.712801,63.787348],[-111.697347,63.785582],[-111.667028,63.776457],[-111.651426,63.774396],[-111.640388,63.776457],[-111.627141,63.780872],[-111.61831,63.785582],[-111.62773,63.794119],[-111.611834,63.809131],[-111.575922,63.835918],[-111.663054,63.822378],[-111.692637,63.822083],[-111.671885,63.836507],[-111.642154,63.849754],[-111.611246,63.859468],[-111.586519,63.863],[-111.583428,63.86771],[-111.558554,63.894202],[-111.545161,63.90009],[-111.508954,63.903328],[-111.493353,63.910981],[-111.48408,63.922756],[-111.485552,63.928054],[-111.490998,63.931587],[-111.493353,63.938357],[-111.492323,63.948071],[-111.489232,63.956608],[-111.480548,63.963084],[-111.462592,63.965439],[-111.456704,63.971032],[-111.44125,63.996052],[-111.43816,64.004],[-111.440073,64.021957],[-111.434627,64.027255],[-111.41829,64.035203],[-111.40313,64.038441],[-111.26316,64.033437],[-111.251974,64.026372],[-111.247559,64.010476],[-111.240052,64.004295],[-111.192365,63.986633],[-111.184418,63.979568],[-111.177206,63.970443],[-111.167345,63.962789],[-111.150713,63.959551],[-111.135995,63.963378],[-111.118333,63.971032],[-111.100671,63.975447],[-111.085953,63.969265],[-111.057547,63.952192],[-110.952164,63.938357],[-110.94142,63.933059],[-110.923905,63.921578],[-110.911101,63.91834],[-110.896677,63.920107],[-110.863708,63.927466],[-110.849137,63.924522],[-110.837215,63.910981],[-110.843838,63.898324],[-110.877101,63.876835],[-110.845457,63.858584],[-110.76907,63.854758],[-110.73301,63.846221],[-110.708431,63.844455],[-110.519008,63.894497],[-110.458369,63.900678],[-110.430993,63.909804],[-110.405677,63.922756],[-110.365497,63.95337],[-110.353428,63.968382],[-110.351956,63.984867],[-110.365938,64.004],[-110.379332,64.011359],[-110.409504,64.017835],[-110.421131,64.024311],[-110.423634,64.032259],[-110.425547,64.060813],[-110.424517,64.06876],[-110.401998,64.08495],[-110.342389,64.09908],[-110.296468,64.127633],[-110.243041,64.141468],[-110.21905,64.151182],[-110.200358,64.167372],[-110.169744,64.204462],[-110.150905,64.219475],[-110.121174,64.230661],[-110.092474,64.232427],[-109.831962,64.183857],[-109.814447,64.178558],[-109.780006,64.155009],[-109.766024,64.151182],[-109.793989,64.143823],[-109.834905,64.145295],[-109.875822,64.152065],[-109.904081,64.161485],[-109.929985,64.164134],[-110.026684,64.136759],[-110.088206,64.129988],[-110.128828,64.112326],[-110.139867,64.109677],[-110.152377,64.104378],[-110.174013,64.081418],[-110.188437,64.07612],[-110.199181,64.074059],[-110.236418,64.06199],[-110.246426,64.054925],[-110.244219,64.033731],[-110.206982,64.001351],[-110.208601,63.9831],[-110.229059,63.964556],[-110.252755,63.951603],[-110.30162,63.932175],[-110.373444,63.8839],[-110.393608,63.876835],[-110.406708,63.874774],[-110.436438,63.865355],[-110.650147,63.844455],[-110.735071,63.82591],[-110.915516,63.822378],[-111.041504,63.801772],[-111.152921,63.764388],[-111.178678,63.767626],[-111.131432,63.801183],[-110.965852,63.863],[-110.980865,63.872125],[-111.00618,63.878896],[-111.021487,63.886549],[-111.006769,63.89744],[-111.006769,63.904211],[-111.033262,63.904211],[-111.084628,63.910393],[-111.109796,63.904211],[-111.105381,63.894791],[-111.10229,63.890964],[-111.154834,63.867121],[-111.30599,63.855052],[-111.343227,63.828559],[-111.333072,63.813841],[-111.286415,63.785288],[-111.284501,63.770864],[-111.297895,63.763505],[-111.315704,63.759678],[-111.334396,63.759972],[-111.366187,63.76792],[-111.381494,63.764977],[-111.410784,63.754085],[-111.428593,63.750847],[-111.46318,63.749081],[-111.479665,63.746432],[-111.492028,63.741133],[-111.513958,63.728475],[-111.5562,63.719939],[-111.608449,63.692269],[-111.637297,63.68491],[-111.692637,63.691974],[-111.711035,63.698745],[-111.712801,63.704926],[-111.710299,63.712285],[-111.715892,63.722883],[-111.72958,63.727004],[-111.85704,63.719939],[-111.87529,63.721116],[-111.889567,63.724943],[-111.918562,63.74025],[-111.919739,63.739073],[-111.920622,63.742311],[-111.920328,63.748198],[-111.918562,63.754085],[-111.926215,63.756146],[-111.945202,63.767626]]]}},{"type":"Feature","id":"lakes_base:1159106899","properties":{"fid":15218,"logicalFid":3843,"awId":"lakes_base:1159106899","name":"lake-26","layerId":"lakes_natural_earth","category":"lake","bounds":[-156889600,57607173,-155951314,58105532],"stage":0,"flags":0,"fragmentIndex":0,"fragmentCount":1,"width":1,"sourceId":"1159106899","source":"Natural Earth 5.0.0 1:10m"},"geometry":{"type":"Polygon","coordinates":[[[-155.960734,57.911546],[-155.956907,57.891529],[-155.951314,57.875045],[-155.95205,57.863859],[-155.967504,57.860327],[-155.97869,57.840899],[-156.132054,57.825886],[-156.106002,57.818233],[-156.022256,57.818821],[-156.000179,57.812051],[-155.982664,57.800865],[-155.97972,57.788502],[-156.00165,57.777905],[-155.996057,57.774078],[-155.989287,57.767308],[-155.985902,57.760832],[-155.998707,57.754356],[-156.00062,57.745525],[-156.001209,57.734927],[-156.004741,57.726391],[-156.021814,57.716677],[-156.043744,57.709023],[-156.060818,57.700487],[-156.063172,57.688418],[-156.080834,57.680764],[-156.101293,57.668696],[-156.118219,57.652211],[-156.125283,57.630428],[-156.129993,57.624835],[-156.141326,57.616887],[-156.15472,57.609823],[-156.1662,57.607173],[-156.186511,57.610706],[-156.184745,57.616887],[-156.159282,57.633961],[-156.147802,57.646618],[-156.141915,57.655744],[-156.13956,57.664869],[-156.100998,57.692245],[-156.101587,57.709907],[-156.114392,57.733161],[-156.121457,57.754061],[-156.104678,57.764364],[-156.108652,57.772606],[-156.114686,57.778493],[-156.122634,57.782909],[-156.132054,57.784675],[-156.091137,57.79851],[-156.149863,57.814406],[-156.282621,57.811757],[-156.34429,57.818821],[-156.35577,57.822942],[-156.385943,57.839427],[-156.420972,57.851496],[-156.430245,57.857089],[-156.441725,57.860327],[-156.491767,57.860327],[-156.497654,57.862387],[-156.50045,57.867097],[-156.502364,57.872396],[-156.505455,57.8774],[-156.512225,57.880638],[-156.517523,57.879166],[-156.521056,57.875928],[-156.522528,57.874162],[-156.549756,57.86798],[-156.555349,57.868274],[-156.570362,57.874162],[-156.623936,57.880343],[-156.668679,57.871512],[-156.697086,57.878283],[-156.749041,57.902126],[-156.803645,57.915078],[-156.813507,57.921554],[-156.833818,57.939511],[-156.841471,57.943043],[-156.845298,57.946281],[-156.875323,57.966592],[-156.884154,57.974834],[-156.888864,57.981899],[-156.8896,57.990436],[-156.886215,58.003976],[-156.879003,58.016045],[-156.841471,58.06226],[-156.818658,58.073446],[-156.76891,58.072269],[-156.723873,58.093169],[-156.694584,58.097584],[-156.639096,58.099939],[-156.616871,58.105532],[-156.606716,58.104649],[-156.578604,58.08581],[-156.56889,58.081983],[-156.557263,58.079628],[-156.518848,58.060494],[-156.255245,58.014573],[-156.138971,57.966592],[-156.121751,57.953051],[-156.103942,57.944515],[-156.055077,57.949519],[-156.029615,57.949225],[-155.989434,57.937156],[-155.969417,57.92597],[-155.960734,57.911546]]]}},{"type":"Feature","id":"lakes_base:1159107065","properties":{"fid":15236,"logicalFid":3861,"awId":"lakes_base:1159107065","name":"lake-44","layerId":"lakes_natural_earth","category":"lake","bounds":[-76613117,56112687,-75883241,56565124],"stage":0,"flags":0,"fragmentIndex":0,"fragmentCount":1,"width":1,"sourceId":"1159107065","source":"Natural Earth 5.0.0 1:10m"},"geometry":{"type":"Polygon","coordinates":[[[-76.546296,56.138296],[-76.585447,56.159196],[-76.613117,56.160963],[-76.613117,56.168027],[-76.493605,56.160079],[-76.456074,56.168027],[-76.481095,56.183334],[-76.54453,56.174798],[-76.571612,56.181568],[-76.522011,56.192754],[-76.499198,56.203351],[-76.489631,56.226017],[-76.486688,56.236614],[-76.479476,56.246622],[-76.469762,56.254276],[-76.459606,56.25722],[-76.447537,56.262224],[-76.450334,56.27341],[-76.462991,56.290777],[-76.445771,56.302257],[-76.390872,56.312854],[-76.369825,56.32198],[-76.368059,56.336992],[-76.388223,56.34965],[-76.417365,56.357892],[-76.442533,56.359658],[-76.435468,56.370844],[-76.412655,56.382619],[-76.407651,56.390272],[-76.412949,56.397337],[-76.436204,56.407345],[-76.442533,56.41441],[-76.435174,56.436782],[-76.411625,56.450028],[-76.384543,56.46092],[-76.366146,56.475638],[-76.381158,56.484763],[-76.388223,56.490356],[-76.39411,56.496832],[-76.392638,56.499481],[-76.399262,56.528035],[-76.401469,56.530389],[-76.4025,56.536571],[-76.404119,56.540103],[-76.402352,56.544519],[-76.39411,56.552172],[-76.385279,56.556588],[-76.363055,56.561592],[-76.353194,56.565124],[-76.348925,56.554822],[-76.357315,56.542753],[-76.353194,56.530389],[-76.317723,56.513905],[-76.308156,56.507135],[-76.305948,56.496832],[-76.320814,56.493005],[-76.353194,56.490062],[-76.316251,56.468573],[-76.296087,56.460625],[-76.269889,56.455327],[-76.278719,56.440903],[-76.284312,56.434132],[-76.291671,56.427951],[-76.205128,56.419709],[-76.201007,56.415882],[-76.202185,56.407934],[-76.217933,56.392627],[-76.243249,56.38674],[-76.297853,56.387034],[-76.282546,56.37732],[-76.285048,56.37055],[-76.294026,56.364957],[-76.297853,56.359658],[-76.288139,56.347884],[-76.274746,56.343468],[-76.259439,56.340819],[-76.22853,56.331694],[-76.193648,56.325512],[-76.181726,56.318742],[-76.174662,56.305495],[-76.174515,56.297253],[-76.171129,56.290188],[-76.154203,56.280769],[-75.971845,56.218069],[-75.944616,56.205117],[-75.921803,56.188338],[-75.94653,56.188338],[-75.957715,56.186572],[-75.968312,56.181568],[-75.948149,56.172148],[-75.900609,56.155958],[-75.883241,56.143595],[-75.887362,56.13182],[-75.918565,56.13182],[-75.975672,56.140063],[-76.004519,56.13653],[-76.051176,56.117102],[-76.078699,56.112687],[-76.202185,56.126816],[-76.304623,56.112687],[-76.335679,56.114747],[-76.42075,56.132998],[-76.447096,56.13653],[-76.523778,56.132998],[-76.546296,56.138296]]]}}]}
