{"type":"FeatureCollection","features":[{"type":"Feature","id":15357,"properties":{"fid":15357,"logicalFid":3982,"awId":"lakes_base:1159108703","name":"lake-165","layerId":"lakes_natural_earth","category":"lake","bounds":[-107704151,55852175,-107546371,55994352],"stage":0,"flags":0,"fragmentIndex":0,"fragmentCount":1,"width":1,"sourceId":"1159108703","source":"Natural Earth 5.0.0 1:10m"},"geometry":{"type":"Polygon","coordinates":[[[-107.615841,55.956379],[-107.614369,55.943133],[-107.614811,55.928415],[-107.611279,55.917818],[-107.605244,55.910459],[-107.5945,55.89368],[-107.587435,55.886615],[-107.575513,55.880728],[-107.564033,55.876312],[-107.554172,55.870425],[-107.546371,55.859534],[-107.567271,55.852763],[-107.654256,55.852175],[-107.666472,55.855707],[-107.675009,55.86601],[-107.683545,55.886615],[-107.686342,55.896624],[-107.689874,55.920761],[-107.702237,55.948726],[-107.704151,55.955496],[-107.699441,55.972275],[-107.689138,55.986993],[-107.675892,55.994352],[-107.663087,55.989643],[-107.644983,55.972275],[-107.634533,55.964916],[-107.625261,55.961972],[-107.615841,55.956379]]]}},{"type":"Feature","id":15457,"properties":{"fid":15457,"logicalFid":4082,"awId":"lakes_base:1159109993","name":"lake-265","layerId":"lakes_natural_earth","category":"lake","bounds":[-103236292,55873663,-103071301,56008482],"stage":0,"flags":0,"fragmentIndex":0,"fragmentCount":1,"width":1,"sourceId":"1159109993","source":"Natural Earth 5.0.0 1:10m"},"geometry":{"type":"Polygon","coordinates":[[[-103.157549,55.87955],[-103.146658,55.88897],[-103.140035,55.900156],[-103.143273,55.911047],[-103.160787,55.92606],[-103.168882,55.936657],[-103.16432,55.941367],[-103.149602,55.944605],[-103.14916,55.952553],[-103.157108,55.961678],[-103.167411,55.969331],[-103.184484,55.975219],[-103.21966,55.977279],[-103.236292,55.982283],[-103.203029,55.999357],[-103.153281,56.008482],[-103.103975,56.006421],[-103.071301,55.989643],[-103.081015,55.952847],[-103.100148,55.91458],[-103.128702,55.885143],[-103.167411,55.873663],[-103.157549,55.87955]]]}},{"type":"Feature","id":15464,"properties":{"fid":15464,"logicalFid":4089,"awId":"lakes_base:1159110087","name":"lake-272","layerId":"lakes_natural_earth","category":"lake","bounds":[-103839002,55350284,-103544785,55407096],"stage":0,"flags":0,"fragmentIndex":0,"fragmentCount":1,"width":1,"sourceId":"1159110087","source":"Natural Earth 5.0.0 1:10m"},"geometry":{"type":"Polygon","coordinates":[[[-103.698444,55.38649],[-103.583053,55.407096],[-103.544785,55.406802],[-103.553911,55.3912],[-103.557885,55.38649],[-103.605277,55.356465],[-103.687994,55.350284],[-103.775861,55.358526],[-103.839002,55.372655],[-103.822076,55.379131],[-103.798822,55.400031],[-103.784398,55.406802],[-103.760996,55.407096],[-103.719785,55.390612],[-103.698444,55.38649]]]}}]}
