{"type":"FeatureCollection","features":[{"type":"Feature","id":"lakes_base:1159108703","properties":{"pandolab_id":"lakes_base:1159108703","layer_id":"lakes_base","category":"lake","name":"lake-165","name_ko":"","name_en":"","name_original":"","feature_class":"Lake","scale_rank":7,"min_zoom":5.7,"stroke_width":1.4400000000000002,"source_id":1159108703,"wikidata_id":"","note":"_untitled_119","source":"Natural Earth 5.0.0 1:10m"},"geometry":{"type":"Polygon","coordinates":[[[-107.61584131587243,55.956379432785354],[-107.61436949523677,55.943133047064435],[-107.61481104142747,55.92841484070786],[-107.61127867190189,55.91781773213111],[-107.60524420729568,55.910458628952824],[-107.59449991665538,55.89367987370633],[-107.58743517760422,55.88661513465516],[-107.57551343045539,55.88072785211253],[-107.56403322949726,55.876312390205555],[-107.55417203123834,55.870425107662925],[-107.54637138186935,55.859533634959035],[-107.5672712348957,55.852763260035005],[-107.65425583446311,55.85217453178075],[-107.66647194573908,55.85570690130635],[-107.6750085054259,55.86600964575595],[-107.68354506511271,55.88661513465516],[-107.68634152432047,55.89662351497765],[-107.68987389384604,55.92076137340243],[-107.70223718718557,55.94872596547995],[-107.70415055401193,55.95549634040398],[-107.69944072797782,55.972275095650474],[-107.68913798352821,55.98699330200705],[-107.6758915978073,55.99435240518534],[-107.66308675827706,55.98964257915125],[-107.64498336445847,55.972275095650474],[-107.6345334379453,55.964915992472186],[-107.62526096794065,55.96197235120087],[-107.61584131587243,55.956379432785354]]]}},{"type":"Feature","id":"lakes_base:1159109993","properties":{"pandolab_id":"lakes_base:1159109993","layer_id":"lakes_base","category":"lake","name":"lake-265","name_ko":"","name_en":"","name_original":"","feature_class":"Lake","scale_rank":7,"min_zoom":5.7,"stroke_width":1.4400000000000002,"source_id":1159109993,"wikidata_id":"","note":"_untitled_11","source":"Natural Earth 5.0.0 1:10m"},"geometry":{"type":"Polygon","coordinates":[[[-103.15754942839973,55.879550395604014],[-103.14665795569586,55.88897004767222],[-103.1400347628354,55.90015588450322],[-103.14327276823384,55.91104735720708],[-103.16078743379818,55.9260599276908],[-103.1688824472943,55.93665703626755],[-103.16431980332375,55.94136686230166],[-103.14960159696717,55.94460486770009],[-103.14916005077647,55.95255269913267],[-103.15710788220903,55.96167798707373],[-103.16741062665864,55.96933145437916],[-103.18448374603227,55.97521873692179],[-103.21966025922451,55.977279285811704],[-103.23629183240745,55.98228347597296],[-103.20302868604158,55.9993565953466],[-103.15328114855632,56.00848188328766],[-103.10397515726176,56.00642133439774],[-103.07130073915015,55.98964257915125],[-103.08101475534549,55.95284706325978],[-103.10014842360906,55.91457972673268],[-103.12870174394082,55.8851433140195],[-103.16741062665864,55.873663113061355],[-103.15754942839973,55.879550395604014]]]}},{"type":"Feature","id":"lakes_base:1159110087","properties":{"pandolab_id":"lakes_base:1159110087","layer_id":"lakes_base","category":"lake","name":"lake-272","name_ko":"","name_en":"","name_original":"","feature_class":"Lake","scale_rank":7,"min_zoom":5.7,"stroke_width":1.4400000000000002,"source_id":1159110087,"wikidata_id":"","note":"_untitled_4","source":"Natural Earth 5.0.0 1:10m"},"geometry":{"type":"Polygon","coordinates":[[[-103.69844351200418,55.386490482658445],[-103.58305277416855,55.40709597155768],[-103.54478543764144,55.40680160743054],[-103.55391072558253,55.39120030869256],[-103.5578846412988,55.386490482658445],[-103.605277265767,55.356465341691035],[-103.687993585491,55.35028369502126],[-103.7758612774398,55.35852589058095],[-103.83900238270954,55.37265536868327],[-103.82207644539947,55.37913137948016],[-103.79882167935607,55.40003123250651],[-103.78439783712662,55.40680160743054],[-103.76099588901965,55.40709597155768],[-103.71978491122121,55.3906115804383],[-103.69844351200418,55.386490482658445]]]}}]}
