{"type":"FeatureCollection","features":[{"type":"Feature","id":"lakes_base:1159108369","properties":{"pandolab_id":"lakes_base:1159108369","layer_id":"lakes_base","category":"lake","name":"lake-141","name_ko":"","name_en":"","name_original":"","feature_class":"Lake","scale_rank":6,"min_zoom":5.0,"stroke_width":1.62,"source_id":1159108369,"wikidata_id":"","note":"_untitled_13","source":"Natural Earth 5.0.0 1:10m"},"geometry":{"type":"Polygon","coordinates":[[[-102.09415901913657,54.71563463692539],[-102.07811617420789,54.707981169619956],[-102.07649717150868,54.65205198546494],[-102.07811617420789,54.63968869212542],[-102.0837090926234,54.63144649656573],[-102.10549203803114,54.611724100047894],[-102.11388141565439,54.600243899089776],[-102.11785533137068,54.59288479591146],[-102.11903278787919,54.58552569273317],[-102.11917996994276,54.57433985590217],[-102.12124051883268,54.56639202446962],[-102.1306601709009,54.55638364414713],[-102.13286790185438,54.546669627951815],[-102.1306601709009,54.537544340010726],[-102.12124051883268,54.52459231841692],[-102.11917996994276,54.519882492382806],[-102.12050460851485,54.48161515585571],[-102.1263918910575,54.46689694949913],[-102.13949109471484,54.454828020286726],[-102.1581832167877,54.448940737744095],[-102.1780527953691,54.44952946599835],[-102.21411240094272,54.454828020286726],[-102.23545380015977,54.44864637361695],[-102.25650083524968,54.43687180853169],[-102.2762232317675,54.43010143360766],[-102.29388507939541,54.43746053678595],[-102.32081939702796,54.45777166155804],[-102.32611795131632,54.46660258537199],[-102.32773695401555,54.47455041680453],[-102.33200523385896,54.479848971092906],[-102.36394374165275,54.48485316125414],[-102.42075601818915,54.50928538380609],[-102.42075601818915,54.51635012285723],[-102.40559626564188,54.52518104667118],[-102.39632379563723,54.53636688350218],[-102.3848435946791,54.54608089969753],[-102.34657625815198,54.554911823511475],[-102.33951151910082,54.566686388596764],[-102.33818688052872,54.626147942277356],[-102.34127770386361,54.634390137837045],[-102.34893117116903,54.64498724641379],[-102.35187481244034,54.652640713719194],[-102.35349381513957,54.66765328420291],[-102.34966708148686,54.67913348516106],[-102.34010024735508,54.68943622961066],[-102.29859490542951,54.71740082168816],[-102.22073559380318,54.7577287071052],[-102.19792237395049,54.759494891868],[-102.17231269489002,54.73594576169745],[-102.15744730646988,54.727114837883505],[-102.13949109471484,54.72181628359513],[-102.10976031787455,54.71887264232382],[-102.09415901913657,54.71563463692539]]]}},{"type":"Feature","id":"lakes_base:1159109845","properties":{"pandolab_id":"lakes_base:1159109845","layer_id":"lakes_base","category":"lake","name":"lake-255","name_ko":"","name_en":"","name_original":"","feature_class":"Lake","scale_rank":7,"min_zoom":5.7,"stroke_width":1.4400000000000002,"source_id":1159109845,"wikidata_id":"","note":"_untitled_27","source":"Natural Earth 5.0.0 1:10m"},"geometry":{"type":"Polygon","coordinates":[[[-102.20881384665435,54.07509829628685],[-102.24384317778302,54.06391245945585],[-102.24560936254582,54.04713370420936],[-102.2297136996807,54.03741968801401],[-102.19497873267917,54.02505639467449],[-102.18055489044971,54.015931106733404],[-102.16510077377531,53.995031253707054],[-102.15877194504198,53.98119613973185],[-102.16377613520321,53.975014493062105],[-102.16716132266522,53.97295394417219],[-102.16819159711018,53.968244118138074],[-102.17128242044507,53.96353429210396],[-102.18011334425901,53.96147374321404],[-102.18938581426367,53.9620624714683],[-102.21205185205281,53.96765538988382],[-102.22102995793033,53.97118775940939],[-102.23545380015977,53.97354267242645],[-102.40544908357832,53.96530047686676],[-102.44121432502482,53.975014493062105],[-102.43061721644807,53.99208761243574],[-102.38970060277677,54.040068965158184],[-102.37601267086515,54.05007734548067],[-102.364532469907,54.054492807387646],[-102.35437690752097,54.06391245945585],[-102.35172763037679,54.07303774739694],[-102.36261910308066,54.07745320930391],[-102.37998658658142,54.0771588451768],[-102.3792506762636,54.07804193755817],[-102.37115566276748,54.08304612771943],[-102.34996144561399,54.13397112171319],[-102.30992792432409,54.15281042584962],[-102.25841420207604,54.158992072519396],[-102.2077835722094,54.15928643664651],[-102.2077835722094,54.153104789976766],[-102.2129349444342,54.14986678457831],[-102.21602576776908,54.14515695854419],[-102.22147150412101,54.13249930107753],[-102.2051342950652,54.108655806779865],[-102.19792237395049,54.10482907312718],[-102.18158516489467,54.10482907312718],[-102.16745568679235,54.102768524237234],[-102.15553393964352,54.096881241694604],[-102.14640865170244,54.0848123124822],[-102.20881384665435,54.07509829628685]]]}},{"type":"Feature","id":"lakes_base:1159109803","properties":{"pandolab_id":"lakes_base:1159109803","layer_id":"lakes_base","category":"lake","name":"lake-252","name_ko":"","name_en":"","name_original":"","feature_class":"Lake","scale_rank":7,"min_zoom":5.7,"stroke_width":1.4400000000000002,"source_id":1159109803,"wikidata_id":"","note":"_untitled_30","source":"Natural Earth 5.0.0 1:10m"},"geometry":{"type":"Polygon","coordinates":[[[-104.54150237210928,55.477743362069276],[-104.52119124733719,55.48480810112042],[-104.50323503558215,55.49569957382431],[-104.51677578543021,55.50659104652817],[-104.53473199718525,55.51542197034212],[-104.54385728512632,55.52484162241035],[-104.5310524455961,55.53720491574987],[-104.55106920624105,55.55074566559793],[-104.57138033101313,55.54662456781807],[-104.59036681721312,55.53632182336847],[-104.60626248007824,55.53043454082584],[-104.66822612883945,55.58165389894674],[-104.67602677820844,55.59077918688783],[-104.69251116932782,55.59931574657466],[-104.70708219362083,55.61020721927852],[-104.70928992457432,55.6266916103979],[-104.69545481059913,55.63905490373742],[-104.6719056804286,55.64523655040719],[-104.6482093681945,55.64347036564439],[-104.63407989009218,55.63287325706767],[-104.63937844438055,55.61432831705835],[-104.62701515104102,55.60667484975295],[-104.60876457515886,55.60490866499015],[-104.57962252657282,55.60755794213435],[-104.54474037750772,55.61697759420255],[-104.52487079892633,55.61933250721961],[-104.53326017654959,55.59843265419326],[-104.53797000258369,55.59195664339637],[-104.49043019605193,55.58018207831108],[-104.47644790001317,55.571939882751394],[-104.48557318795426,55.55221748623359],[-104.47482889731396,55.54662456781807],[-104.43862210967676,55.55015693734367],[-104.42051871585815,55.5569273122677],[-104.3940259444163,55.585480632599456],[-104.38401756409382,55.59195664339637],[-104.37253736313569,55.593722828159144],[-104.36326489313105,55.59666646943046],[-104.35413960518996,55.596372105303345],[-104.3428065862954,55.58842427387077],[-104.33794957819772,55.581359534819626],[-104.334122844545,55.57105679037002],[-104.33456439073571,55.56163713830179],[-104.3428065862954,55.557810404649075],[-104.3600268877326,55.55221748623359],[-104.39549776505196,55.52896272019018],[-104.42302081093878,55.51807124748632],[-104.46217123984728,55.48274755223051],[-104.51015259256975,55.45301677539021],[-104.53605663575733,55.4315281941096],[-104.5500389317961,55.423285998549915],[-104.56166631481778,55.42564091156697],[-104.5659345946612,55.44771822110184],[-104.55842830941934,55.46773498174679],[-104.54150237210928,55.477743362069276]]]}}]}
