{"type":"FeatureCollection","features":[{"type":"Feature","id":15333,"properties":{"fid":15333,"logicalFid":3958,"awId":"lakes_base:1159108369","name":"lake-141","layerId":"lakes_natural_earth","category":"lake","bounds":[-102420756,54430101,-102076497,54759495],"stage":0,"flags":0,"fragmentIndex":0,"fragmentCount":1,"width":1,"sourceId":"1159108369","source":"Natural Earth 5.0.0 1:10m"},"geometry":{"type":"Polygon","coordinates":[[[-102.094159,54.715635],[-102.078116,54.707981],[-102.076497,54.652052],[-102.078116,54.639689],[-102.083709,54.631446],[-102.105492,54.611724],[-102.113881,54.600244],[-102.117855,54.592885],[-102.119033,54.585526],[-102.11918,54.57434],[-102.121241,54.566392],[-102.13066,54.556384],[-102.132868,54.54667],[-102.13066,54.537544],[-102.121241,54.524592],[-102.11918,54.519882],[-102.120505,54.481615],[-102.126392,54.466897],[-102.139491,54.454828],[-102.158183,54.448941],[-102.178053,54.449529],[-102.214112,54.454828],[-102.235454,54.448646],[-102.256501,54.436872],[-102.276223,54.430101],[-102.293885,54.437461],[-102.320819,54.457772],[-102.326118,54.466603],[-102.327737,54.47455],[-102.332005,54.479849],[-102.363944,54.484853],[-102.420756,54.509285],[-102.420756,54.51635],[-102.405596,54.525181],[-102.396324,54.536367],[-102.384844,54.546081],[-102.346576,54.554912],[-102.339512,54.566686],[-102.338187,54.626148],[-102.341278,54.63439],[-102.348931,54.644987],[-102.351875,54.652641],[-102.353494,54.667653],[-102.349667,54.679133],[-102.3401,54.689436],[-102.298595,54.717401],[-102.220736,54.757729],[-102.197922,54.759495],[-102.172313,54.735946],[-102.157447,54.727115],[-102.139491,54.721816],[-102.10976,54.718873],[-102.094159,54.715635]]]}},{"type":"Feature","id":15447,"properties":{"fid":15447,"logicalFid":4072,"awId":"lakes_base:1159109845","name":"lake-255","layerId":"lakes_natural_earth","category":"lake","bounds":[-102441214,53961474,-102146409,54159286],"stage":0,"flags":0,"fragmentIndex":0,"fragmentCount":1,"width":1,"sourceId":"1159109845","source":"Natural Earth 5.0.0 1:10m"},"geometry":{"type":"Polygon","coordinates":[[[-102.208814,54.075098],[-102.243843,54.063912],[-102.245609,54.047134],[-102.229714,54.03742],[-102.194979,54.025056],[-102.180555,54.015931],[-102.165101,53.995031],[-102.158772,53.981196],[-102.163776,53.975014],[-102.167161,53.972954],[-102.168192,53.968244],[-102.171282,53.963534],[-102.180113,53.961474],[-102.189386,53.962062],[-102.212052,53.967655],[-102.22103,53.971188],[-102.235454,53.973543],[-102.405449,53.9653],[-102.441214,53.975014],[-102.430617,53.992088],[-102.389701,54.040069],[-102.376013,54.050077],[-102.364532,54.054493],[-102.354377,54.063912],[-102.351728,54.073038],[-102.362619,54.077453],[-102.379987,54.077159],[-102.379251,54.078042],[-102.371156,54.083046],[-102.349961,54.133971],[-102.309928,54.15281],[-102.258414,54.158992],[-102.207784,54.159286],[-102.207784,54.153105],[-102.212935,54.149867],[-102.216026,54.145157],[-102.221472,54.132499],[-102.205134,54.108656],[-102.197922,54.104829],[-102.181585,54.104829],[-102.167456,54.102769],[-102.155534,54.096881],[-102.146409,54.084812],[-102.208814,54.075098]]]}},{"type":"Feature","id":15444,"properties":{"fid":15444,"logicalFid":4069,"awId":"lakes_base:1159109803","name":"lake-252","layerId":"lakes_natural_earth","category":"lake","bounds":[-104709290,55423286,-104334123,55645237],"stage":0,"flags":0,"fragmentIndex":0,"fragmentCount":1,"width":1,"sourceId":"1159109803","source":"Natural Earth 5.0.0 1:10m"},"geometry":{"type":"Polygon","coordinates":[[[-104.541502,55.477743],[-104.521191,55.484808],[-104.503235,55.4957],[-104.516776,55.506591],[-104.534732,55.515422],[-104.543857,55.524842],[-104.531052,55.537205],[-104.551069,55.550746],[-104.57138,55.546625],[-104.590367,55.536322],[-104.606262,55.530435],[-104.668226,55.581654],[-104.676027,55.590779],[-104.692511,55.599316],[-104.707082,55.610207],[-104.70929,55.626692],[-104.695455,55.639055],[-104.671906,55.645237],[-104.648209,55.64347],[-104.63408,55.632873],[-104.639378,55.614328],[-104.627015,55.606675],[-104.608765,55.604909],[-104.579623,55.607558],[-104.54474,55.616978],[-104.524871,55.619333],[-104.53326,55.598433],[-104.53797,55.591957],[-104.49043,55.580182],[-104.476448,55.57194],[-104.485573,55.552217],[-104.474829,55.546625],[-104.438622,55.550157],[-104.420519,55.556927],[-104.394026,55.585481],[-104.384018,55.591957],[-104.372537,55.593723],[-104.363265,55.596666],[-104.35414,55.596372],[-104.342807,55.588424],[-104.33795,55.58136],[-104.334123,55.571057],[-104.334564,55.561637],[-104.342807,55.55781],[-104.360027,55.552217],[-104.395498,55.528963],[-104.423021,55.518071],[-104.462171,55.482748],[-104.510153,55.453017],[-104.536057,55.431528],[-104.550039,55.423286],[-104.561666,55.425641],[-104.565935,55.447718],[-104.558428,55.467735],[-104.541502,55.477743]]]}}]}
