{"type":"FeatureCollection","features":[{"type":"Feature","id":"lakes_base:1159115267","properties":{"pandolab_id":"lakes_base:1159115267","layer_id":"lakes_base","category":"lake","name":"lake-597","name_ko":"","name_en":"","name_original":"","feature_class":"Lake","scale_rank":5,"min_zoom":4.7,"stroke_width":1.8000000000000003,"source_id":1159115267,"wikidata_id":"","note":"_untitled_0","source":"Natural Earth 5.0.0 1:10m"},"geometry":{"type":"Polygon","coordinates":[[[85.89472039858009,30.955445387238427],[85.90001895286849,30.944553914534538],[85.90296259413981,30.93395680595779],[85.89884149635998,30.922476604999673],[85.88588947476615,30.913645681185727],[85.87676418682508,30.916589322457042],[85.87323181729948,30.926008974525246],[85.87823600746071,30.93631171897485],[85.87087690428245,30.931896257067876],[85.86204598046851,30.930130072305076],[85.85233196427316,30.930130072305076],[85.84173485569642,30.93130752881362],[85.85645306205299,30.91394004531284],[85.86204598046851,30.886858545616747],[85.8617516163414,30.855950312267908],[85.85556996967159,30.81444497034235],[85.84350104045922,30.777355090323766],[85.83673066553519,30.764403068729962],[85.81553644838169,30.747624313483442],[85.79993514964372,30.7490961341191],[85.78403948677862,30.756455237297416],[85.76137344898945,30.75822142206019],[85.76578891089645,30.766169253492762],[85.77079310105768,30.770584715399735],[85.778152204236,30.772350900162508],[85.78874931281274,30.77176217190825],[85.78874931281274,30.77853254683228],[85.77167619343908,30.782064916357854],[85.76902691629488,30.789424019536142],[85.77285364994759,30.795605666205915],[85.77579729121891,30.795605666205915],[85.78080148138014,30.793839481443115],[85.79169295408406,30.80031549224003],[85.80346751916932,30.810323872562492],[85.80994352996618,30.81944916050358],[85.78580567154137,30.81768297574078],[85.76196217724373,30.830929361461727],[85.74341723723444,30.852417942742335],[85.73399758516621,30.874200888150085],[85.71898501468252,30.86801924148031],[85.70514990070734,30.87125724687877],[85.69102042260499,30.878027621802772],[85.67541912386702,30.881559991328373],[85.65893473274764,30.87949944243843],[85.61065901589808,30.860660138302023],[85.59800135843142,30.87125724687877],[85.5897591628717,30.864781236081853],[85.58446060858336,30.848296844962476],[85.58269442382056,30.830046269080327],[85.57445222826084,30.819743524630724],[85.55531855999732,30.82621953542761],[85.52205541363139,30.84682502432682],[85.41343505071984,30.870079790370227],[85.37781699133689,30.88862473037952],[85.36928043165011,30.895689469430692],[85.35868332307336,30.90952458340587],[85.33130745925007,30.9572115720012],[85.33336800814004,30.97575651201049],[85.34190456782682,30.99341835963841],[85.35397349703925,31.008136565994988],[85.39665629547335,31.036101158072483],[85.40519285516012,31.045520810140715],[85.40607594754152,31.05494046220892],[85.39959993674466,31.070247396819752],[85.40166048563458,31.076429043489526],[85.41196323008415,31.08113886952364],[85.4243265234237,31.0808445053965],[85.43668981676325,31.07760649999807],[85.44669819708571,31.07348540221821],[85.48084443583298,31.049347543793402],[85.49703446282524,31.041694076488],[85.52205541363139,31.038750435216684],[85.53677361998803,31.03433497330971],[85.56768185333681,31.015495669173276],[85.58681552160039,31.011374571393418],[85.6136026571694,31.001954919325215],[85.62920395590737,30.9990112780539],[85.63803487972132,31.004604196469415],[85.63450251019572,31.01490694091902],[85.62655467876317,31.02079422346165],[85.62773213527169,31.027270234258538],[85.65157562956938,31.038750435216684],[85.65628545560344,31.03168569616551],[85.66570510767167,31.02256040822442],[85.67483039561273,31.01902803869885],[85.67895149339262,31.02844769076708],[85.68513314006236,31.03757297870814],[85.69896825403754,31.03757297870814],[85.74724397088715,31.027270234258538],[85.78374512265145,31.005487288850787],[85.80287879091503,30.996950729163984],[85.85439251316308,30.99224090312987],[85.8805909204778,30.984293071697323],[85.89177675730878,30.966925588196546],[85.89472039858009,30.955445387238427]]]}},{"type":"Feature","id":"lakes_base:1159123531","properties":{"pandolab_id":"lakes_base:1159123531","layer_id":"lakes_base","category":"lake","name":"lake-1075","name_ko":"","name_en":"","name_original":"","feature_class":"Reservoir","scale_rank":9,"min_zoom":7.0,"stroke_width":1.0800000000000003,"source_id":1159123531,"wikidata_id":"","note":"","source":"Natural Earth 5.0.0 1:10m"},"geometry":{"type":"Polygon","coordinates":[[[-50.31918860826505,-21.036324203265565],[-50.308591499688305,-21.045449491206654],[-50.30344012746352,-21.055752235656257],[-50.30550067635343,-21.064583159470203],[-50.31300696159528,-21.064583159470203],[-50.332582176049556,-21.0569296921648],[-50.3414130998635,-21.0560465997834],[-50.35863340130069,-21.057518420419058],[-50.36731714305108,-21.057224056291915],[-50.37482342829293,-21.054869143274885],[-50.395281735128606,-21.043977670570996],[-50.40558447957821,-21.041622757553938],[-50.48594588628515,-21.04250584993534],[-50.50184154915027,-21.040445301045423],[-50.51655975550685,-21.035441110884193],[-50.542169434567285,-21.021311632781874],[-50.55188345076263,-21.019545448019073],[-50.56100873870372,-21.02190036103613],[-50.56969248045411,-21.029553828341562],[-50.57543258093318,-21.03926784453688],[-50.5792593145859,-21.050748045495027],[-50.58455786887424,-21.074002811538435],[-50.59677398015023,-21.101673039488816],[-50.59868734697659,-21.108149050285704],[-50.599423257294404,-21.073414083284177],[-50.60192535237502,-21.066349344233004],[-50.60899009142619,-21.052514230257827],[-50.61090345825255,-21.045743855333797],[-50.60972600174401,-21.031908741358592],[-50.60280844475642,-21.003061056899696],[-50.604427447455635,-20.989814671178777],[-50.61016754793471,-20.98569357339892],[-50.6192928358758,-20.97568519307646],[-50.62385547984633,-20.971858459423743],[-50.68949868019669,-20.945954416236162],[-50.700242970836996,-20.93918404131213],[-50.721584370054046,-20.920933465429954],[-50.73291738894861,-20.91475181876021],[-50.763384076106746,-20.90974762859895],[-50.7856085677052,-20.900916704785004],[-50.792084578502084,-20.899444884149347],[-50.79826622517186,-20.900033612403604],[-50.80415350771449,-20.905037802564863],[-50.81239570327418,-20.92152219368424],[-50.81622243692689,-20.94153895432919],[-50.81548652660905,-20.96243880735554],[-50.81062951851138,-20.98010065498343],[-50.80724433104936,-20.985987937526062],[-50.798413407235415,-20.996879410229923],[-50.7950282197734,-21.003061056899696],[-50.810776700574934,-20.993935768958607],[-50.824317450422996,-20.983633024509004],[-50.83565046931756,-20.970975367042342],[-50.84492293932223,-20.955374068304366],[-50.84874967297492,-20.946248780363277],[-50.85095740392842,-20.93830094893073],[-50.85139895011912,-20.930058753371043],[-50.84992712948346,-20.920933465429954],[-50.83947720297027,-20.886787226682685],[-50.83918283884316,-20.880311215885797],[-50.856108776153235,-20.873246476834623],[-50.86685306679354,-20.87059719969045],[-50.8764199009253,-20.87471829747028],[-50.90997741141831,-20.906803987327635],[-50.94353492191132,-20.945954416236162],[-50.95619257937798,-20.95419661179585],[-50.95148275334388,-20.949192421634592],[-50.914245691261726,-20.890908324462544],[-50.90482603919351,-20.870302835563308],[-50.902765490303594,-20.861471911749362],[-50.90261830824002,-20.852346623808273],[-50.90497322125708,-20.84292697174007],[-50.9121851423718,-20.831741134909066],[-50.94324055778419,-20.807603276484258],[-50.94898065826327,-20.814079287281174],[-50.95810594620434,-20.829974950146266],[-50.964287592874115,-20.836745325070297],[-50.9660537776369,-20.83439041205324],[-50.96737841620899,-20.81437365140829],[-50.96914460097179,-20.808192004738544],[-50.97149951398883,-20.80289345045017],[-50.97547342970512,-20.799066716797455],[-50.98165507637488,-20.795828711398997],[-50.991516274633796,-20.794651254890482],[-51.01006121464309,-20.799949809178855],[-51.01918650258416,-20.800538537433113],[-51.02728151608029,-20.796711803780397],[-51.032285706241524,-20.792296341873424],[-51.038172988784154,-20.78876397234785],[-51.0487700973609,-20.78964706472925],[-51.06098620863686,-20.79435689076334],[-51.07143613515004,-20.80201035806877],[-51.08026705896398,-20.811430010136974],[-51.08806770833297,-20.82202711871372],[-51.09145289579499,-20.81025255362846],[-51.08262197198104,-20.776989407262562],[-51.080119876900426,-20.761388108524585],[-51.0832107002353,-20.747258630422266],[-51.08998107515933,-20.739016434862577],[-51.113088659139166,-20.72841932628586],[-51.12868995787714,-20.717233489454856],[-51.15297499836551,-20.68838580499593],[-51.16798756884923,-20.676316875783556],[-51.17387485139186,-20.673078870385098],[-51.176965674726745,-20.672195778003697],[-51.17990931599806,-20.674845055147898],[-51.18491350615929,-20.68161543007193],[-51.19639370711744,-20.701337826589736],[-51.19904298426161,-20.692212538648647],[-51.195363432672465,-20.67337323451224],[-51.19683525330812,-20.663659218316894],[-51.211553459664714,-20.666897223715324],[-51.24157860063214,-20.669546500859525],[-51.256443989052286,-20.672784506257955],[-51.27116219540888,-20.63481153385797],[-51.23524977189881,-20.615089137340163],[-51.223475206813546,-20.610968039560305],[-51.209640092838356,-20.609496218924647],[-51.19815989188022,-20.612145496068848],[-51.17034248186627,-20.62303696877271],[-51.16048128360737,-20.62392006115411],[-51.156801732018224,-20.618327142738593],[-51.14679335169575,-20.591834371296756],[-51.14384971042443,-20.59713292558513],[-51.143113800106605,-20.603608936382017],[-51.14355534629729,-20.61067367543319],[-51.14487998486939,-20.61656095797582],[-51.13236950946629,-20.62068205575565],[-51.12412731390661,-20.626274974171167],[-51.107937286914364,-20.641876272909144],[-51.08895080071437,-20.64982410434169],[-51.08144451547251,-20.640993180527744],[-51.07614596118414,-20.626863702425425],[-51.06437139609888,-20.61891587099288],[-51.06437139609888,-20.626274974171167],[-51.06893404006942,-20.648057919578918],[-51.04891727942446,-20.656300115138578],[-51.036995532275625,-20.66984086498664],[-51.02698715195315,-20.686030891978902],[-51.0134464021051,-20.703692739606794],[-51.004762660354714,-20.71164057103934],[-50.99431273384154,-20.71929403834477],[-50.978417070976434,-20.7269475056502],[-50.96487632112837,-20.728713690412974],[-50.950894025089625,-20.728713690412974],[-50.93411526984312,-20.73106860343003],[-50.9177780607873,-20.73931079898972],[-50.90364858268498,-20.750496635820724],[-50.88878319426483,-20.758150103126155],[-50.87038543631911,-20.755500825981954],[-50.82402308629588,-20.703692739606794],[-50.835208923126885,-20.742254440261036],[-50.8350617410633,-20.758738831380413],[-50.83579765138114,-20.764037385668786],[-50.8385941105889,-20.770807760592817],[-50.84139056979663,-20.775517586626904],[-50.84227366217803,-20.78022741266102],[-50.839330020906715,-20.787292151712194],[-50.83565046931756,-20.791413249492024],[-50.78634447802301,-20.819377841569548],[-50.78192901611604,-20.823498939349378],[-50.77383400261991,-20.832329863163324],[-50.769418540712934,-20.83615659681604],[-50.756172154992015,-20.840866422850155],[-50.72776601672382,-20.84116078697727],[-50.71378372068506,-20.843515699994327],[-50.65270316430525,-20.864415553020677],[-50.62429702603703,-20.88060558001291],[-50.60413308332852,-20.904154710183462],[-50.59368315681533,-20.89561815049663],[-50.57822904014091,-20.873246476834623],[-50.569398116326965,-20.86706483016488],[-50.57219457553472,-20.87972248763154],[-50.58338041236573,-20.90474343843772],[-50.585735325382785,-20.91651800352298],[-50.58235013792077,-20.924465834955555],[-50.55732918711459,-20.94389386734622],[-50.51744284788825,-20.988931578797377],[-50.50095845676887,-20.999823051501238],[-50.483443791204536,-21.00335542102684],[-50.39204372973015,-21.006887790552412],[-50.36613968654257,-21.0133638013493],[-50.34156028192706,-21.023077817544646],[-50.31918860826505,-21.036324203265565]]]}},{"type":"Feature","id":"lakes_base:1159107099","properties":{"pandolab_id":"lakes_base:1159107099","layer_id":"lakes_base","category":"lake","name":"lake-47","name_ko":"","name_en":"","name_original":"","feature_class":"Lake","scale_rank":4,"min_zoom":4.0,"stroke_width":1.9800000000000002,"source_id":1159107099,"wikidata_id":"","note":"_untitled_24","source":"Natural Earth 5.0.0 1:10m"},"geometry":{"type":"Polygon","coordinates":[[[-115.07370365881684,60.35712313340383],[-115.05736644976103,60.346526024827085],[-115.050596074837,60.333868367360424],[-115.05898545246026,60.32945290545345],[-115.06516709913002,60.32238816640228],[-115.06899383278272,60.31355724258833],[-115.07046565341838,60.30325449813873],[-115.07370365881684,60.29236302543487],[-115.08179867231297,60.28588701463795],[-115.10740835137341,60.27322935717129],[-115.12021319090364,60.27411244955269],[-115.12565892725559,60.27264062891703],[-115.12963284297186,60.26616461812014],[-115.1277194761455,60.26027733557751],[-115.12462865281063,60.25497878128914],[-115.12565892725559,60.25144641176357],[-115.1380222205951,60.247030949856594],[-115.14979678568038,60.24555912922091],[-115.1596579839393,60.242026759695335],[-115.16657554092689,60.23231274349999],[-115.1471475085362,60.229369102228674],[-115.1393468591672,60.22142127079613],[-115.1380222205951,60.20905797745658],[-115.13875813091295,60.19375104284575],[-115.1449397775827,60.17991592887057],[-115.15862770949433,60.18256520601474],[-115.1802634728385,60.19669468411706],[-115.19998586935633,60.19757777649846],[-115.21470407571292,60.19227922221009],[-115.24885031446019,60.17314555394654],[-115.26989734955009,60.167552635531024],[-115.31096114528496,60.16313717362405],[-115.33112508799348,60.15577807044576],[-115.3215582538617,60.14989078790313],[-115.29639012099194,60.137527494563585],[-115.28608737654234,60.135172581546556],[-115.28255500701675,60.12987402725818],[-115.28181909669894,60.11809946217292],[-115.28490992003381,60.106619261214774],[-115.29329929765706,60.1013207069264],[-115.32479625926015,60.09307851136671],[-115.33789546291752,60.094255967875256],[-115.35055312038418,60.1013207069264],[-115.3586481338803,60.10926853835895],[-115.36865651420277,60.116627641537264],[-115.38631836183067,60.121631831698494],[-115.42679342931127,60.120748739317094],[-115.43724335582445,60.12545856535121],[-115.4482820105919,60.132523304402355],[-115.4632945810756,60.13782185869073],[-115.4791902439407,60.141059864089186],[-115.49243662966164,60.1422373205977],[-115.51451393919652,60.14724151075893],[-115.55852137620269,60.17049627680234],[-115.58427823732671,60.17638355934497],[-115.71468154564604,60.17638355934497],[-115.74073277089721,60.17226246156514],[-115.80402105823052,60.1422373205977],[-115.81682589776074,60.13899931519927],[-115.8299251014181,60.13811622281787],[-115.8402278458677,60.141648592343444],[-115.84832285936383,60.161959717115536],[-115.85759532936848,60.15989916822559],[-115.86892834826304,60.153423157428705],[-115.87923109271264,60.14959642377599],[-115.89777603272195,60.15489497806436],[-115.91072805431574,60.16784699965817],[-115.9233857117824,60.183153934269],[-115.94119474147388,60.19669468411706],[-115.86377697603824,60.2276029174659],[-115.8518552288894,60.235256384771304],[-115.83743138665996,60.249680227000766],[-115.80402105823052,60.257039330179055],[-115.49626336331434,60.25144641176357],[-115.48551907267404,60.25439005303488],[-115.46564949409266,60.26233788446743],[-115.40780694311128,60.277056090824004],[-115.32921172116713,60.28853629178215],[-115.32214698211597,60.29501230257904],[-115.31758433814542,60.303843226392985],[-115.30993087084,60.31355724258833],[-115.29109156670359,60.327392356563536],[-115.26695370827878,60.34093310641157],[-115.24134402921833,60.35094148673406],[-115.13301803043387,60.36772024198058],[-115.10520062041994,60.36801460610769],[-115.09224859882613,60.364776600709234],[-115.07370365881684,60.35712313340383]]]}}]}
