{"type":"FeatureCollection","features":[{"type":"Feature","id":"lakes_base:1159115267","properties":{"fid":15789,"logicalFid":4414,"awId":"lakes_base:1159115267","name":"lake-597","layerId":"lakes_natural_earth","category":"lake","bounds":[85331307,30747624,85902963,31081139],"stage":0,"flags":0,"fragmentIndex":0,"fragmentCount":1,"width":1,"sourceId":"1159115267","source":"Natural Earth 5.0.0 1:10m"},"geometry":{"type":"Polygon","coordinates":[[[85.89472,30.955445],[85.900019,30.944554],[85.902963,30.933957],[85.898841,30.922477],[85.885889,30.913646],[85.876764,30.916589],[85.873232,30.926009],[85.878236,30.936312],[85.870877,30.931896],[85.862046,30.93013],[85.852332,30.93013],[85.841735,30.931308],[85.856453,30.91394],[85.862046,30.886859],[85.861752,30.85595],[85.85557,30.814445],[85.843501,30.777355],[85.836731,30.764403],[85.815536,30.747624],[85.799935,30.749096],[85.784039,30.756455],[85.761373,30.758221],[85.765789,30.766169],[85.770793,30.770585],[85.778152,30.772351],[85.788749,30.771762],[85.788749,30.778533],[85.771676,30.782065],[85.769027,30.789424],[85.772854,30.795606],[85.775797,30.795606],[85.780801,30.793839],[85.791693,30.800315],[85.803468,30.810324],[85.809944,30.819449],[85.785806,30.817683],[85.761962,30.830929],[85.743417,30.852418],[85.733998,30.874201],[85.718985,30.868019],[85.70515,30.871257],[85.69102,30.878028],[85.675419,30.88156],[85.658935,30.879499],[85.610659,30.86066],[85.598001,30.871257],[85.589759,30.864781],[85.584461,30.848297],[85.582694,30.830046],[85.574452,30.819744],[85.555319,30.82622],[85.522055,30.846825],[85.413435,30.87008],[85.377817,30.888625],[85.36928,30.895689],[85.358683,30.909525],[85.331307,30.957212],[85.333368,30.975757],[85.341905,30.993418],[85.353973,31.008137],[85.396656,31.036101],[85.405193,31.045521],[85.406076,31.05494],[85.3996,31.070247],[85.40166,31.076429],[85.411963,31.081139],[85.424327,31.080845],[85.43669,31.077606],[85.446698,31.073485],[85.480844,31.049348],[85.497034,31.041694],[85.522055,31.03875],[85.536774,31.034335],[85.567682,31.015496],[85.586816,31.011375],[85.613603,31.001955],[85.629204,30.999011],[85.638035,31.004604],[85.634503,31.014907],[85.626555,31.020794],[85.627732,31.02727],[85.651576,31.03875],[85.656285,31.031686],[85.665705,31.02256],[85.67483,31.019028],[85.678951,31.028448],[85.685133,31.037573],[85.698968,31.037573],[85.747244,31.02727],[85.783745,31.005487],[85.802879,30.996951],[85.854393,30.992241],[85.880591,30.984293],[85.891777,30.966926],[85.89472,30.955445]]]}},{"type":"Feature","id":"lakes_base:1159123531","properties":{"fid":16267,"logicalFid":4892,"awId":"lakes_base:1159123531","name":"lake-1075","layerId":"lakes_natural_earth","category":"lake","bounds":[-51271162,-21108149,-50303440,-20591834],"stage":2,"flags":0,"fragmentIndex":0,"fragmentCount":1,"width":1,"sourceId":"1159123531","source":"Natural Earth 5.0.0 1:10m"},"geometry":{"type":"Polygon","coordinates":[[[-50.319189,-21.036324],[-50.308591,-21.045449],[-50.30344,-21.055752],[-50.305501,-21.064583],[-50.313007,-21.064583],[-50.332582,-21.05693],[-50.341413,-21.056047],[-50.358633,-21.057518],[-50.367317,-21.057224],[-50.374823,-21.054869],[-50.395282,-21.043978],[-50.405584,-21.041623],[-50.485946,-21.042506],[-50.501842,-21.040445],[-50.51656,-21.035441],[-50.542169,-21.021312],[-50.551883,-21.019545],[-50.561009,-21.0219],[-50.569692,-21.029554],[-50.575433,-21.039268],[-50.579259,-21.050748],[-50.584558,-21.074003],[-50.596774,-21.101673],[-50.598687,-21.108149],[-50.599423,-21.073414],[-50.601925,-21.066349],[-50.60899,-21.052514],[-50.610903,-21.045744],[-50.609726,-21.031909],[-50.602808,-21.003061],[-50.604427,-20.989815],[-50.610168,-20.985694],[-50.619293,-20.975685],[-50.623855,-20.971858],[-50.689499,-20.945954],[-50.700243,-20.939184],[-50.721584,-20.920933],[-50.732917,-20.914752],[-50.763384,-20.909748],[-50.785609,-20.900917],[-50.792085,-20.899445],[-50.798266,-20.900034],[-50.804154,-20.905038],[-50.812396,-20.921522],[-50.816222,-20.941539],[-50.815487,-20.962439],[-50.81063,-20.980101],[-50.807244,-20.985988],[-50.798413,-20.996879],[-50.795028,-21.003061],[-50.810777,-20.993936],[-50.824317,-20.983633],[-50.83565,-20.970975],[-50.844923,-20.955374],[-50.84875,-20.946249],[-50.850957,-20.938301],[-50.851399,-20.930059],[-50.849927,-20.920933],[-50.839477,-20.886787],[-50.839183,-20.880311],[-50.856109,-20.873246],[-50.866853,-20.870597],[-50.87642,-20.874718],[-50.909977,-20.906804],[-50.943535,-20.945954],[-50.956193,-20.954197],[-50.951483,-20.949192],[-50.914246,-20.890908],[-50.904826,-20.870303],[-50.902765,-20.861472],[-50.902618,-20.852347],[-50.904973,-20.842927],[-50.912185,-20.831741],[-50.943241,-20.807603],[-50.948981,-20.814079],[-50.958106,-20.829975],[-50.964288,-20.836745],[-50.966054,-20.83439],[-50.967378,-20.814374],[-50.969145,-20.808192],[-50.9715,-20.802893],[-50.975473,-20.799067],[-50.981655,-20.795829],[-50.991516,-20.794651],[-51.010061,-20.79995],[-51.019187,-20.800539],[-51.027282,-20.796712],[-51.032286,-20.792296],[-51.038173,-20.788764],[-51.04877,-20.789647],[-51.060986,-20.794357],[-51.071436,-20.80201],[-51.080267,-20.81143],[-51.088068,-20.822027],[-51.091453,-20.810253],[-51.082622,-20.776989],[-51.08012,-20.761388],[-51.083211,-20.747259],[-51.089981,-20.739016],[-51.113089,-20.728419],[-51.12869,-20.717233],[-51.152975,-20.688386],[-51.167988,-20.676317],[-51.173875,-20.673079],[-51.176966,-20.672196],[-51.179909,-20.674845],[-51.184914,-20.681615],[-51.196394,-20.701338],[-51.199043,-20.692213],[-51.195363,-20.673373],[-51.196835,-20.663659],[-51.211553,-20.666897],[-51.241579,-20.669547],[-51.256444,-20.672785],[-51.271162,-20.634812],[-51.23525,-20.615089],[-51.223475,-20.610968],[-51.20964,-20.609496],[-51.19816,-20.612145],[-51.170342,-20.623037],[-51.160481,-20.62392],[-51.156802,-20.618327],[-51.146793,-20.591834],[-51.14385,-20.597133],[-51.143114,-20.603609],[-51.143555,-20.610674],[-51.14488,-20.616561],[-51.13237,-20.620682],[-51.124127,-20.626275],[-51.107937,-20.641876],[-51.088951,-20.649824],[-51.081445,-20.640993],[-51.076146,-20.626864],[-51.064371,-20.618916],[-51.064371,-20.626275],[-51.068934,-20.648058],[-51.048917,-20.6563],[-51.036996,-20.669841],[-51.026987,-20.686031],[-51.013446,-20.703693],[-51.004763,-20.711641],[-50.994313,-20.719294],[-50.978417,-20.726948],[-50.964876,-20.728714],[-50.950894,-20.728714],[-50.934115,-20.731069],[-50.917778,-20.739311],[-50.903649,-20.750497],[-50.888783,-20.75815],[-50.870385,-20.755501],[-50.824023,-20.703693],[-50.835209,-20.742254],[-50.835062,-20.758739],[-50.835798,-20.764037],[-50.838594,-20.770808],[-50.841391,-20.775518],[-50.842274,-20.780227],[-50.83933,-20.787292],[-50.83565,-20.791413],[-50.786344,-20.819378],[-50.781929,-20.823499],[-50.773834,-20.83233],[-50.769419,-20.836157],[-50.756172,-20.840866],[-50.727766,-20.841161],[-50.713784,-20.843516],[-50.652703,-20.864416],[-50.624297,-20.880606],[-50.604133,-20.904155],[-50.593683,-20.895618],[-50.578229,-20.873246],[-50.569398,-20.867065],[-50.572195,-20.879722],[-50.58338,-20.904743],[-50.585735,-20.916518],[-50.58235,-20.924466],[-50.557329,-20.943894],[-50.517443,-20.988932],[-50.500958,-20.999823],[-50.483444,-21.003355],[-50.392044,-21.006888],[-50.36614,-21.013364],[-50.34156,-21.023078],[-50.319189,-21.036324]]]}},{"type":"Feature","id":"lakes_base:1159107099","properties":{"fid":15239,"logicalFid":3864,"awId":"lakes_base:1159107099","name":"lake-47","layerId":"lakes_natural_earth","category":"lake","bounds":[-115941195,60093079,-115050596,60368015],"stage":0,"flags":0,"fragmentIndex":0,"fragmentCount":1,"width":1,"sourceId":"1159107099","source":"Natural Earth 5.0.0 1:10m"},"geometry":{"type":"Polygon","coordinates":[[[-115.073704,60.357123],[-115.057366,60.346526],[-115.050596,60.333868],[-115.058985,60.329453],[-115.065167,60.322388],[-115.068994,60.313557],[-115.070466,60.303254],[-115.073704,60.292363],[-115.081799,60.285887],[-115.107408,60.273229],[-115.120213,60.274112],[-115.125659,60.272641],[-115.129633,60.266165],[-115.127719,60.260277],[-115.124629,60.254979],[-115.125659,60.251446],[-115.138022,60.247031],[-115.149797,60.245559],[-115.159658,60.242027],[-115.166576,60.232313],[-115.147148,60.229369],[-115.139347,60.221421],[-115.138022,60.209058],[-115.138758,60.193751],[-115.14494,60.179916],[-115.158628,60.182565],[-115.180263,60.196695],[-115.199986,60.197578],[-115.214704,60.192279],[-115.24885,60.173146],[-115.269897,60.167553],[-115.310961,60.163137],[-115.331125,60.155778],[-115.321558,60.149891],[-115.29639,60.137527],[-115.286087,60.135173],[-115.282555,60.129874],[-115.281819,60.118099],[-115.28491,60.106619],[-115.293299,60.101321],[-115.324796,60.093079],[-115.337895,60.094256],[-115.350553,60.101321],[-115.358648,60.109269],[-115.368657,60.116628],[-115.386318,60.121632],[-115.426793,60.120749],[-115.437243,60.125459],[-115.448282,60.132523],[-115.463295,60.137822],[-115.47919,60.14106],[-115.492437,60.142237],[-115.514514,60.147242],[-115.558521,60.170496],[-115.584278,60.176384],[-115.714682,60.176384],[-115.740733,60.172262],[-115.804021,60.142237],[-115.816826,60.138999],[-115.829925,60.138116],[-115.840228,60.141649],[-115.848323,60.16196],[-115.857595,60.159899],[-115.868928,60.153423],[-115.879231,60.149596],[-115.897776,60.154895],[-115.910728,60.167847],[-115.923386,60.183154],[-115.941195,60.196695],[-115.863777,60.227603],[-115.851855,60.235256],[-115.837431,60.24968],[-115.804021,60.257039],[-115.496263,60.251446],[-115.485519,60.25439],[-115.465649,60.262338],[-115.407807,60.277056],[-115.329212,60.288536],[-115.322147,60.295012],[-115.317584,60.303843],[-115.309931,60.313557],[-115.291092,60.327392],[-115.266954,60.340933],[-115.241344,60.350941],[-115.133018,60.36772],[-115.105201,60.368015],[-115.092249,60.364777],[-115.073704,60.357123]]]}}]}
