{"type":"FeatureCollection","features":[{"type":"Feature","id":"lakes_base:1159116675","properties":{"pandolab_id":"lakes_base:1159116675","layer_id":"lakes_base","category":"lake","name":"lake-666","name_ko":"","name_en":"","name_original":"","feature_class":"Lake","scale_rank":7,"min_zoom":5.7,"stroke_width":1.4400000000000002,"source_id":1159116675,"wikidata_id":"","note":"_untitled_19","source":"Natural Earth 5.0.0 1:10m"},"geometry":{"type":"Polygon","coordinates":[[[20.818759721200536,41.112479593916675],[20.807279520242417,41.09393465390738],[20.80580769960676,41.071562980245375],[20.811400618022247,41.02004925799733],[20.805513335479617,40.99944376909812],[20.793738770394356,40.97677773130897],[20.786085303088925,40.95587787828262],[20.791383857377298,40.941159671926044],[20.791383857377298,40.934389297002014],[20.780198020546294,40.92909074271364],[20.7513503360874,40.92408655255241],[20.728684298298248,40.909368346195805],[20.71367172781453,40.906130340797375],[20.678348032558745,40.90642470492449],[20.65950872842231,40.910251438577205],[20.650677804608364,40.92055418302681],[20.648322891591306,40.93586111763767],[20.64773416333705,40.954700421774106],[20.644790522065733,40.972950997656255],[20.633310321107587,41.01622252434461],[20.635665234124644,41.033884371972505],[20.650677804608364,41.053901132617455],[20.65450453826108,41.06773624659266],[20.65126653286262,41.07097425199112],[20.643907429684333,41.07097425199112],[20.636548326506045,41.07274043675389],[20.633310321107587,41.081571360567835],[20.650089076354107,41.165170772673235],[20.65450453826108,41.17459042474144],[20.669222744617656,41.1795946149027],[20.722502651628503,41.17459042474144],[20.74899542307034,41.16311022378332],[20.759592531647087,41.153396207587974],[20.763713629426917,41.136617452341454],[20.770189640223833,41.12866962090891],[20.786085303088925,41.12042742534922],[20.804335878971102,41.11424577867945],[20.818759721200536,41.112479593916675]]]}},{"type":"Feature","id":"lakes_base:1159118183","properties":{"pandolab_id":"lakes_base:1159118183","layer_id":"lakes_base","category":"lake","name":"lake-753","name_ko":"","name_en":"","name_original":"","feature_class":"Lake","scale_rank":9,"min_zoom":7.0,"stroke_width":1.0800000000000003,"source_id":1159118183,"wikidata_id":"","note":"_untitled_320","source":"Natural Earth 5.0.0 1:10m"},"geometry":{"type":"Polygon","coordinates":[[[21.024225881938463,40.84490260235398],[21.0089189473276,40.816643646149345],[20.945041931740036,40.78544104867339],[20.920609709188113,40.762480646757126],[20.90765768759431,40.77602139660516],[20.914133698391197,40.79015087470748],[20.923258986332286,40.799864890902825],[20.932973002527632,40.80810708646251],[20.94121519808732,40.81693801027646],[20.94209829046872,40.82400274932763],[20.940920833960178,40.83312803726872],[20.940626469833063,40.84137023282841],[20.944747567612893,40.84490260235398],[20.951812306664067,40.84666878711678],[20.969179790164816,40.858443352202045],[20.953872855553982,40.86609681950745],[20.93532791554469,40.877577020465594],[20.92679135585786,40.89170649856791],[20.94121519808732,40.90642470492449],[20.950634850155524,40.88493612364388],[20.970062882546216,40.892589590949314],[20.984486724775678,40.91054580270435],[20.978893806360162,40.92055418302681],[20.9680023336563,40.92320346017101],[20.94121519808732,40.941159671926044],[20.9279688123664,40.9399822154175],[20.917371703789655,40.94322022081596],[20.90765768759431,40.954700421774106],[20.906480231085794,40.96912426400354],[20.91531115489974,40.9817819214702],[20.944747567612893,41.00591977989501],[20.964764328257843,41.01592816021747],[20.985958545411336,41.014750703708955],[21.030407528608208,41.00268177449655],[21.03070189273535,41.00739160053067],[21.029230072099693,41.00856905703918],[21.026580794955493,41.00827469291207],[21.024225881938463,41.00945214942058],[21.03158498511675,41.010629605929125],[21.037472267659382,41.01004087767484],[21.04218209369347,41.00739160053067],[21.044537006710527,41.00268177449655],[21.058372120685732,40.98590301925006],[21.06072703370279,40.977072095436114],[21.066319952118278,40.97442281829191],[21.07338469116945,40.9732453617834],[21.07897760958494,40.96853553574928],[21.093107087687258,40.92467528080667],[21.102821103882604,40.910251438577205],[21.11989422325624,40.86197572172762],[21.115478761349266,40.8469631512439],[21.105176016899662,40.83548295028578],[21.07897760958494,40.81693801027646],[21.071912870533794,40.829301303616006],[21.062493218465562,40.83872095568421],[21.049246832744643,40.844313874099726],[21.030407528608208,40.84490260235398],[21.024225881938463,40.84490260235398]]]}},{"type":"Feature","id":"lakes_base:1159118201","properties":{"pandolab_id":"lakes_base:1159118201","layer_id":"lakes_base","category":"lake","name":"lake-754","name_ko":"","name_en":"","name_original":"","feature_class":"Lake","scale_rank":9,"min_zoom":7.0,"stroke_width":1.0800000000000003,"source_id":1159118201,"wikidata_id":"","note":"_untitled_319","source":"Natural Earth 5.0.0 1:10m"},"geometry":{"type":"Polygon","coordinates":[[[21.116361853730666,40.79868743439431],[21.129019511197328,40.76836792929976],[21.130196967705842,40.762480646757126],[21.12342659278181,40.75747645659587],[21.10340983213686,40.73333859817109],[21.09928873435703,40.7250964026114],[21.08574798450897,40.71538238641605],[21.019516055904347,40.68653470195716],[20.99626128986094,40.680353055287384],[20.99626128986094,40.688006522592815],[21.020104784158605,40.69565998989822],[21.051896109888816,40.711261288636194],[21.077800153076424,40.73245550578969],[21.085159256254713,40.75541590770595],[21.080449430220597,40.76012573374007],[21.054545387033016,40.773077755333844],[21.0507186533803,40.77955376613076],[21.054251022905873,40.78396922803773],[21.065142495609763,40.79044523883462],[21.074267783550823,40.80045361915711],[21.08486489212757,40.807518358208256],[21.09752254959423,40.81105072773383],[21.113123848332208,40.810756363606714],[21.116361853730666,40.79868743439431]]]}}]}
