{"type":"FeatureCollection","features":[{"type":"Feature","id":15858,"properties":{"fid":15858,"logicalFid":4483,"awId":"lakes_base:1159116675","name":"lake-666","layerId":"lakes_natural_earth","category":"lake","bounds":[20633310,40906130,20818760,41179595],"stage":0,"flags":0,"fragmentIndex":0,"fragmentCount":1,"width":1,"sourceId":"1159116675","source":"Natural Earth 5.0.0 1:10m"},"geometry":{"type":"Polygon","coordinates":[[[20.81876,41.11248],[20.80728,41.093935],[20.805808,41.071563],[20.811401,41.020049],[20.805513,40.999444],[20.793739,40.976778],[20.786085,40.955878],[20.791384,40.94116],[20.791384,40.934389],[20.780198,40.929091],[20.75135,40.924087],[20.728684,40.909368],[20.713672,40.90613],[20.678348,40.906425],[20.659509,40.910251],[20.650678,40.920554],[20.648323,40.935861],[20.647734,40.9547],[20.644791,40.972951],[20.63331,41.016223],[20.635665,41.033884],[20.650678,41.053901],[20.654505,41.067736],[20.651267,41.070974],[20.643907,41.070974],[20.636548,41.07274],[20.63331,41.081571],[20.650089,41.165171],[20.654505,41.17459],[20.669223,41.179595],[20.722503,41.17459],[20.748995,41.16311],[20.759593,41.153396],[20.763714,41.136617],[20.77019,41.12867],[20.786085,41.120427],[20.804336,41.114246],[20.81876,41.11248]]]}},{"type":"Feature","id":15945,"properties":{"fid":15945,"logicalFid":4570,"awId":"lakes_base:1159118183","name":"lake-753","layerId":"lakes_natural_earth","category":"lake","bounds":[20906480,40762481,21119894,41015928],"stage":2,"flags":0,"fragmentIndex":0,"fragmentCount":1,"width":1,"sourceId":"1159118183","source":"Natural Earth 5.0.0 1:10m"},"geometry":{"type":"Polygon","coordinates":[[[21.024226,40.844903],[21.008919,40.816644],[20.945042,40.785441],[20.92061,40.762481],[20.907658,40.776021],[20.914134,40.790151],[20.923259,40.799865],[20.932973,40.808107],[20.941215,40.816938],[20.942098,40.824003],[20.940921,40.833128],[20.940626,40.84137],[20.944748,40.844903],[20.951812,40.846669],[20.96918,40.858443],[20.953873,40.866097],[20.935328,40.877577],[20.926791,40.891706],[20.941215,40.906425],[20.950635,40.884936],[20.970063,40.89259],[20.984487,40.910546],[20.978894,40.920554],[20.968002,40.923203],[20.941215,40.94116],[20.927969,40.939982],[20.917372,40.94322],[20.907658,40.9547],[20.90648,40.969124],[20.915311,40.981782],[20.944748,41.00592],[20.964764,41.015928],[20.985959,41.014751],[21.030408,41.002682],[21.030702,41.007392],[21.02923,41.008569],[21.026581,41.008275],[21.024226,41.009452],[21.031585,41.01063],[21.037472,41.010041],[21.042182,41.007392],[21.044537,41.002682],[21.058372,40.985903],[21.060727,40.977072],[21.06632,40.974423],[21.073385,40.973245],[21.078978,40.968536],[21.093107,40.924675],[21.102821,40.910251],[21.119894,40.861976],[21.115479,40.846963],[21.105176,40.835483],[21.078978,40.816938],[21.071913,40.829301],[21.062493,40.838721],[21.049247,40.844314],[21.030408,40.844903],[21.024226,40.844903]]]}},{"type":"Feature","id":15946,"properties":{"fid":15946,"logicalFid":4571,"awId":"lakes_base:1159118201","name":"lake-754","layerId":"lakes_natural_earth","category":"lake","bounds":[20996261,40680353,21130197,40811051],"stage":2,"flags":0,"fragmentIndex":0,"fragmentCount":1,"width":1,"sourceId":"1159118201","source":"Natural Earth 5.0.0 1:10m"},"geometry":{"type":"Polygon","coordinates":[[[21.116362,40.798687],[21.12902,40.768368],[21.130197,40.762481],[21.123427,40.757476],[21.10341,40.733339],[21.099289,40.725096],[21.085748,40.715382],[21.019516,40.686535],[20.996261,40.680353],[20.996261,40.688007],[21.020105,40.69566],[21.051896,40.711261],[21.0778,40.732456],[21.085159,40.755416],[21.080449,40.760126],[21.054545,40.773078],[21.050719,40.779554],[21.054251,40.783969],[21.065142,40.790445],[21.074268,40.800454],[21.084865,40.807518],[21.097523,40.811051],[21.113124,40.810756],[21.116362,40.798687]]]}}]}
