{"type":"FeatureCollection","features":[{"type":"Feature","id":"lakes_base:1159108391","properties":{"pandolab_id":"lakes_base:1159108391","layer_id":"lakes_base","category":"lake","name":"lake-142","name_ko":"","name_en":"","name_original":"","feature_class":"Lake","scale_rank":6,"min_zoom":5.0,"stroke_width":1.62,"source_id":1159108391,"wikidata_id":"","note":"_untitled_12","source":"Natural Earth 5.0.0 1:10m"},"geometry":{"type":"Polygon","coordinates":[[[-105.54955232547168,54.375349705961156],[-105.55146569229802,54.365341325638695],[-105.5516128743616,54.360337135477465],[-105.54940514340811,54.35651040182475],[-105.54660868420035,54.35297803229915],[-105.54528404562826,54.34826820626506],[-105.54719741245462,54.34238092372243],[-105.55131851023447,54.34032037483249],[-105.55588115420501,54.33973164657823],[-105.55897197753988,54.33796546181546],[-105.57221836326082,54.32560216847591],[-105.60710051232591,54.30529104370382],[-105.61431243344065,54.2938108427457],[-105.62270181106389,54.28380246242321],[-105.66038041933675,54.25848714748989],[-105.66876979696,54.24553512589611],[-105.67421553331194,54.227284550013934],[-105.68775628316,54.21050579476744],[-105.70556531285146,54.19843686555504],[-105.72411025286075,54.194021403648065],[-105.71837015238168,54.18489611570698],[-105.702327307453,54.174004643003116],[-105.69614566078324,54.16693990395194],[-105.69482102221116,54.15869770839225],[-105.69437947602046,54.144568230289934],[-105.69555693252899,54.13102748044187],[-105.69923648411813,54.12514019789924],[-105.70821458999565,54.120430371865154],[-105.70998077475844,54.109538899161265],[-105.70983359269486,54.09717560582175],[-105.71321878015688,54.08805031788066],[-105.73927000540803,54.05831954104036],[-105.75075020636616,54.05007734548067],[-105.79667101019871,54.06626737247291],[-105.80918148560181,54.07421520390548],[-105.81241949100026,54.08510667660934],[-105.80873993941111,54.09894179058452],[-105.79858437702507,54.12514019789924],[-105.79990901559715,54.13426548584033],[-105.80329420305917,54.14486259441708],[-105.8053547519491,54.15487097473954],[-105.80226392861421,54.163113170299226],[-105.79961465147002,54.17459337125737],[-105.80815121115684,54.18577920808838],[-105.82654896910257,54.20020305031784],[-105.83081724894599,54.2205141750899],[-105.82198632513203,54.236704202082166],[-105.80829839322041,54.254071685582915],[-105.79858437702507,54.276737723372065],[-105.79681819226228,54.30205303830539],[-105.79505200749949,54.31117832624648],[-105.78857599670259,54.32089234244182],[-105.77812607018942,54.323541619585995],[-105.7639965920871,54.318537429424765],[-105.7510445704933,54.31058959799219],[-105.74397983144215,54.30381922306816],[-105.73765100270882,54.30381922306816],[-105.73073344572121,54.318537429424765],[-105.72293279635223,54.40154811327588],[-105.71778142412742,54.42421415106503],[-105.7166039676189,54.43746053678595],[-105.71866451650882,54.45100128663401],[-105.72808416857703,54.467191313626245],[-105.73029189953051,54.47867151458439],[-105.72087224746231,54.50516428602623],[-105.69820620967316,54.51458393809446],[-105.67112470997705,54.511640296823145],[-105.64831149012434,54.5019262806278],[-105.63918620218327,54.49368408506811],[-105.62284899312746,54.47455041680453],[-105.61431243344065,54.46836877013479],[-105.60209632216467,54.467191313626245],[-105.57928310231198,54.473078596168875],[-105.56574235246391,54.46836877013479],[-105.56500644214609,54.44688018885415],[-105.55823606722205,54.42745215646349],[-105.54852205102671,54.41096776534411],[-105.53851367070423,54.399487564385964],[-105.5464615021368,54.391245368826276],[-105.54911077928098,54.383591901520845],[-105.54955232547168,54.375349705961156]]]}},{"type":"Feature","id":"lakes_base:1159112839","properties":{"pandolab_id":"lakes_base:1159112839","layer_id":"lakes_base","category":"lake","name":"lake-458","name_ko":"","name_en":"","name_original":"","feature_class":"Lake","scale_rank":9,"min_zoom":7.0,"stroke_width":1.0800000000000003,"source_id":1159112839,"wikidata_id":"","note":"_untitled_14","source":"Natural Earth 5.0.0 1:10m"},"geometry":{"type":"Polygon","coordinates":[[[-104.29320623087371,54.97555816118265],[-104.22211729417141,54.9676103297501],[-104.17487185176678,54.94818229735941],[-104.18223095494507,54.94347247132529],[-104.19047315050476,54.94052883005398],[-104.1993040743187,54.93964573767258],[-104.20901809051405,54.94082319418109],[-104.2346277695745,54.93405281925709],[-104.32220109739617,54.93464154751135],[-104.39387876235274,54.913741694485],[-104.42125462617598,54.913447330357855],[-104.43450101189691,54.91786279226483],[-104.44495093841009,54.9231613465532],[-104.45554804698682,54.92728244433306],[-104.46967752508914,54.92787117258732],[-104.48159927223797,54.92463316718886],[-104.5022047611372,54.91550787924777],[-104.51397932622245,54.913447330357855],[-104.52472361686277,54.910209324959425],[-104.54474037750772,54.896079846857106],[-104.55489593989377,54.89313620558576],[-104.58035843689065,54.89137002082299],[-104.6068512083325,54.88607146653462],[-104.61641804246428,54.88077291224624],[-104.64099744707977,54.85898996683849],[-104.65188891978364,54.85575196144006],[-104.68500488408596,54.85898996683849],[-104.6956019926627,54.86193360810981],[-104.71341102235417,54.87606308621213],[-104.72636304394796,54.879301091610586],[-104.75344454364408,54.87547435795787],[-104.76566065492004,54.87488562970361],[-104.77817113032313,54.879301091610586],[-104.79097596985336,54.895196754475705],[-104.79436115731538,54.916096607502055],[-104.79053442366266,54.93670209640126],[-104.78155631778515,54.95142030275784],[-104.76036210063167,54.963783596097386],[-104.73902070141462,54.9658441449873],[-104.6886844356751,54.961134318953185],[-104.56210786100849,54.96819905800436],[-104.44877767206279,54.954363944029154],[-104.42154899030312,54.957896313554755],[-104.36679726265663,54.97232015578419],[-104.29320623087371,54.97555816118265]]]}},{"type":"Feature","id":"lakes_base:1159112207","properties":{"pandolab_id":"lakes_base:1159112207","layer_id":"lakes_base","category":"lake","name":"lake-412","name_ko":"","name_en":"","name_original":"","feature_class":"Lake","scale_rank":9,"min_zoom":7.0,"stroke_width":1.0800000000000003,"source_id":1159112207,"wikidata_id":"","note":"_untitled_59","source":"Natural Earth 5.0.0 1:10m"},"geometry":{"type":"Polygon","coordinates":[[[-102.64285375211,55.19868616954844],[-102.62960736638908,55.19162143049729],[-102.62460317622784,55.17896377303063],[-102.63431719242318,55.16983848508954],[-102.65006567322473,55.166600479691084],[-102.68818582768829,55.18043559366629],[-102.72748343866036,55.18485105557326],[-102.76472050074251,55.1816130501748],[-102.78385416900608,55.16777793619963],[-102.77487606312856,55.15394282222442],[-102.7087913165875,55.09919109457795],[-102.71423705293944,55.04502809518573],[-102.72100742786346,55.01559168247255],[-102.73881645755493,55.002934025005885],[-102.75324029978438,55.005583302150086],[-102.75824448994561,55.01264804120123],[-102.75971631058128,55.02324514977798],[-102.76339586217043,55.0364915354989],[-102.78385416900608,55.050621013601216],[-102.78238234837042,55.060629393923705],[-102.7720796039208,55.073875779644624],[-102.76957750884019,55.08211797520431],[-102.76943032677661,55.096541817433746],[-102.77163805773012,55.108316382519035],[-102.77958588916266,55.116558578078724],[-102.7975421009177,55.11950221935004],[-102.83507352712698,55.11950221935004],[-102.8453762715766,55.12303458887561],[-102.84802554872077,55.1312767844353],[-102.84861427697504,55.14040207237639],[-102.85214664650061,55.14687808317328],[-102.88614570318433,55.14864426793608],[-102.92456022177501,55.13539788221513],[-102.94384107210213,55.117441670460096],[-102.92043912399517,55.10537274124772],[-102.93559887654244,55.093303812035316],[-102.94855089813625,55.094186904416716],[-102.96135573766647,55.100662915213604],[-102.97563239783236,55.10537274124772],[-102.98696541672693,55.10419528473918],[-103.02346656849126,55.09212635552677],[-103.02052292721993,55.0877108936198],[-103.01537155499513,55.07681942091594],[-103.0103673648339,55.07122650250042],[-103.01875674245714,55.059746301542305],[-103.03200312817808,55.048854828838415],[-103.04789879104318,55.040612633278755],[-103.06511909248039,55.0364915354989],[-103.08528303518891,55.04120136153301],[-103.09146468185867,55.05591956788959],[-103.09190622804937,55.071520866627566],[-103.09897096710053,55.08712216536554],[-103.09499705138425,55.10596146950198],[-103.08439994280751,55.12480077363841],[-103.06820991581526,55.13304296919807],[-103.0512839785052,55.13392606157947],[-103.03215031024163,55.13893025174073],[-103.01816801420289,55.15099918095311],[-103.01669619356723,55.174253946996515],[-103.02523275325404,55.18455669144612],[-103.04245305469125,55.195153800022865],[-103.0620282691455,55.203395995582554],[-103.07807111407418,55.208400185743784],[-103.09794069265557,55.20957764225233],[-103.22863836510203,55.19279888700581],[-103.24997976431906,55.19809744129418],[-103.26852470432837,55.205162180345354],[-103.2748535330617,55.20987200637944],[-103.28162390798573,55.229300038770134],[-103.29796111704154,55.24725625052517],[-103.29781393497797,55.248728071160826],[-103.31370959784307,55.24813934290657],[-103.35918885548492,55.256087174339115],[-103.35271284468803,55.26903919593292],[-103.3407910975392,55.28405176641664],[-103.33873054864927,55.293765782611985],[-103.34241010023841,55.2967094238833],[-103.35992476580275,55.30083052166313],[-103.36610641247252,55.303774162934445],[-103.37008032818879,55.31113326611273],[-103.37066905644306,55.32526274421505],[-103.37287678739655,55.33173875501197],[-103.39672028169421,55.350578059148404],[-103.45088328108643,55.36441317312358],[-103.4691338569686,55.3803088359887],[-103.44896991426008,55.38590175440419],[-103.3627212250105,55.386490482658445],[-103.35300720881516,55.3897284880569],[-103.33328481229734,55.40385796615922],[-103.32165742927563,55.40680160743054],[-103.29634211434231,55.40886215632045],[-103.27043807115473,55.41386634648171],[-103.21230115604622,55.444185851576265],[-103.18463092809584,55.44771822110184],[-103.16947117554857,55.45890405793284],[-103.15431142300127,55.47950954683205],[-103.13988758077183,55.49128411191734],[-103.12649401298734,55.47568281317936],[-103.1210482766354,55.451839318881696],[-103.13120383902144,55.42534654743983],[-103.1512205996664,55.40385796615922],[-103.1749169119005,55.393260857582476],[-103.1809513765067,55.39384958583673],[-103.191695667147,55.39885377599799],[-103.19846604207103,55.40003123250651],[-103.21892434890668,55.40003123250651],[-103.22466444938574,55.39473267821813],[-103.22672499827567,55.382369384878615],[-103.23099327811907,55.36853427090341],[-103.24320938939505,55.35852589058095],[-103.25498395448031,55.36470753725072],[-103.29016046767255,55.37795392297164],[-103.30473149196557,55.3803088359887],[-103.31547578260587,55.3767764664631],[-103.33578690737795,55.36176389597938],[-103.34226291817485,55.35852589058095],[-103.34579528770043,55.35411042867398],[-103.33181299166168,55.34498514073289],[-103.31429832609734,55.3367429451732],[-103.30767513323688,55.33527112453754],[-103.30473149196557,55.33262184739337],[-103.28927737529115,55.32202473881662],[-103.2938400192617,55.31525436389259],[-103.30473149196557,55.303774162934445],[-103.27161552766324,55.26933356006006],[-103.21966025922451,55.248728071160826],[-103.16211207237026,55.24019151147402],[-103.11221735282145,55.24254642449108],[-103.08999286122301,55.248728071160826],[-103.07762956788348,55.25049425592363],[-103.06511909248039,55.248728071160826],[-103.05349170945868,55.24136896798254],[-103.045249513899,55.23253804416859],[-103.03582986183078,55.225178940990304],[-102.99403015577809,55.21752547368487],[-102.97813449291297,55.20663400098101],[-102.96371065068352,55.19309325113295],[-102.94148615908509,55.181024321920546],[-102.89365198842619,55.174253946996515],[-102.87363522778124,55.178375044776374],[-102.87083876857348,55.182496142556204],[-102.87569577667115,55.190149609861635],[-102.8793753282603,55.20486781621821],[-102.87451832016262,55.220174750829074],[-102.86112475237813,55.22076347908333],[-102.81800040775335,55.208400185743784],[-102.8035765655239,55.20810582161667],[-102.7664866855053,55.215170560667815],[-102.69480902054875,55.208400185743784],[-102.66110432799216,55.20398472383681],[-102.64285375211,55.19868616954844]]]}}]}
