{"type":"FeatureCollection","features":[{"type":"Feature","id":15334,"properties":{"fid":15334,"logicalFid":3959,"awId":"lakes_base:1159108391","name":"lake-142","layerId":"lakes_natural_earth","category":"lake","bounds":[-105830817,54050077,-105538514,54514584],"stage":0,"flags":0,"fragmentIndex":0,"fragmentCount":1,"width":1,"sourceId":"1159108391","source":"Natural Earth 5.0.0 1:10m"},"geometry":{"type":"Polygon","coordinates":[[[-105.549552,54.37535],[-105.551466,54.365341],[-105.551613,54.360337],[-105.549405,54.35651],[-105.546609,54.352978],[-105.545284,54.348268],[-105.547197,54.342381],[-105.551319,54.34032],[-105.555881,54.339732],[-105.558972,54.337965],[-105.572218,54.325602],[-105.607101,54.305291],[-105.614312,54.293811],[-105.622702,54.283802],[-105.66038,54.258487],[-105.66877,54.245535],[-105.674216,54.227285],[-105.687756,54.210506],[-105.705565,54.198437],[-105.72411,54.194021],[-105.71837,54.184896],[-105.702327,54.174005],[-105.696146,54.16694],[-105.694821,54.158698],[-105.694379,54.144568],[-105.695557,54.131027],[-105.699236,54.12514],[-105.708215,54.12043],[-105.709981,54.109539],[-105.709834,54.097176],[-105.713219,54.08805],[-105.73927,54.05832],[-105.75075,54.050077],[-105.796671,54.066267],[-105.809181,54.074215],[-105.812419,54.085107],[-105.80874,54.098942],[-105.798584,54.12514],[-105.799909,54.134265],[-105.803294,54.144863],[-105.805355,54.154871],[-105.802264,54.163113],[-105.799615,54.174593],[-105.808151,54.185779],[-105.826549,54.200203],[-105.830817,54.220514],[-105.821986,54.236704],[-105.808298,54.254072],[-105.798584,54.276738],[-105.796818,54.302053],[-105.795052,54.311178],[-105.788576,54.320892],[-105.778126,54.323542],[-105.763997,54.318537],[-105.751045,54.31059],[-105.74398,54.303819],[-105.737651,54.303819],[-105.730733,54.318537],[-105.722933,54.401548],[-105.717781,54.424214],[-105.716604,54.437461],[-105.718665,54.451001],[-105.728084,54.467191],[-105.730292,54.478672],[-105.720872,54.505164],[-105.698206,54.514584],[-105.671125,54.51164],[-105.648311,54.501926],[-105.639186,54.493684],[-105.622849,54.47455],[-105.614312,54.468369],[-105.602096,54.467191],[-105.579283,54.473079],[-105.565742,54.468369],[-105.565006,54.44688],[-105.558236,54.427452],[-105.548522,54.410968],[-105.538514,54.399488],[-105.546462,54.391245],[-105.549111,54.383592],[-105.549552,54.37535]]]}},{"type":"Feature","id":15650,"properties":{"fid":15650,"logicalFid":4275,"awId":"lakes_base:1159112839","name":"lake-458","layerId":"lakes_natural_earth","category":"lake","bounds":[-104794361,54855752,-104174872,54975558],"stage":2,"flags":0,"fragmentIndex":0,"fragmentCount":1,"width":1,"sourceId":"1159112839","source":"Natural Earth 5.0.0 1:10m"},"geometry":{"type":"Polygon","coordinates":[[[-104.293206,54.975558],[-104.222117,54.96761],[-104.174872,54.948182],[-104.182231,54.943472],[-104.190473,54.940529],[-104.199304,54.939646],[-104.209018,54.940823],[-104.234628,54.934053],[-104.322201,54.934642],[-104.393879,54.913742],[-104.421255,54.913447],[-104.434501,54.917863],[-104.444951,54.923161],[-104.455548,54.927282],[-104.469678,54.927871],[-104.481599,54.924633],[-104.502205,54.915508],[-104.513979,54.913447],[-104.524724,54.910209],[-104.54474,54.89608],[-104.554896,54.893136],[-104.580358,54.89137],[-104.606851,54.886071],[-104.616418,54.880773],[-104.640997,54.85899],[-104.651889,54.855752],[-104.685005,54.85899],[-104.695602,54.861934],[-104.713411,54.876063],[-104.726363,54.879301],[-104.753445,54.875474],[-104.765661,54.874886],[-104.778171,54.879301],[-104.790976,54.895197],[-104.794361,54.916097],[-104.790534,54.936702],[-104.781556,54.95142],[-104.760362,54.963784],[-104.739021,54.965844],[-104.688684,54.961134],[-104.562108,54.968199],[-104.448778,54.954364],[-104.421549,54.957896],[-104.366797,54.97232],[-104.293206,54.975558]]]}},{"type":"Feature","id":15604,"properties":{"fid":15604,"logicalFid":4229,"awId":"lakes_base:1159112207","name":"lake-412","layerId":"lakes_natural_earth","category":"lake","bounds":[-103469134,55002934,-102624603,55491284],"stage":2,"flags":0,"fragmentIndex":0,"fragmentCount":1,"width":1,"sourceId":"1159112207","source":"Natural Earth 5.0.0 1:10m"},"geometry":{"type":"Polygon","coordinates":[[[-102.642854,55.198686],[-102.629607,55.191621],[-102.624603,55.178964],[-102.634317,55.169838],[-102.650066,55.1666],[-102.688186,55.180436],[-102.727483,55.184851],[-102.764721,55.181613],[-102.783854,55.167778],[-102.774876,55.153943],[-102.708791,55.099191],[-102.714237,55.045028],[-102.721007,55.015592],[-102.738816,55.002934],[-102.75324,55.005583],[-102.758244,55.012648],[-102.759716,55.023245],[-102.763396,55.036492],[-102.783854,55.050621],[-102.782382,55.060629],[-102.77208,55.073876],[-102.769578,55.082118],[-102.76943,55.096542],[-102.771638,55.108316],[-102.779586,55.116559],[-102.797542,55.119502],[-102.835074,55.119502],[-102.845376,55.123035],[-102.848026,55.131277],[-102.848614,55.140402],[-102.852147,55.146878],[-102.886146,55.148644],[-102.92456,55.135398],[-102.943841,55.117442],[-102.920439,55.105373],[-102.935599,55.093304],[-102.948551,55.094187],[-102.961356,55.100663],[-102.975632,55.105373],[-102.986965,55.104195],[-103.023467,55.092126],[-103.020523,55.087711],[-103.015372,55.076819],[-103.010367,55.071227],[-103.018757,55.059746],[-103.032003,55.048855],[-103.047899,55.040613],[-103.065119,55.036492],[-103.085283,55.041201],[-103.091465,55.05592],[-103.091906,55.071521],[-103.098971,55.087122],[-103.094997,55.105961],[-103.0844,55.124801],[-103.06821,55.133043],[-103.051284,55.133926],[-103.03215,55.13893],[-103.018168,55.150999],[-103.016696,55.174254],[-103.025233,55.184557],[-103.042453,55.195154],[-103.062028,55.203396],[-103.078071,55.2084],[-103.097941,55.209578],[-103.228638,55.192799],[-103.24998,55.198097],[-103.268525,55.205162],[-103.274854,55.209872],[-103.281624,55.2293],[-103.297961,55.247256],[-103.297814,55.248728],[-103.31371,55.248139],[-103.359189,55.256087],[-103.352713,55.269039],[-103.340791,55.284052],[-103.338731,55.293766],[-103.34241,55.296709],[-103.359925,55.300831],[-103.366106,55.303774],[-103.37008,55.311133],[-103.370669,55.325263],[-103.372877,55.331739],[-103.39672,55.350578],[-103.450883,55.364413],[-103.469134,55.380309],[-103.44897,55.385902],[-103.362721,55.38649],[-103.353007,55.389728],[-103.333285,55.403858],[-103.321657,55.406802],[-103.296342,55.408862],[-103.270438,55.413866],[-103.212301,55.444186],[-103.184631,55.447718],[-103.169471,55.458904],[-103.154311,55.47951],[-103.139888,55.491284],[-103.126494,55.475683],[-103.121048,55.451839],[-103.131204,55.425347],[-103.151221,55.403858],[-103.174917,55.393261],[-103.180951,55.39385],[-103.191696,55.398854],[-103.198466,55.400031],[-103.218924,55.400031],[-103.224664,55.394733],[-103.226725,55.382369],[-103.230993,55.368534],[-103.243209,55.358526],[-103.254984,55.364708],[-103.29016,55.377954],[-103.304731,55.380309],[-103.315476,55.376776],[-103.335787,55.361764],[-103.342263,55.358526],[-103.345795,55.35411],[-103.331813,55.344985],[-103.314298,55.336743],[-103.307675,55.335271],[-103.304731,55.332622],[-103.289277,55.322025],[-103.29384,55.315254],[-103.304731,55.303774],[-103.271616,55.269334],[-103.21966,55.248728],[-103.162112,55.240192],[-103.112217,55.242546],[-103.089993,55.248728],[-103.07763,55.250494],[-103.065119,55.248728],[-103.053492,55.241369],[-103.04525,55.232538],[-103.03583,55.225179],[-102.99403,55.217525],[-102.978134,55.206634],[-102.963711,55.193093],[-102.941486,55.181024],[-102.893652,55.174254],[-102.873635,55.178375],[-102.870839,55.182496],[-102.875696,55.19015],[-102.879375,55.204868],[-102.874518,55.220175],[-102.861125,55.220763],[-102.818,55.2084],[-102.803577,55.208106],[-102.766487,55.215171],[-102.694809,55.2084],[-102.661104,55.203985],[-102.642854,55.198686]]]}}]}
