{"type":"FeatureCollection","features":[{"type":"Feature","id":15611,"properties":{"fid":15611,"logicalFid":4236,"awId":"lakes_base:1159112291","name":"lake-419","layerId":"lakes_natural_earth","category":"lake","bounds":[-99967820,51109674,-99549528,51458201],"stage":2,"flags":0,"fragmentIndex":0,"fragmentCount":1,"width":1,"sourceId":"1159112291","source":"Natural Earth 5.0.0 1:10m"},"geometry":{"type":"Polygon","coordinates":[[[-99.563216,51.215056],[-99.553797,51.207697],[-99.549528,51.199161],[-99.552914,51.18562],[-99.562333,51.177083],[-99.572194,51.170313],[-99.576757,51.161482],[-99.587796,51.150002],[-99.613111,51.133518],[-99.659326,51.109968],[-99.682581,51.109674],[-99.764856,51.123509],[-99.772804,51.126747],[-99.782812,51.134401],[-99.791496,51.142643],[-99.795322,51.147941],[-99.801357,51.14853],[-99.814898,51.155301],[-99.829321,51.164426],[-99.837416,51.172079],[-99.837711,51.177672],[-99.830646,51.186503],[-99.82991,51.19239],[-99.832707,51.197689],[-99.840654,51.207992],[-99.843598,51.213585],[-99.857875,51.254501],[-99.862585,51.263038],[-99.867883,51.270397],[-99.87848,51.281877],[-99.90512,51.302188],[-99.908358,51.314257],[-99.903501,51.333096],[-99.90512,51.343105],[-99.913804,51.353996],[-99.92234,51.353996],[-99.932496,51.351936],[-99.946037,51.357529],[-99.953837,51.374307],[-99.954721,51.418168],[-99.96782,51.432592],[-99.944565,51.449959],[-99.910566,51.458201],[-99.875831,51.456729],[-99.850516,51.445544],[-99.857875,51.445544],[-99.829469,51.424938],[-99.775453,51.361944],[-99.748077,51.336334],[-99.583675,51.227125],[-99.563216,51.215056]]]}},{"type":"Feature","id":15649,"properties":{"fid":15649,"logicalFid":4274,"awId":"lakes_base:1159112821","name":"lake-457","layerId":"lakes_natural_earth","category":"lake","bounds":[-110253197,54440993,-109842264,54640866],"stage":2,"flags":0,"fragmentIndex":0,"fragmentCount":1,"width":1,"sourceId":"1159112821","source":"Natural Earth 5.0.0 1:10m"},"geometry":{"type":"Polygon","coordinates":[[[-109.89422,54.60672],[-109.890099,54.594651],[-109.842264,54.564626],[-109.842264,54.557267],[-109.912029,54.528125],[-109.945733,54.520766],[-109.985767,54.501926],[-110.013879,54.4981],[-110.025359,54.493684],[-110.033601,54.482204],[-109.972079,54.482204],[-109.982087,54.467191],[-109.999013,54.453945],[-110.018883,54.44482],[-110.037281,54.440993],[-110.05038,54.443053],[-110.072016,54.452473],[-110.081877,54.454828],[-110.093799,54.453062],[-110.115434,54.443348],[-110.12662,54.440993],[-110.145018,54.445997],[-110.193294,54.471312],[-110.205363,54.482204],[-110.206393,54.492801],[-110.198887,54.51164],[-110.20183,54.519882],[-110.213163,54.527536],[-110.253197,54.536661],[-110.253197,54.542843],[-110.239362,54.556089],[-110.188437,54.594651],[-110.157528,54.624676],[-110.141044,54.629386],[-110.089089,54.619672],[-110.078492,54.619378],[-110.003576,54.629975],[-109.975906,54.637334],[-109.948971,54.640866],[-109.924245,54.632918],[-109.914972,54.62762],[-109.903639,54.6182],[-109.89422,54.60672]]]}},{"type":"Feature","id":15393,"properties":{"fid":15393,"logicalFid":4018,"awId":"lakes_base:1159109155","name":"lake-201","layerId":"lakes_natural_earth","category":"lake","bounds":[-103750252,54557267,-103089257,54982034],"stage":0,"flags":0,"fragmentIndex":0,"fragmentCount":1,"width":1,"sourceId":"1159109155","source":"Natural Earth 5.0.0 1:10m"},"geometry":{"type":"Polygon","coordinates":[[[-103.109127,54.903439],[-103.096322,54.911976],[-103.089257,54.906677],[-103.091465,54.893725],[-103.106036,54.879301],[-103.114131,54.862522],[-103.127377,54.84957],[-103.14445,54.841328],[-103.231876,54.831025],[-103.2463,54.834852],[-103.263226,54.846627],[-103.303554,54.858696],[-103.321657,54.869587],[-103.324307,54.876357],[-103.325337,54.895785],[-103.328281,54.899907],[-103.330488,54.902261],[-103.35963,54.91698],[-103.371994,54.915802],[-103.376556,54.901084],[-103.377734,54.883128],[-103.379794,54.872531],[-103.399811,54.866643],[-103.448087,54.87989],[-103.469134,54.879301],[-103.480173,54.867232],[-103.479142,54.850159],[-103.471194,54.832497],[-103.462363,54.817779],[-103.444554,54.799823],[-103.42704,54.795113],[-103.4082,54.794819],[-103.386565,54.790109],[-103.402755,54.780983],[-103.420417,54.777157],[-103.458831,54.776862],[-103.470017,54.770975],[-103.461333,54.757434],[-103.434988,54.735357],[-103.50328,54.733591],[-103.530067,54.725643],[-103.517557,54.707981],[-103.485618,54.700916],[-103.445585,54.700328],[-103.408642,54.695029],[-103.386565,54.673835],[-103.400105,54.668242],[-103.423949,54.650286],[-103.438078,54.646459],[-103.453238,54.645576],[-103.490622,54.638806],[-103.503869,54.632918],[-103.488856,54.620555],[-103.490475,54.605542],[-103.498865,54.589352],[-103.503869,54.57434],[-103.514613,54.567864],[-103.578343,54.557267],[-103.601009,54.563154],[-103.606896,54.573457],[-103.607927,54.586703],[-103.616169,54.60201],[-103.6328,54.607897],[-103.674306,54.602893],[-103.695058,54.611724],[-103.70801,54.640572],[-103.696825,54.671186],[-103.654142,54.721816],[-103.638246,54.730353],[-103.632506,54.736829],[-103.636774,54.74566],[-103.643986,54.75037],[-103.653111,54.753902],[-103.690937,54.759201],[-103.715369,54.765971],[-103.737447,54.774802],[-103.750252,54.783633],[-103.728174,54.776274],[-103.603217,54.778334],[-103.58791,54.772741],[-103.592031,54.756551],[-103.577165,54.752136],[-103.55656,54.756257],[-103.538457,54.768031],[-103.530509,54.786871],[-103.529626,54.826316],[-103.531539,54.845155],[-103.537426,54.866349],[-103.554352,54.87989],[-103.559356,54.889015],[-103.548023,54.893136],[-103.496657,54.893136],[-103.473697,54.89608],[-103.453827,54.905499],[-103.444996,54.920512],[-103.455446,54.940823],[-103.426157,54.939646],[-103.420711,54.940823],[-103.417179,54.950832],[-103.420269,54.957013],[-103.425421,54.960251],[-103.42807,54.961134],[-103.428953,54.967905],[-103.432927,54.97232],[-103.434546,54.976147],[-103.42807,54.98174],[-103.420122,54.982034],[-103.367873,54.96555],[-103.330488,54.964667],[-103.310766,54.961134],[-103.295459,54.952892],[-103.269555,54.931992],[-103.253071,54.927871],[-103.236586,54.931109],[-103.206267,54.944944],[-103.191401,54.948182],[-103.1758,54.945533],[-103.17006,54.938174],[-103.167411,54.926988],[-103.161229,54.913447],[-103.147394,54.897552],[-103.134295,54.890781],[-103.121784,54.892547],[-103.109127,54.903439]]]}}]}
