{"type":"FeatureCollection","features":[{"type":"Feature","id":"lakes_base:1159112291","properties":{"pandolab_id":"lakes_base:1159112291","layer_id":"lakes_base","category":"lake","name":"lake-419","name_ko":"","name_en":"","name_original":"","feature_class":"Lake","scale_rank":9,"min_zoom":7.0,"stroke_width":1.0800000000000003,"source_id":1159112291,"wikidata_id":"","note":"_untitled_52","source":"Natural Earth 5.0.0 1:10m"},"geometry":{"type":"Polygon","coordinates":[[[-99.56321625405847,51.21505643707556],[-99.55379660199026,51.20769733389727],[-99.54952832214686,51.19916077421047],[-99.55291350960887,51.18562002436241],[-99.56233316167709,51.177083464675576],[-99.57219435993599,51.170313089751545],[-99.57675700390654,51.1614821659376],[-99.58779565867397,51.15000196497945],[-99.61311097360729,51.133517573860104],[-99.65932614156696,51.10996844368955],[-99.68258090761037,51.10967407956244],[-99.76485568114367,51.123509193537615],[-99.77280351257623,51.12674719893607],[-99.7828118928987,51.134400666241476],[-99.79149563464908,51.142642861801164],[-99.7953223683018,51.14794141608954],[-99.801356832908,51.148530144343795],[-99.81489758275606,51.155300519267826],[-99.82932142498551,51.164425807208914],[-99.83741643848163,51.172079274514346],[-99.83771080260875,51.17767219292983],[-99.8306460635576,51.18650311674381],[-99.82991015323977,51.19239039928644],[-99.83270661244752,51.19768895357478],[-99.84065444388007,51.207991698024415],[-99.8435980851514,51.2135846164399],[-99.85787474531728,51.2545012301112],[-99.86258457135139,51.263037789798034],[-99.86788312563975,51.27039689297632],[-99.8784802342165,51.28187709393444],[-99.9051201877219,51.30218821870653],[-99.90835819312036,51.31425714791894],[-99.90350118502269,51.33309645205537],[-99.9051201877219,51.34310483237783],[-99.9138039294723,51.35399630508172],[-99.92234048915911,51.35399630508172],[-99.93249605154516,51.35193575619178],[-99.94603680139322,51.357528674607295],[-99.95383745076221,51.374307429853786],[-99.9547205431436,51.41816768479643],[-99.96781974680096,51.43259152702586],[-99.94456498075756,51.44995901052664],[-99.91056592407385,51.45820120608633],[-99.87583095707231,51.45672938545067],[-99.85051564213899,51.44554354861967],[-99.85787474531728,51.44554354861967],[-99.82946860704907,51.42493805972043],[-99.7754527897204,51.36194413651427],[-99.74807692589717,51.3363344574538],[-99.58367456089412,51.227125366287964],[-99.56321625405847,51.21505643707556]]]}},{"type":"Feature","id":"lakes_base:1159112821","properties":{"pandolab_id":"lakes_base:1159112821","layer_id":"lakes_base","category":"lake","name":"lake-457","name_ko":"","name_en":"","name_original":"","feature_class":"Lake","scale_rank":9,"min_zoom":7.0,"stroke_width":1.0800000000000003,"source_id":1159112821,"wikidata_id":"","note":"_untitled_15","source":"Natural Earth 5.0.0 1:10m"},"geometry":{"type":"Polygon","coordinates":[[[-109.89421965987155,54.606719909886664],[-109.89009856209171,54.59465098067426],[-109.8422643914328,54.56462583970682],[-109.8422643914328,54.55726673652853],[-109.91202868956302,54.528124687942494],[-109.94573338211958,54.520765584764206],[-109.9857669034095,54.5019262806278],[-110.01387867755058,54.498099546975084],[-110.02535887850871,54.49368408506811],[-110.0336010740684,54.482203884109964],[-109.97207897149788,54.482203884109964],[-109.98208735182035,54.467191313626245],[-109.99901328913042,54.453944927905326],[-110.01888286771181,54.44481963996424],[-110.03728062565754,54.44099290631152],[-110.0503798293149,54.443053455201465],[-110.07201559265907,54.45247310726967],[-110.08187679091799,54.454828020286726],[-110.09379853806682,54.453061835523926],[-110.115434301411,54.44334781932858],[-110.126620138242,54.44099290631152],[-110.14501789618774,54.44599709647278],[-110.19329361303733,54.4713124114061],[-110.20536254224973,54.482203884109964],[-110.20639281669469,54.49280099268671],[-110.19888653145283,54.511640296823145],[-110.20183017272414,54.519882492382806],[-110.21316319161872,54.52753595968824],[-110.25319671290862,54.536661247629326],[-110.25319671290862,54.5428428942991],[-110.23936159893343,54.55608928002002],[-110.18843660493965,54.59465098067426],[-110.15752837159083,54.6246761216417],[-110.14104398047145,54.629385947675786],[-110.08908871203272,54.61967193148047],[-110.07849160345597,54.619377567353325],[-110.00357593310096,54.62997467593007],[-109.97590570515058,54.63733377910836],[-109.94897138751804,54.64086614863393],[-109.92424480083898,54.63291831720139],[-109.91497233083433,54.627619762913014],[-109.90363931193976,54.61820011084478],[-109.89421965987155,54.606719909886664]]]}},{"type":"Feature","id":"lakes_base:1159109155","properties":{"pandolab_id":"lakes_base:1159109155","layer_id":"lakes_base","category":"lake","name":"lake-201","name_ko":"","name_en":"","name_original":"","feature_class":"Lake","scale_rank":7,"min_zoom":5.7,"stroke_width":1.4400000000000002,"source_id":1159109155,"wikidata_id":"","note":"_untitled_79","source":"Natural Earth 5.0.0 1:10m"},"geometry":{"type":"Polygon","coordinates":[[[-103.10912652948657,54.903438950035394],[-103.09632168995634,54.9119755097222],[-103.08925695090518,54.906676955433824],[-103.09146468185867,54.89372493384005],[-103.10603570615169,54.879301091610586],[-103.1141307196478,54.862522336364094],[-103.12737710536874,54.84957031477029],[-103.14445022474237,54.8413281192106],[-103.23187637050047,54.831025374761],[-103.24630021272992,54.83485210841371],[-103.26322615004,54.846626673498974],[-103.30355403545704,54.85869560271138],[-103.32165742927563,54.86958707541524],[-103.32430670641982,54.87635745033927],[-103.32533698086478,54.89578548272996],[-103.32828062213609,54.89990658050979],[-103.33048835308958,54.90226149352685],[-103.35963040167562,54.91697969988343],[-103.37199369501515,54.91580224337491],[-103.3765563389857,54.901084037018336],[-103.37773379549422,54.8831278252633],[-103.37979434438414,54.872530716686555],[-103.39981110502909,54.866643434143924],[-103.44808682187869,54.87988981986484],[-103.4691338569686,54.879301091610586],[-103.48017251173604,54.86723216239818],[-103.47914223729107,54.85015904302455],[-103.47119440585853,54.832497195396655],[-103.46236348204457,54.81777898904008],[-103.4445544523531,54.799822777285044],[-103.42703978678877,54.79511295125093],[-103.40820048265235,54.794818587123785],[-103.38656471930817,54.7901087610897],[-103.4027547463004,54.78098347314861],[-103.42041659392831,54.777156739495894],[-103.458831112519,54.77686237536878],[-103.47001694935,54.77097509282612],[-103.46133320759961,54.75743434297809],[-103.43498761822133,54.735357033443194],[-103.50328009571588,54.73359084868042],[-103.53006723128486,54.72564301724785],[-103.51755675588176,54.707981169619956],[-103.48561824808797,54.70091643056878],[-103.44558472679806,54.700327702314524],[-103.40864202884305,54.69502914802615],[-103.38656471930817,54.67383493087269],[-103.40010546915622,54.66824201245717],[-103.42394896345388,54.650285800702136],[-103.43807844155621,54.64645906704945],[-103.45323819410349,54.64557597466805],[-103.49062243824922,54.63880559974402],[-103.50386882397014,54.63291831720139],[-103.48885625348642,54.62055502386184],[-103.49047525618565,54.60554245337812],[-103.49886463380889,54.58935242638589],[-103.50386882397014,54.57433985590217],[-103.51461311461044,54.56786384510528],[-103.57834294813445,54.55726673652853],[-103.60100898592358,54.56315401907116],[-103.60689626846622,54.573456763520795],[-103.60792654291119,54.586703149241714],[-103.61616873847086,54.60201008385255],[-103.63280031165381,54.60789736639518],[-103.67430565357937,54.60289317623395],[-103.69505832454216,54.611724100047894],[-103.70801034613595,54.64057178450679],[-103.69682450930495,54.671185653728486],[-103.65414171087086,54.72181628359513],[-103.63824604800574,54.73035284328196],[-103.63250594752668,54.73682885407885],[-103.63677422737008,54.7456597778928],[-103.64398614848481,54.75036960392691],[-103.65311143642589,54.753901973452486],[-103.69093722676232,54.75920052774086],[-103.71536944931424,54.76597090266489],[-103.73744675884912,54.774801826478836],[-103.75025159837935,54.78363275029278],[-103.72817428884447,54.77627364711449],[-103.60321671687707,54.77833419600444],[-103.58790978226622,54.77274127758892],[-103.59203088004607,54.75655125059669],[-103.57716549162592,54.75213578868971],[-103.55656000272671,54.756256886469544],[-103.5384566089081,54.768031451554805],[-103.53050877747555,54.78687075569124],[-103.52962568509416,54.82631554872688],[-103.53153905192052,54.84515485286332],[-103.53742633446315,54.86634907001678],[-103.55435227177321,54.87988981986484],[-103.55935646193446,54.88901510780593],[-103.54802344303988,54.89313620558576],[-103.4966569028554,54.89313620558576],[-103.47369650093914,54.896079846857106],[-103.45382692235775,54.90549949892531],[-103.4449959985438,54.92051206940903],[-103.45544592505698,54.94082319418109],[-103.42615669440738,54.93964573767258],[-103.42071095805544,54.94082319418109],[-103.41717858852986,54.95083157450358],[-103.42026941186474,54.957013221173355],[-103.42542078408955,54.960251226571785],[-103.42807006123373,54.961134318953185],[-103.42895315361513,54.967904693877216],[-103.4329270693314,54.97232015578419],[-103.43454607203063,54.976146889436905],[-103.42807006123373,54.98173980785242],[-103.42012222980118,54.982034171979535],[-103.3678725972353,54.96554978086016],[-103.33048835308958,54.96466668847876],[-103.31076595657176,54.961134318953185],[-103.29545902196091,54.9528921233935],[-103.26955497877333,54.93199227036715],[-103.25307058765395,54.92787117258732],[-103.23658619653457,54.931109177985775],[-103.20626669144002,54.94494429196095],[-103.19140130301987,54.94818229735941],[-103.1758000042819,54.94553302021521],[-103.17005990380282,54.93817391703692],[-103.16741062665864,54.926988080205916],[-103.16122897998888,54.913447330357855],[-103.14739386601369,54.89755166749276],[-103.13429466235633,54.89078129256873],[-103.12178418695324,54.892547477331505],[-103.10912652948657,54.903438950035394]]]}}]}
