{"type":"FeatureCollection","features":[{"type":"Feature","id":15485,"properties":{"fid":15485,"logicalFid":4110,"awId":"lakes_base:1159110371","name":"lake-293","layerId":"lakes_natural_earth","category":"lake","bounds":[-108465082,62855686,-107532683,63457660],"stage":0,"flags":0,"fragmentIndex":0,"fragmentCount":1,"width":1,"sourceId":"1159110371","source":"Natural Earth 5.0.0 1:10m"},"geometry":{"type":"Polygon","coordinates":[[[-107.532683,63.452362],[-107.583167,63.41645],[-107.60127,63.398493],[-107.594206,63.383481],[-107.612898,63.374944],[-107.609954,63.36523],[-107.583608,63.345802],[-107.576249,63.334322],[-107.560059,63.287812],[-107.579635,63.280748],[-107.604655,63.267207],[-107.626144,63.251017],[-107.635122,63.236004],[-107.638507,63.228351],[-107.64675,63.220403],[-107.656905,63.214516],[-107.680454,63.20804],[-107.687225,63.19862],[-107.691199,63.18714],[-107.697233,63.178015],[-107.708566,63.171244],[-107.733734,63.163296],[-107.745067,63.157409],[-107.752426,63.146518],[-107.754192,63.135332],[-107.758902,63.126795],[-107.775387,63.123263],[-107.794962,63.116198],[-107.90682,63.040547],[-107.954213,63.019352],[-108.059742,62.986089],[-108.135688,62.950471],[-108.169982,62.941935],[-108.192648,62.927805],[-108.204275,62.924861],[-108.235183,62.919857],[-108.266386,62.911026],[-108.359994,62.871582],[-108.409889,62.857746],[-108.465082,62.855686],[-108.465082,62.863339],[-108.417248,62.876291],[-108.402382,62.88365],[-108.465082,62.896897],[-108.370885,62.906316],[-108.355578,62.91603],[-108.342626,62.926628],[-108.302887,62.935459],[-108.266828,62.953709],[-108.245928,62.958713],[-108.239157,62.955181],[-108.232829,62.948116],[-108.225175,62.943406],[-108.214578,62.948411],[-108.163359,63.006695],[-108.14658,63.018175],[-108.128624,63.027006],[-108.131567,63.030538],[-108.133628,63.034365],[-108.136571,63.037897],[-108.142312,63.040841],[-108.122295,63.056442],[-108.06563,63.072632],[-108.043258,63.08529],[-107.885332,63.202152],[-107.880475,63.210395],[-107.876648,63.228351],[-107.871644,63.236004],[-107.837939,63.256904],[-107.8269,63.267207],[-107.852657,63.272211],[-107.873116,63.26338],[-107.894457,63.251311],[-107.922569,63.246896],[-107.919478,63.250428],[-107.917123,63.253961],[-107.914474,63.257199],[-107.90947,63.260437],[-107.918742,63.269856],[-107.918595,63.276038],[-107.903288,63.287812],[-107.897989,63.289579],[-107.884449,63.288401],[-107.878561,63.290756],[-107.8687,63.306063],[-107.867964,63.308418],[-107.854718,63.312539],[-107.834554,63.312833],[-107.820719,63.315188],[-107.807472,63.319309],[-107.798494,63.324314],[-107.796875,63.331673],[-107.806442,63.342564],[-107.758608,63.362875],[-107.749188,63.370529],[-107.744184,63.377005],[-107.737855,63.381715],[-107.724462,63.383481],[-107.700029,63.391134],[-107.678394,63.408502],[-107.671182,63.427341],[-107.689874,63.438527],[-107.689874,63.445003],[-107.67074,63.449713],[-107.651901,63.451184],[-107.633209,63.447946],[-107.614664,63.438527],[-107.617166,63.4347],[-107.62217,63.424397],[-107.607305,63.424397],[-107.597738,63.427047],[-107.557999,63.454422],[-107.546371,63.45766],[-107.532683,63.452362]]]}},{"type":"Feature","id":15419,"properties":{"fid":15419,"logicalFid":4044,"awId":"lakes_base:1159109471","name":"lake-227","layerId":"lakes_natural_earth","category":"lake","bounds":[-111212235,64346640,-109595882,64733435],"stage":0,"flags":0,"fragmentIndex":0,"fragmentCount":1,"width":1,"sourceId":"1159109471","source":"Natural Earth 5.0.0 1:10m"},"geometry":{"type":"Polygon","coordinates":[[[-110.004606,64.573595],[-110.015203,64.568885],[-110.033601,64.555933],[-110.019324,64.544158],[-110.012996,64.541509],[-110.024181,64.531206],[-110.042874,64.527674],[-110.060388,64.527085],[-110.068336,64.524436],[-110.076873,64.512662],[-110.096889,64.509129],[-110.118672,64.508246],[-110.133243,64.504125],[-110.21228,64.493233],[-110.226115,64.488818],[-110.239509,64.479693],[-110.245543,64.469979],[-110.236418,64.465858],[-110.203155,64.460853],[-110.1799,64.448196],[-110.177104,64.432594],[-110.205363,64.418171],[-110.224055,64.416993],[-110.237448,64.422586],[-110.2504,64.431123],[-110.266885,64.438482],[-110.282192,64.440542],[-110.299853,64.439659],[-110.311334,64.434655],[-110.307801,64.424941],[-110.323697,64.415227],[-110.348718,64.4114],[-110.513267,64.411106],[-110.568019,64.419642],[-110.597456,64.42082],[-110.623212,64.414638],[-110.658536,64.399331],[-110.665306,64.3905],[-110.644259,64.384024],[-110.644259,64.377843],[-110.760386,64.360475],[-110.778784,64.34664],[-110.821025,64.346935],[-110.89756,64.356649],[-110.89756,64.364008],[-110.875335,64.364891],[-110.857379,64.368129],[-110.821467,64.380786],[-110.797476,64.38373],[-110.744785,64.377548],[-110.722707,64.387262],[-110.700483,64.415227],[-110.691063,64.442014],[-110.699894,64.464975],[-110.732422,64.480281],[-110.755529,64.482931],[-110.828973,64.480281],[-110.853847,64.483225],[-110.901534,64.497355],[-111.020751,64.507952],[-111.063434,64.520609],[-111.061962,64.541509],[-111.073295,64.54357],[-111.085511,64.547691],[-111.096844,64.552989],[-111.106117,64.558877],[-111.122748,64.567119],[-111.143354,64.569768],[-111.185595,64.569474],[-111.19163,64.570651],[-111.200902,64.573301],[-111.209144,64.577422],[-111.212235,64.58272],[-111.206348,64.590668],[-111.196487,64.589491],[-111.178678,64.58272],[-111.12216,64.591551],[-111.10229,64.590079],[-111.082126,64.579188],[-111.07094,64.576244],[-111.061373,64.577716],[-111.052101,64.580954],[-110.976008,64.590079],[-110.953783,64.598616],[-110.924936,64.614217],[-110.896824,64.620988],[-110.877101,64.603031],[-110.892556,64.599499],[-110.910512,64.593317],[-110.925377,64.584192],[-110.931706,64.572712],[-110.91846,64.563587],[-110.888434,64.553284],[-110.835449,64.541509],[-110.595837,64.515016],[-110.595837,64.521198],[-110.646026,64.53886],[-110.670458,64.552989],[-110.677817,64.569474],[-110.655445,64.585958],[-110.615559,64.586547],[-110.540643,64.575655],[-110.548591,64.584781],[-110.56743,64.5942],[-110.575378,64.603031],[-110.54079,64.600676],[-110.522246,64.601559],[-110.510177,64.606858],[-110.503406,64.615689],[-110.499579,64.624226],[-110.500168,64.631585],[-110.507086,64.637766],[-110.488541,64.651307],[-110.468671,64.647186],[-110.44836,64.636883],[-110.411417,64.62658],[-110.420837,64.616572],[-110.452481,64.59685],[-110.389046,64.58743],[-110.376682,64.575655],[-110.388015,64.572712],[-110.398171,64.567119],[-110.406119,64.559171],[-110.410829,64.54828],[-110.391989,64.542981],[-110.374328,64.546219],[-110.35593,64.552401],[-110.335471,64.555933],[-110.32929,64.552989],[-110.316191,64.539449],[-110.307801,64.534739],[-110.297057,64.533267],[-110.281014,64.533267],[-110.265707,64.534739],[-110.256288,64.538271],[-110.243188,64.546808],[-110.184904,64.569474],[-110.156204,64.57124],[-110.068336,64.562115],[-110.086734,64.585075],[-110.119555,64.591845],[-110.154879,64.595083],[-110.181519,64.606858],[-110.194913,64.627464],[-110.202566,64.634823],[-110.228912,64.640121],[-110.243041,64.646597],[-110.256288,64.655722],[-110.266885,64.665731],[-110.250106,64.671029],[-110.236712,64.665142],[-110.223613,64.656311],[-110.208601,64.651307],[-110.190497,64.654251],[-110.180342,64.661315],[-110.171216,64.670146],[-110.157087,64.678683],[-110.175337,64.687808],[-110.214782,64.693107],[-110.233327,64.699288],[-110.23892,64.705176],[-110.247457,64.724898],[-110.253197,64.733435],[-110.225968,64.732552],[-110.097478,64.692812],[-110.084526,64.68251],[-110.102335,64.671913],[-110.087617,64.661904],[-110.046553,64.651896],[-110.054648,64.643948],[-110.036545,64.623048],[-110.006814,64.612157],[-109.973551,64.61039],[-109.944703,64.616572],[-109.953534,64.638944],[-109.941318,64.646892],[-109.918946,64.645125],[-109.897605,64.637766],[-109.876999,64.625403],[-109.868463,64.622754],[-109.855952,64.624226],[-109.846827,64.628052],[-109.830195,64.639532],[-109.821217,64.643948],[-109.792664,64.648363],[-109.735705,64.641593],[-109.705238,64.643948],[-109.651811,64.654545],[-109.595882,64.658372],[-109.595882,64.651307],[-109.603388,64.647775],[-109.611483,64.645125],[-109.670797,64.640416],[-109.684044,64.637766],[-109.694199,64.633056],[-109.714658,64.620693],[-109.72496,64.616572],[-109.755721,64.614217],[-109.822836,64.618338],[-109.925275,64.595083],[-109.941612,64.586253],[-109.952357,64.57801],[-109.964867,64.575361],[-109.992537,64.575655],[-110.004606,64.573595]]]}},{"type":"Feature","id":15571,"properties":{"fid":15571,"logicalFid":4196,"awId":"lakes_base:1159111751","name":"lake-379","layerId":"lakes_natural_earth","category":"lake","bounds":[-111698819,64825865,-111033998,65121995],"stage":2,"flags":0,"fragmentIndex":0,"fragmentCount":1,"width":1,"sourceId":"1159111751","source":"Natural Earth 5.0.0 1:10m"},"geometry":{"type":"Polygon","coordinates":[[[-111.629202,64.836462],[-111.674534,64.825865],[-111.698819,64.829692],[-111.691901,64.852063],[-111.663348,64.867665],[-111.645833,64.886504],[-111.671443,64.918295],[-111.646275,64.935957],[-111.613453,64.948026],[-111.597999,64.960684],[-111.624345,64.980406],[-111.611687,64.979229],[-111.60006,64.980112],[-111.589315,64.98335],[-111.567827,65.000423],[-111.559143,65.003072],[-111.535005,65.001012],[-111.478782,65.004544],[-111.42506,65.014552],[-111.43448,65.030742],[-111.439631,65.037513],[-111.445519,65.041928],[-111.460973,65.045166],[-111.495708,65.045166],[-111.5144,65.049287],[-111.51072,65.060473],[-111.50498,65.069893],[-111.497032,65.077546],[-111.486582,65.082845],[-111.491292,65.089321],[-111.50027,65.110221],[-111.475397,65.104628],[-111.463328,65.104628],[-111.4517,65.110221],[-111.459207,65.116991],[-111.437276,65.121995],[-111.410195,65.11758],[-111.394005,65.107866],[-111.404602,65.096386],[-111.404455,65.09197],[-111.402836,65.088732],[-111.397243,65.082845],[-111.36133,65.056058],[-111.314527,65.049287],[-111.264779,65.047227],[-111.219594,65.035158],[-111.233576,65.028682],[-111.265662,65.026327],[-111.281116,65.021323],[-111.28877,65.014552],[-111.293774,65.005427],[-111.292449,64.997479],[-111.281116,64.993947],[-111.265368,64.997479],[-111.239022,65.011903],[-111.225923,65.014552],[-111.212971,65.009548],[-111.214001,65.000129],[-111.221949,64.990709],[-111.229603,64.986588],[-111.252563,64.978051],[-111.251974,64.958329],[-111.237698,64.937429],[-111.219594,64.925066],[-111.18898,64.923888],[-111.156011,64.931836],[-111.13938,64.945082],[-111.157042,64.959801],[-111.132021,64.964805],[-111.09552,64.958329],[-111.059019,64.945966],[-111.033998,64.932719],[-111.079624,64.915057],[-111.100818,64.900339],[-111.109796,64.880911],[-111.123631,64.868842],[-111.155128,64.87002],[-111.262277,64.89769],[-111.287887,64.896807],[-111.315262,64.887681],[-111.346907,64.882383],[-111.373252,64.888859],[-111.37752,64.899456],[-111.342491,64.904755],[-111.320708,64.911231],[-111.327184,64.926243],[-111.348231,64.942433],[-111.369867,64.95303],[-111.390767,64.953619],[-111.432272,64.937135],[-111.455527,64.932719],[-111.464652,64.929481],[-111.46009,64.922416],[-111.450817,64.914469],[-111.445519,64.908581],[-111.451553,64.89975],[-111.465388,64.894746],[-111.493353,64.890919],[-111.558849,64.889153],[-111.592259,64.884149],[-111.610068,64.870608],[-111.561645,64.870608],[-111.584606,64.85383],[-111.629202,64.836462]]]}}]}
