{"type":"FeatureCollection","features":[{"type":"Feature","id":"lakes_base:1159110371","properties":{"pandolab_id":"lakes_base:1159110371","layer_id":"lakes_base","category":"lake","name":"lake-293","name_ko":"","name_en":"","name_original":"","feature_class":"Lake","scale_rank":8,"min_zoom":6.0,"stroke_width":1.2600000000000002,"source_id":1159110371,"wikidata_id":"","note":"_untitled_48","source":"Natural Earth 5.0.0 1:10m"},"geometry":{"type":"Polygon","coordinates":[[[-107.53268344995773,63.45236193019332],[-107.58316689776082,63.41644950668328],[-107.60127029157941,63.398493294928244],[-107.59420555252825,63.383480724444524],[-107.61289767460111,63.37494416475769],[-107.6099540333298,63.36523014856235],[-107.5836084439515,63.345802116171654],[-107.57624934077322,63.334321915213536],[-107.56005931378098,63.28781238312672],[-107.57963452823523,63.280747644075575],[-107.60465547904143,63.26720689422751],[-107.62614406032203,63.25101686723528],[-107.63512216619955,63.23600429675156],[-107.63850735366157,63.22835082944613],[-107.64674954922125,63.22040299801358],[-107.6569051116073,63.21451571547095],[-107.68045424177782,63.208039704674036],[-107.68722461670185,63.19862005260583],[-107.69119853241814,63.187139851647686],[-107.69723299702433,63.178014563706625],[-107.7085660159189,63.171244188782595],[-107.73373414878866,63.16329635735002],[-107.74506716768323,63.15740907480739],[-107.75242627086152,63.14651760210353],[-107.7541924556243,63.135331765272525],[-107.75890228165842,63.126795205585694],[-107.7753866727778,63.12326283606012],[-107.79496188723205,63.116198097008976],[-107.90682025554209,63.04054651633612],[-107.95421288001027,63.01935229918266],[-108.05974241958698,62.98608915281676],[-108.13568836438695,62.95047109343383],[-108.16998178519779,62.941934533747],[-108.19264782298693,62.92780505564468],[-108.20427520600863,62.92486141437337],[-108.23518343935746,62.91985722421214],[-108.26638603683342,62.91102630039819],[-108.35999382926128,62.87158150736255],[-108.4098885488101,62.857746393387345],[-108.46508182264729,62.85568584449743],[-108.46508182264729,62.86333931180286],[-108.4172476519884,62.876291333396665],[-108.40238226356824,62.88365043657495],[-108.46508182264729,62.89689682229587],[-108.37088530196516,62.906316474364075],[-108.35557836735431,62.91603049055942],[-108.34262634576052,62.92662759913617],[-108.30288718859775,62.935458522950114],[-108.26682758302411,62.95370909883229],[-108.24592772999776,62.95871328899352],[-108.23915735507374,62.95518091946795],[-108.23282852634041,62.948116180416775],[-108.22517505903498,62.94340635438266],[-108.21457795045825,62.94841054454392],[-108.16335859233733,63.006694641715995],[-108.14657983709083,63.018174842674114],[-108.12862362533579,63.02700576648806],[-108.1315672666071,63.03053813601366],[-108.13362781549704,63.03436486966635],[-108.13657145676835,63.03789723919195],[-108.14231155724742,63.040840880463264],[-108.12229479660246,63.05644217920124],[-108.06562970212961,63.072632206193475],[-108.0432580284676,63.08528986366014],[-107.88533167426147,63.202152422131405],[-107.88047466616379,63.210394617691094],[-107.87664793251109,63.22835082944613],[-107.87164374234985,63.23600429675156],[-107.83793904979328,63.25690414977791],[-107.82690039502583,63.26720689422751],[-107.85265725614985,63.27221108438874],[-107.8731155629855,63.2633801605748],[-107.89445696220255,63.25131123136239],[-107.92256873634362,63.24689576945542],[-107.91947791300875,63.25042813898099],[-107.91712299999169,63.253960508506594],[-107.9144737228475,63.257198513905024],[-107.90946953268627,63.26043651930348],[-107.91874200269092,63.269856171371686],[-107.91859482062735,63.27603781804146],[-107.9032878860165,63.28781238312672],[-107.89798933172813,63.28957856788952],[-107.88444858188008,63.28840111138098],[-107.87856129933745,63.290756024398036],[-107.86870010107853,63.3060629590089],[-107.8679641907607,63.308417872025956],[-107.85471780503978,63.312538969805786],[-107.83455386233126,63.31283333393293],[-107.82071874835607,63.31518824694996],[-107.80747236263514,63.31930934472982],[-107.79849425675764,63.32431353489105],[-107.7968752540584,63.331672638069335],[-107.80644208819018,63.342564110773225],[-107.7586079175313,63.36287523554529],[-107.74918826546308,63.37052870285072],[-107.74418407530183,63.37700471364761],[-107.7378552465685,63.381714539681724],[-107.72446167878401,63.383480724444524],[-107.70002945623209,63.391134191749956],[-107.67839369288791,63.408501675250704],[-107.67118177177318,63.42734097938714],[-107.68987389384604,63.43852681621814],[-107.68987389384604,63.44500282701503],[-107.67074022558248,63.44971265304915],[-107.65190092144606,63.451184473684805],[-107.6332087993732,63.44794646828635],[-107.6146638593639,63.43852681621814],[-107.61716595444452,63.43470008256543],[-107.62217014460576,63.424397338115824],[-107.60730475618561,63.424397338115824],[-107.59773792205382,63.42704661526],[-107.55799876489105,63.45442247908326],[-107.54637138186935,63.45766048448169],[-107.53268344995773,63.45236193019332]]]}},{"type":"Feature","id":"lakes_base:1159109471","properties":{"pandolab_id":"lakes_base:1159109471","layer_id":"lakes_base","category":"lake","name":"lake-227","name_ko":"","name_en":"","name_original":"","feature_class":"Lake","scale_rank":7,"min_zoom":5.7,"stroke_width":1.4400000000000002,"source_id":1159109471,"wikidata_id":"","note":"_untitled_52","source":"Natural Earth 5.0.0 1:10m"},"geometry":{"type":"Polygon","coordinates":[[[-110.00460620754592,64.57359489043785],[-110.01520331612267,64.56888506440376],[-110.0336010740684,64.55593304280995],[-110.01932441390251,64.5441584777247],[-110.01299558516918,64.54150920058049],[-110.02418142200018,64.53120645613089],[-110.04287354407305,64.52767408660532],[-110.06038820963738,64.52708535835106],[-110.06833604106993,64.52443608120686],[-110.07687260075674,64.5126615161216],[-110.09688936140171,64.50912914659602],[-110.11867230680944,64.50824605421462],[-110.13324333110246,64.5041249564348],[-110.21228009923732,64.4932334837309],[-110.22611521321251,64.48881802182393],[-110.239508780997,64.47969273388284],[-110.2455432456032,64.4699787176875],[-110.23641795766211,64.46585761990767],[-110.20315481129623,64.46085342974644],[-110.17990004525284,64.44819577227977],[-110.17710358604508,64.4325944735418],[-110.20536254224973,64.41817063131234],[-110.22405466432258,64.41699317480382],[-110.23744823210707,64.42258609321931],[-110.25040025370087,64.43112265290614],[-110.26688464482024,64.43848175608443],[-110.28219157943109,64.44054230497434],[-110.29985342705899,64.43965921259294],[-110.31133362801712,64.43465502243171],[-110.30780125849155,64.42494100623637],[-110.32369692135666,64.41522699004102],[-110.34871787216285,64.4114002563883],[-110.51326741922945,64.41110589226119],[-110.56801914687594,64.419642451948],[-110.59745555958911,64.42081990845651],[-110.62321242071313,64.41463826178676],[-110.65853611596893,64.3993313271759],[-110.66530649089296,64.39050040336195],[-110.64425945580304,64.38402439256507],[-110.64425945580304,64.3778427458953],[-110.76038610395649,64.36047526239452],[-110.77878386190221,64.34664014841934],[-110.82102511414561,64.34693451254648],[-110.89755978719984,64.35664852874183],[-110.89755978719984,64.36400763192012],[-110.8753352956014,64.36489072430152],[-110.85737908384637,64.36812872969995],[-110.82146666033631,64.38078638716661],[-110.79747598397508,64.38373002843792],[-110.74478480521852,64.37754838176818],[-110.72270749568364,64.38726239796353],[-110.70048300408519,64.41522699004102],[-110.69106335201698,64.44201412561],[-110.69989427583093,64.46497452752627],[-110.73242151187898,64.48028146213713],[-110.75552909585882,64.4829307392813],[-110.82897294557817,64.48028146213713],[-110.8538467143208,64.48322510340844],[-110.90153370291613,64.49735458151076],[-111.02075117440445,64.50795169008751],[-111.06343397283854,64.52060934755417],[-111.06196215220288,64.54150920058049],[-111.07329517109746,64.54356974947044],[-111.08551128237342,64.54769084725027],[-111.09684430126798,64.55298940153864],[-111.10611677127264,64.55887668408127],[-111.12274834445557,64.56711887964096],[-111.1433538333548,64.56976815678516],[-111.18559508559818,64.56947379265802],[-111.19162955020438,64.57065124916653],[-111.20090202020903,64.57330052631073],[-111.20914421576872,64.57742162409056],[-111.2122350391036,64.58272017837893],[-111.20634775656097,64.59066800981151],[-111.19648655830206,64.58949055330297],[-111.17867752861059,64.58272017837893],[-111.1221596162013,64.59155110219288],[-111.10229003761992,64.59007928155722],[-111.0821260949114,64.57918780885336],[-111.0709402580804,64.57624416758205],[-111.06137342394862,64.5777159882177],[-111.05210095394398,64.58095399361616],[-110.97600782708044,64.59007928155722],[-110.95378333548199,64.59861584124405],[-110.92493565102309,64.61421713998203],[-110.89682387688201,64.62098751490606],[-110.87710148036419,64.60303130315103],[-110.89255559703861,64.59949893362545],[-110.91051180879364,64.59331728695568],[-110.92537719721379,64.58419199901459],[-110.93170602594712,64.57271179805647],[-110.91845964022619,64.56358651011539],[-110.88843449925876,64.55328376566578],[-110.83544895637506,64.54150920058049],[-110.59583655688988,64.51501642913865],[-110.59583655688988,64.52119807580843],[-110.64602564056584,64.53885992343632],[-110.67045786311776,64.55298940153864],[-110.67781696629605,64.56947379265802],[-110.65544529263404,64.5859581837774],[-110.6155589534077,64.58654691203165],[-110.5406432830527,64.57565543932779],[-110.54859111448525,64.58478072726885],[-110.56743041862168,64.59420037933708],[-110.57537825005423,64.60303130315103],[-110.54079046511626,64.60067639013397],[-110.52224552510697,64.60155948251537],[-110.51017659589456,64.60685803680374],[-110.50340622097053,64.61568896061769],[-110.49957948731783,64.62422552030449],[-110.50016821557209,64.63158462348281],[-110.50708577255969,64.63776627015255],[-110.48854083255038,64.65130702000062],[-110.468671253969,64.64718592222079],[-110.44836012919691,64.63688317777115],[-110.41141743124189,64.62658043332155],[-110.4208370833101,64.61657205299909],[-110.45248122697676,64.59684965648125],[-110.38904575757988,64.58743000441305],[-110.37668246424036,64.57565543932779],[-110.38801548313492,64.57271179805647],[-110.39817104552097,64.56711887964096],[-110.40611887695353,64.55917104820841],[-110.41082870298763,64.54827957550452],[-110.39198939885121,64.54298102121618],[-110.3743275512233,64.54621902661461],[-110.35592979327757,64.55240067328438],[-110.33547148644192,64.55593304280995],[-110.32928983977216,64.55298940153864],[-110.3161906361148,64.53944865169058],[-110.30780125849155,64.53473882565649],[-110.29705696785123,64.53326700502083],[-110.28101412292256,64.53326700502083],[-110.26570718831172,64.53473882565649],[-110.2562875362435,64.53827119518206],[-110.24318833258614,64.54680775486887],[-110.18490423541407,64.56947379265802],[-110.15620373301873,64.57123997742082],[-110.06833604106993,64.56211468947973],[-110.08673379901566,64.58507509139599],[-110.11955539919084,64.59184546632002],[-110.15487909444664,64.59508347171848],[-110.18151904795207,64.60685803680374],[-110.19491261573656,64.62746352570295],[-110.20256608304197,64.63482262888124],[-110.22891167242025,64.64012118316961],[-110.24304115052257,64.6465971939665],[-110.2562875362435,64.65572248190759],[-110.26688464482024,64.66573086223008],[-110.25010588957373,64.67102941651845],[-110.23671232178924,64.66514213397582],[-110.2236131181319,64.65631121016185],[-110.20860054764817,64.65130702000062],[-110.19049715382957,64.65425066127193],[-110.18034159144354,64.6613154003231],[-110.17121630350245,64.67014632413705],[-110.15708682540013,64.67868288382385],[-110.17533740128229,64.68780817176494],[-110.21478219431793,64.69310672605332],[-110.23332713432723,64.69928837272309],[-110.23892005274273,64.70517565526572],[-110.24745661242956,64.72489805178353],[-110.25319671290862,64.73343461147036],[-110.22596803114894,64.73255151908896],[-110.09747808965597,64.69281236192617],[-110.08452606806217,64.68250961747657],[-110.10233509775364,64.67191250889982],[-110.08761689139706,64.66190412857736],[-110.04655309566219,64.65189574825487],[-110.05464810915831,64.64394791682233],[-110.03654471533972,64.62304806379598],[-110.00681393849942,64.61215659109212],[-109.97355079213354,64.61039040632932],[-109.94470310767463,64.61657205299909],[-109.95353403148859,64.6389437266611],[-109.94131792021261,64.64689155809364],[-109.9189462465506,64.64512537333084],[-109.89760484733357,64.63776627015255],[-109.87699935843435,64.62540297681304],[-109.86846279874753,64.62275369966883],[-109.85595232334443,64.62422552030449],[-109.84682703540335,64.62805225395721],[-109.83019546222042,64.63953245491535],[-109.8212173563429,64.64394791682233],[-109.79266403601112,64.6483633787293],[-109.73570457741114,64.64159300380527],[-109.70523789025302,64.64394791682233],[-109.65181080117861,64.65454502539907],[-109.59588161702361,64.65837175905179],[-109.59588161702361,64.65130702000062],[-109.60338790226545,64.64777465047504],[-109.61148291576158,64.64512537333084],[-109.67079728737862,64.64041554729675],[-109.68404367309954,64.63776627015255],[-109.69419923548558,64.63305644411847],[-109.71465754232123,64.62069315077892],[-109.72496028677084,64.61657205299909],[-109.7557213380561,64.61421713998203],[-109.82283635904211,64.61833823776186],[-109.92527507528393,64.59508347171848],[-109.94161228433975,64.58625254790451],[-109.95235657498006,64.57801035234482],[-109.96486705038315,64.57536107520065],[-109.99253727833353,64.57565543932779],[-110.00460620754592,64.57359489043785]]]}},{"type":"Feature","id":"lakes_base:1159111751","properties":{"pandolab_id":"lakes_base:1159111751","layer_id":"lakes_base","category":"lake","name":"lake-379","name_ko":"","name_en":"","name_original":"","feature_class":"Lake","scale_rank":9,"min_zoom":7.0,"stroke_width":1.0800000000000003,"source_id":1159111751,"wikidata_id":"","note":"_untitled_93","source":"Natural Earth 5.0.0 1:10m"},"geometry":{"type":"Polygon","coordinates":[[[-111.6292018251856,64.83646205596645],[-111.67453390076389,64.8258649473897],[-111.69881894125226,64.82969168104242],[-111.69190138426465,64.85206335470443],[-111.66334806393289,64.8676646534424],[-111.64583339836855,64.88650395757881],[-111.671443077429,64.91829528330905],[-111.64627494455925,64.93595713093694],[-111.61345334438407,64.94802606014935],[-111.59799922770965,64.960683717616],[-111.62434481708793,64.98040611413381],[-111.61168715962127,64.9792286576253],[-111.60005977659958,64.9801117500067],[-111.58931548595926,64.98334975540513],[-111.56782690467865,65.00042287477879],[-111.55914316292827,65.00307215192296],[-111.53500530450347,65.00101160303305],[-111.47878175622132,65.00454397255862],[-111.42506030301979,65.01455235288111],[-111.43447995508801,65.03074237987335],[-111.43963132731281,65.03751275479738],[-111.44551860985544,65.04192821670435],[-111.46097272652986,65.04516622210278],[-111.4957076935314,65.04516622210278],[-111.51439981560426,65.04928731988264],[-111.5107202640151,65.06047315671364],[-111.50498016353605,65.06989280878184],[-111.49703233210349,65.07754627608728],[-111.48658240559031,65.08284483037565],[-111.49129223162443,65.08932084117254],[-111.50027033750193,65.11022069419889],[-111.47539656875931,65.1046277757834],[-111.46332763954692,65.1046277757834],[-111.45170025652521,65.11022069419889],[-111.45920654176707,65.11699106912292],[-111.43727641429577,65.12199525928415],[-111.41019491459964,65.11757979737718],[-111.39400488760741,65.10786578118183],[-111.40460199618414,65.09638558022371],[-111.40445481412058,65.09197011831674],[-111.40283581142135,65.08873211291828],[-111.39724289300585,65.08284483037565],[-111.36133046949578,65.05605769480667],[-111.31452657328185,65.04928731988264],[-111.26477903579661,65.04722677099272],[-111.21959414228189,65.03515784178032],[-111.23357643832064,65.02868183098343],[-111.265662128178,65.02632691796637],[-111.28111624485241,65.02132272780511],[-111.28876971215783,65.01455235288111],[-111.29377390231907,65.00542706494002],[-111.29244926374697,64.99747923350745],[-111.28111624485241,64.99394686398188],[-111.26536776405086,64.99747923350745],[-111.23902217467258,65.01190307573691],[-111.22592297101522,65.01455235288111],[-111.21297094942143,65.00954816271985],[-111.21400122386639,65.00012851065165],[-111.22194905529895,64.99070885858345],[-111.22960252260437,64.98658776080359],[-111.25256292452063,64.97805120111678],[-111.25197419626637,64.95832880459895],[-111.23769753610048,64.9374289515726],[-111.21959414228189,64.92506565823308],[-111.1889802730602,64.92388820172454],[-111.15601149082146,64.93183603315711],[-111.13937991763851,64.94508241887803],[-111.15704176526641,64.9598006252346],[-111.13202081446022,64.96480481539584],[-111.09551966269589,64.95832880459895],[-111.05901851093157,64.94596551125943],[-111.03399756012537,64.93271912553848],[-111.07962399983079,64.91505727791059],[-111.10081821698427,64.90033907155401],[-111.10979632286178,64.88091103916332],[-111.12363143683697,64.86884210995092],[-111.15512839844006,64.87001956645946],[-111.26227694071598,64.89768979440981],[-111.28788661977644,64.89680670202844],[-111.31526248359968,64.88768141408735],[-111.34690662726634,64.88238285979898],[-111.37325221664462,64.88885887059587],[-111.37752049648803,64.89945597917261],[-111.34249116535936,64.90475453346099],[-111.32070821995163,64.91123054425788],[-111.32718423074851,64.9262431147416],[-111.34823126583844,64.94243314173383],[-111.36986702918261,64.95303025031058],[-111.39076688220895,64.95361897856483],[-111.43227222413452,64.93713458744546],[-111.45552699017793,64.93271912553848],[-111.464652278119,64.92948112014005],[-111.46008963414846,64.92241638108888],[-111.45081716414381,64.91446854965633],[-111.44551860985544,64.9085812671137],[-111.45155307446164,64.89975034329976],[-111.46538818843683,64.8947461531385],[-111.49335278051434,64.89091941948581],[-111.55884879880114,64.88915323472301],[-111.59225912723059,64.88414904456178],[-111.61006815692205,64.87060829471372],[-111.5616452580089,64.87060829471372],[-111.58460565992516,64.8538295394672],[-111.6292018251856,64.83646205596645]]]}}]}
