{"type":"FeatureCollection","features":[{"type":"Feature","properties":{"control":"IND","name":"Siachen dispute portion — India de facto","boundary_basis":"2026-10-04 OSM-derived AGPL approximate candidate","disputed_sovereignty":true,"source_dispute_polygon":"Natural Earth 10m B45","line_source_url":"https://raw.githubusercontent.com/uncovering-world/travel-regions-extraction/7f9129e8cdaa0bd3b4f8b1cd87338c11f037320a/data/custom-geometries/siachen.geojson","source_osm_relation":"https://www.openstreetmap.org/relation/13559521","license":"ODbL 1.0 (derived geometries); source NE public domain","category":"research-only effective control candidate","not_a_legal_boundary":true,"confidence":"cartographic approximation; nonofficial","valid_at":"OSM snapshot 2026-10-04; not historical 1984 boundary"},"geometry":{"type":"Polygon","coordinates":[[[76.77972,35.64144],[76.782123,35.642549],[76.781201,35.645845],[76.782837,35.645732],[76.824592,35.647799],[76.842989,35.641288],[76.856941,35.628576],[76.880506,35.60067],[76.896422,35.589612],[76.915026,35.583152],[76.9358,35.579638],[76.976417,35.578656],[77.017552,35.584599],[77.039049,35.585013],[77.058169,35.580103],[77.071089,35.571008],[77.092276,35.547805],[77.105298,35.537987],[77.141265,35.525378],[77.177542,35.523156],[77.250819,35.530701],[77.281102,35.528013],[77.305389,35.517833],[77.352002,35.486052],[77.383731,35.471996],[77.412773,35.469412],[77.476438,35.477164],[77.512199,35.478456],[77.519608,35.477439],[77.660613,35.458095],[77.689655,35.462694],[77.716734,35.475407],[77.74743,35.49432],[77.760349,35.498093],[77.773578,35.498971],[77.800346,35.495406],[77.424659,35.302924],[77.071795,35.122136],[77.070455,35.123796],[77.070155,35.124796],[77.069977,35.125777],[77.070822,35.127152],[77.071592,35.128575],[77.071849,35.129657],[77.071668,35.130306],[77.069315,35.135431],[77.069603,35.13575],[77.070784,35.136622],[77.073108,35.137216],[77.07496,35.138108],[77.075133,35.138185],[77.078243,35.139562],[77.079302,35.140518],[77.079408,35.140556],[77.081998,35.141482],[77.083919,35.145794],[77.084224,35.147826],[77.084985,35.151816],[77.085481,35.15259],[77.086857,35.154486],[77.08655,35.156431],[77.084222,35.163271],[77.084197,35.164291],[77.084779,35.165114],[77.086384,35.166597],[77.087005,35.167832],[77.085392,35.169165],[77.06643,35.176139],[77.06396,35.176224],[77.052971,35.176602],[77.049856,35.179106],[77.043298,35.18239],[77.027926,35.184052],[77.017472,35.182993],[77.009377,35.188526],[77.008428,35.190398],[77.008082,35.196292],[77.004915,35.20109],[77.00203,35.203017],[77.002029,35.203017],[76.994578,35.217712],[76.998435,35.224617],[77.002348,35.226026],[77.004128,35.232481],[77.000708,35.238471],[76.990246,35.243224],[76.981412,35.247896],[76.9785,35.249421],[76.978499,35.249421],[76.975747,35.254849],[76.977113,35.260354],[76.982959,35.26635],[76.991427,35.267861],[76.994589,35.269045],[76.992016,35.275666],[76.992696,35.278367],[76.997151,35.279215],[76.998749,35.279981],[76.99909,35.28085],[76.999139,35.282098],[76.999252,35.283324],[76.999066,35.283892],[76.998602,35.284573],[76.998157,35.28509],[76.997374,35.286351],[76.997438,35.288488],[77.001406,35.289862],[77.003279,35.291266],[77.006416,35.294471],[77.012373,35.295087],[77.015633,35.294756],[77.021661,35.295446],[77.015952,35.300443],[77.013039,35.302476],[77.00382,35.305829],[76.998584,35.311291],[76.989224,35.31248],[76.986243,35.31402],[76.984203,35.316353],[76.983485,35.319817],[76.98809,35.321343],[76.990134,35.327411],[76.987096,35.336409],[76.977766,35.344964],[76.98507,35.350306],[76.986709,35.356452],[76.98301,35.360127],[76.968676,35.359133],[76.958505,35.36271],[76.952291,35.370374],[76.952197,35.374259],[76.950618,35.377786],[76.954497,35.38267],[76.947613,35.392865],[76.939803,35.396847],[76.918946,35.401394],[76.913101,35.396833],[76.908277,35.389605],[76.907461,35.389518],[76.77972,35.64144]]]}},{"type":"Feature","properties":{"control":"PAK","name":"Siachen dispute portion — Pakistan de facto","boundary_basis":"2026-10-04 OSM-derived AGPL approximate candidate","disputed_sovereignty":true,"source_dispute_polygon":"Natural Earth 10m B45","line_source_url":"https://raw.githubusercontent.com/uncovering-world/travel-regions-extraction/7f9129e8cdaa0bd3b4f8b1cd87338c11f037320a/data/custom-geometries/siachen.geojson","source_osm_relation":"https://www.openstreetmap.org/relation/13559521","license":"ODbL 1.0 (derived geometries); source NE public domain","category":"research-only effective control candidate","not_a_legal_boundary":true,"confidence":"cartographic approximation; nonofficial","valid_at":"OSM snapshot 2026-10-04; not historical 1984 boundary"},"geometry":{"type":"MultiPolygon","coordinates":[[[[76.907461,35.389518],[76.908277,35.389605],[76.913101,35.396833],[76.918946,35.401394],[76.939803,35.396847],[76.947613,35.392865],[76.954497,35.38267],[76.950618,35.377786],[76.952197,35.374259],[76.952291,35.370374],[76.958505,35.36271],[76.968676,35.359133],[76.98301,35.360127],[76.986709,35.356452],[76.98507,35.350306],[76.977766,35.344964],[76.987096,35.336409],[76.990134,35.327411],[76.98809,35.321343],[76.983485,35.319817],[76.984203,35.316353],[76.986243,35.31402],[76.989224,35.31248],[76.998584,35.311291],[77.00382,35.305829],[77.013039,35.302476],[77.015952,35.300443],[77.021661,35.295446],[77.015633,35.294756],[77.012373,35.295087],[77.006416,35.294471],[77.003279,35.291266],[77.001406,35.289862],[76.997438,35.288488],[76.997374,35.286351],[76.998157,35.28509],[76.998602,35.284573],[76.999066,35.283892],[76.999252,35.283324],[76.999139,35.282098],[76.99909,35.28085],[76.998749,35.279981],[76.997151,35.279215],[76.992696,35.278367],[76.992016,35.275666],[76.994589,35.269045],[76.991427,35.267861],[76.982959,35.26635],[76.977113,35.260354],[76.975747,35.254849],[76.913161,35.378277],[76.907461,35.389518]]],[[[76.777351,35.646112],[76.781201,35.645845],[76.782123,35.642549],[76.77972,35.64144],[76.777351,35.646112]]],[[[77.048971,35.110442],[77.009377,35.188526],[77.017472,35.182993],[77.027926,35.184052],[77.043298,35.18239],[77.049856,35.179106],[77.052971,35.176602],[77.06396,35.176224],[77.06643,35.176139],[77.085392,35.169165],[77.087005,35.167832],[77.086384,35.166597],[77.084779,35.165114],[77.084197,35.164291],[77.084222,35.163271],[77.08655,35.156431],[77.086857,35.154486],[77.085481,35.15259],[77.084985,35.151816],[77.084224,35.147826],[77.083919,35.145794],[77.081998,35.141482],[77.079408,35.140556],[77.079302,35.140518],[77.078243,35.139562],[77.075133,35.138185],[77.07496,35.138108],[77.073108,35.137216],[77.070784,35.136622],[77.069603,35.13575],[77.069315,35.135431],[77.071668,35.130306],[77.071849,35.129657],[77.071592,35.128575],[77.070822,35.127152],[77.069977,35.125777],[77.070155,35.124796],[77.070455,35.123796],[77.071795,35.122136],[77.048971,35.110442]]],[[[77.00203,35.203017],[77.004915,35.20109],[77.008082,35.196292],[77.008428,35.190398],[77.00203,35.203017]]],[[[76.9785,35.249421],[76.981412,35.247896],[76.990246,35.243224],[77.000708,35.238471],[77.004128,35.232481],[77.002348,35.226026],[76.998435,35.224617],[76.994578,35.217712],[76.9785,35.249421]]]]}}]}
