{"type":"FeatureCollection","features":[{"type":"Feature","geometry":{"type":"Polygon","coordinates":[[[77.799365,35.495922],[77.791665,35.491942],[77.696943,35.443237],[77.571576,35.378771],[77.423419,35.3026],[77.292988,35.235524],[77.168499,35.171549],[77.04861,35.109899],[77.004478,35.196353],[76.978899,35.246428],[76.927739,35.346628],[76.882264,35.435718],[76.812759,35.571808],[76.76687,35.6617],[76.878853,35.613305],[77.090003,35.552042],[77.294848,35.508143],[77.446519,35.475613],[77.520054,35.473416],[77.572557,35.47184],[77.724073,35.480574],[77.799365,35.495922]]]},"properties":{"name":"Natural Earth Siachen disputed area","feature_type":"political_disputed_area_not_glacier","scale":"50m","license":"public domain","brk_a3":"B45","source_url":"https://raw.githubusercontent.com/nvkelso/natural-earth-vector/master/geojson/ne_50m_admin_0_breakaway_disputed_areas.geojson","sha256":"e91f0f9518b24355ceec6668f4df874d6f39db7d0bc9ec22d9b14429bfb6be01"}}]}
