{"type":"FeatureCollection","features":[{"type":"Feature","geometry":{"type":"Point","coordinates":[76.7617744,35.5175137]},"properties":{"type":"OSM_line_station","station_km":90.038,"elevation_dem_m":6291.5}},{"type":"Feature","geometry":{"type":"Point","coordinates":[76.7617378,35.5174287]},"properties":{"type":"DEM_local_transect_high_point_not_surveyed_ridge","station_km":90.038,"offset_right_east_m":-10,"elevation_advantage_m":0.0,"window_boundary_warning":false}},{"type":"Feature","geometry":{"type":"Point","coordinates":[76.7591745,35.5182619]},"properties":{"type":"OSM_line_station","station_km":90.288,"elevation_dem_m":6308.5}},{"type":"Feature","geometry":{"type":"Point","coordinates":[76.7587086,35.5177589]},"properties":{"type":"DEM_local_transect_high_point_not_surveyed_ridge","station_km":90.288,"offset_right_east_m":-70,"elevation_advantage_m":7.4,"window_boundary_warning":false}},{"type":"Feature","geometry":{"type":"Point","coordinates":[76.7586166,35.5202809]},"properties":{"type":"OSM_line_station","station_km":90.538,"elevation_dem_m":6168.8}},{"type":"Feature","geometry":{"type":"Point","coordinates":[76.7684061,35.5208325]},"properties":{"type":"DEM_local_transect_high_point_not_surveyed_ridge","station_km":90.538,"offset_right_east_m":890,"elevation_advantage_m":111.4,"window_boundary_warning":true}},{"type":"Feature","geometry":{"type":"Point","coordinates":[76.758427,35.522529]},"properties":{"type":"OSM_line_station","station_km":90.788,"elevation_dem_m":6112.7}},{"type":"Feature","geometry":{"type":"Point","coordinates":[76.7682167,35.5230806]},"properties":{"type":"DEM_local_transect_high_point_not_surveyed_ridge","station_km":90.788,"offset_right_east_m":890,"elevation_advantage_m":106.3,"window_boundary_warning":true}},{"type":"Feature","geometry":{"type":"Point","coordinates":[76.7582373,35.5247771]},"properties":{"type":"OSM_line_station","station_km":91.038,"elevation_dem_m":6100.9}},{"type":"Feature","geometry":{"type":"Point","coordinates":[76.7679321,35.5260201]},"properties":{"type":"DEM_local_transect_high_point_not_surveyed_ridge","station_km":91.038,"offset_right_east_m":890,"elevation_advantage_m":22.8,"window_boundary_warning":true}},{"type":"Feature","geometry":{"type":"Point","coordinates":[76.7566629,35.5264533]},"properties":{"type":"OSM_line_station","station_km":91.288,"elevation_dem_m":6105.0}},{"type":"Feature","geometry":{"type":"Point","coordinates":[76.757662,35.5274153]},"properties":{"type":"DEM_local_transect_high_point_not_surveyed_ridge","station_km":91.288,"offset_right_east_m":140,"elevation_advantage_m":2.8,"window_boundary_warning":false}}]}
