{"type":"FeatureCollection","features":[{"type":"Feature","id":15379,"properties":{"fid":15379,"logicalFid":4004,"awId":"lakes_base:1159108993","name":"lake-187","layerId":"lakes_natural_earth","category":"lake","bounds":[-92860987,29812135,-92641833,29976390],"stage":0,"flags":0,"fragmentIndex":0,"fragmentCount":1,"width":1,"sourceId":"1159108993","source":"Natural Earth 5.0.0 1:10m"},"geometry":{"type":"Polygon","coordinates":[[[-92.662291,29.860705],[-92.655668,29.850991],[-92.641833,29.819789],[-92.657139,29.812135],[-92.667295,29.815667],[-92.686576,29.836273],[-92.854069,29.866887],[-92.839792,29.883666],[-92.795343,29.914574],[-92.785777,29.925465],[-92.794902,29.940184],[-92.816243,29.94401],[-92.841117,29.944599],[-92.860987,29.94872],[-92.817715,29.973447],[-92.798729,29.97639],[-92.787543,29.970797],[-92.744271,29.956079],[-92.734852,29.955785],[-92.724402,29.956668],[-92.71454,29.956374],[-92.706593,29.952547],[-92.700558,29.947543],[-92.691286,29.94195],[-92.68113,29.936946],[-92.672888,29.935179],[-92.660083,29.928409],[-92.655815,29.916634],[-92.661702,29.91163],[-92.679658,29.925465],[-92.698645,29.936946],[-92.713952,29.931647],[-92.737354,29.907803],[-92.695848,29.907803],[-92.704679,29.897501],[-92.710125,29.893968],[-92.68687,29.88396],[-92.679364,29.876895],[-92.676567,29.863649],[-92.67539,29.855112],[-92.672299,29.848931],[-92.667589,29.848931],[-92.662291,29.860705]]]}},{"type":"Feature","id":15380,"properties":{"fid":15380,"logicalFid":4005,"awId":"lakes_base:1159109007","name":"lake-188","layerId":"lakes_natural_earth","category":"lake","bounds":[-92621374,29677905,-92394714,29833329],"stage":0,"flags":0,"fragmentIndex":0,"fragmentCount":1,"width":1,"sourceId":"1159109007","source":"Natural Earth 5.0.0 1:10m"},"geometry":{"type":"Polygon","coordinates":[[[-92.414731,29.795062],[-92.40222,29.789763],[-92.394714,29.771219],[-92.396333,29.757089],[-92.40325,29.736484],[-92.415467,29.717939],[-92.446375,29.702337],[-92.463595,29.687619],[-92.482287,29.677905],[-92.500979,29.685264],[-92.518347,29.698805],[-92.5965,29.731774],[-92.609452,29.741193],[-92.618136,29.754734],[-92.621374,29.775045],[-92.613132,29.793296],[-92.573687,29.818905],[-92.559263,29.833329],[-92.556173,29.829208],[-92.552935,29.827736],[-92.549549,29.827148],[-92.545575,29.82597],[-92.528502,29.817434],[-92.519966,29.806248],[-92.513637,29.794768],[-92.50407,29.785054],[-92.48891,29.780049],[-92.476253,29.783287],[-92.462859,29.78888],[-92.446375,29.791824],[-92.414731,29.795062]]]}},{"type":"Feature","id":15365,"properties":{"fid":15365,"logicalFid":3990,"awId":"lakes_base:1159108815","name":"lake-173","layerId":"lakes_natural_earth","category":"lake","bounds":[-79655812,46827265,-79156129,47578188],"stage":0,"flags":0,"fragmentIndex":0,"fragmentCount":1,"width":1,"sourceId":"1159108815","source":"Natural Earth 5.0.0 1:10m"},"geometry":{"type":"Polygon","coordinates":[[[-79.275641,46.927054],[-79.156129,46.827265],[-79.189245,46.829031],[-79.231044,46.856996],[-79.271372,46.894085],[-79.343492,46.977979],[-79.344522,46.983572],[-79.354089,47.015952],[-79.358798,47.020662],[-79.417083,47.061873],[-79.431212,47.076591],[-79.440337,47.101023],[-79.453584,47.11633],[-79.456527,47.125456],[-79.450346,47.16961],[-79.45064,47.214942],[-79.459324,47.25056],[-79.475514,47.282057],[-79.645362,47.48458],[-79.655812,47.526674],[-79.640358,47.529912],[-79.624904,47.517549],[-79.611216,47.501064],[-79.601207,47.491939],[-79.581485,47.492822],[-79.575303,47.504891],[-79.573831,47.540215],[-79.566178,47.557877],[-79.555875,47.563764],[-79.519227,47.567591],[-79.489055,47.578188],[-79.473895,47.577893],[-79.456527,47.567591],[-79.459029,47.539626],[-79.521876,47.495766],[-79.515547,47.468095],[-79.493617,47.443663],[-79.474189,47.411578],[-79.465947,47.377431],[-79.47831,47.347995],[-79.469332,47.345346],[-79.450346,47.335043],[-79.455791,47.314437],[-79.446961,47.293538],[-79.42297,47.259097],[-79.416347,47.254681],[-79.411784,47.25056],[-79.409282,47.245556],[-79.411048,47.23908],[-79.415758,47.234665],[-79.420762,47.232015],[-79.42297,47.232015],[-79.421792,47.219652],[-79.416641,47.199341],[-79.415611,47.187566],[-79.419437,47.168138],[-79.426355,47.148122],[-79.42871,47.129282],[-79.415464,47.104556],[-79.409871,47.085422],[-79.34305,47.020956],[-79.275641,46.927054]]]}}]}
