{"type":"FeatureCollection","features":[{"type":"Feature","id":"lakes_base:1159108993","properties":{"pandolab_id":"lakes_base:1159108993","layer_id":"lakes_base","category":"lake","name":"lake-187","name_ko":"","name_en":"","name_original":"","feature_class":"Lake","scale_rank":7,"min_zoom":5.7,"stroke_width":1.4400000000000002,"source_id":1159108993,"wikidata_id":"","note":"_untitled_94","source":"Natural Earth 5.0.0 1:10m"},"geometry":{"type":"Polygon","coordinates":[[[-92.66229083964718,29.86070519843574],[-92.65566764678672,29.850991182240392],[-92.64183253281153,29.81978858476444],[-92.65713946742238,29.812135117459007],[-92.66729502980843,29.81566748698458],[-92.68657588013555,29.836272975883816],[-92.85406906847346,29.866886845105512],[-92.83979240830757,29.883665600352003],[-92.7953434251107,29.914573833700842],[-92.78577659097891,29.925465306404703],[-92.79490187892,29.94018351276128],[-92.81624327813705,29.944010246413995],[-92.84111704687967,29.944598974668253],[-92.86098662546107,29.94872007244811],[-92.81771509877271,29.973446659127177],[-92.79872861257272,29.976390300398492],[-92.78754277574171,29.970797381982976],[-92.74427124905336,29.9560791756264],[-92.73485159698514,29.955784811499257],[-92.72440167047196,29.956667903880657],[-92.71454047221306,29.956373539753514],[-92.7065926407805,29.952546806100827],[-92.7005581761743,29.947542615939568],[-92.69128570616965,29.94194969752408],[-92.6811301437836,29.93694550736285],[-92.67288794822393,29.93517932260005],[-92.6600831086937,29.92840894767602],[-92.65581482885028,29.916634382590757],[-92.66170211139293,29.911630192429527],[-92.67965832314795,29.925465306404703],[-92.69864480934794,29.93694550736285],[-92.71395174395879,29.931646953074477],[-92.73735369206575,29.90780345877681],[-92.6958483501402,29.90780345877681],[-92.70467927395414,29.89750071432718],[-92.71012501030609,29.893968344801607],[-92.68687024426268,29.883959964479146],[-92.67936395902082,29.876895225427972],[-92.67656749981307,29.863648839707054],[-92.67539004330455,29.855112280020222],[-92.67229921996966,29.848930633350477],[-92.66758939393556,29.848930633350477],[-92.66229083964718,29.86070519843574]]]}},{"type":"Feature","id":"lakes_base:1159109007","properties":{"pandolab_id":"lakes_base:1159109007","layer_id":"lakes_base","category":"lake","name":"lake-188","name_ko":"","name_en":"","name_original":"","feature_class":"Lake","scale_rank":7,"min_zoom":5.7,"stroke_width":1.4400000000000002,"source_id":1159109007,"wikidata_id":"","note":"_untitled_93","source":"Natural Earth 5.0.0 1:10m"},"geometry":{"type":"Polygon","coordinates":[[[-92.41473060872946,29.795061998085373],[-92.40222013332635,29.789763443797],[-92.39471384808449,29.771218503787708],[-92.39633285078372,29.75708902568539],[-92.40325040777131,29.73648353678618],[-92.41546651904729,29.71793859677686],[-92.44637475239611,29.702337298038884],[-92.4635950538333,29.687619091682308],[-92.48228717590617,29.67790507548696],[-92.50097929797903,29.68526417866525],[-92.51834678147979,29.69880492851331],[-92.59650045723326,29.731773710752066],[-92.60945247882705,29.74119336282027],[-92.61813622057743,29.75473411266833],[-92.62137422597588,29.775045237440423],[-92.6131320304162,29.793295813322572],[-92.57368723738055,29.81890549238304],[-92.5592633951511,29.8333293346125],[-92.55617257181622,29.829208236832642],[-92.55293456641778,29.827736416196984],[-92.54954937895576,29.827147687942727],[-92.54557546323947,29.825970231434184],[-92.52850234386584,29.81743367174738],[-92.51996578417902,29.806247834916377],[-92.51363695544569,29.79476763395823],[-92.50407012131392,29.785053617762884],[-92.48891036876662,29.780049427601654],[-92.47625271129996,29.783287433000112],[-92.46285914351547,29.7888803514156],[-92.44637475239611,29.791823992686915],[-92.41473060872946,29.795061998085373]]]}},{"type":"Feature","id":"lakes_base:1159108815","properties":{"pandolab_id":"lakes_base:1159108815","layer_id":"lakes_base","category":"lake","name":"lake-173","name_ko":"","name_en":"","name_original":"","feature_class":"Lake","scale_rank":7,"min_zoom":5.7,"stroke_width":1.4400000000000002,"source_id":1159108815,"wikidata_id":"","note":"_untitled_110","source":"Natural Earth 5.0.0 1:10m"},"geometry":{"type":"Polygon","coordinates":[[[-79.27564061214382,46.92705419714855],[-79.15612877652836,46.82726475805089],[-79.18924474083067,46.82903094281369],[-79.23104444688337,46.85699553489121],[-79.2713723323004,46.894085414909796],[-79.34349154344767,46.97797919114231],[-79.34452181789263,46.98357210955783],[-79.3540886520244,47.015952163542295],[-79.35879847805852,47.02066198957641],[-79.41708257523058,47.06187296737485],[-79.4312120533329,47.07659117373143],[-79.44033734127399,47.10102339628335],[-79.4535837269949,47.116330330894186],[-79.45652736826622,47.125455618835275],[-79.45034572159646,47.16961023790503],[-79.45064008572359,47.214942313483306],[-79.45932382747398,47.25056037286623],[-79.47551385446621,47.28205733446933],[-79.64536195582119,47.48457985393591],[-79.65581188233436,47.526673924115755],[-79.64035776565996,47.529911929514185],[-79.62490364898554,47.517548636174666],[-79.61121571707392,47.50106424505529],[-79.60120733675144,47.4919389571142],[-79.58148494023362,47.4928220494956],[-79.57530329356386,47.504890978708005],[-79.57383147292819,47.54021467396382],[-79.56617800562277,47.55787652159171],[-79.55587526117317,47.56376380413434],[-79.51922692734527,47.567590537787055],[-79.48905460431428,47.5781876463638],[-79.473894851767,47.57789328223666],[-79.45652736826622,47.567590537787055],[-79.45902946334685,47.53962594570953],[-79.52187620448946,47.495765690766916],[-79.51554737575613,47.468095462816535],[-79.49361724828482,47.44366324026461],[-79.47418921589413,47.41157755040726],[-79.46594702033444,47.37743131165999],[-79.47831031367397,47.34799489894684],[-79.46933220779646,47.345345621802636],[-79.45034572159646,47.33504287735303],[-79.4557914579484,47.314437388453825],[-79.44696053413445,47.293537535427475],[-79.42296985777321,47.259096932553064],[-79.41634666491275,47.25468147064609],[-79.4117840209422,47.25056037286623],[-79.40928192586159,47.245556182705],[-79.41104811062438,47.239080171908114],[-79.4157579366585,47.23466471000114],[-79.42076212681972,47.23201543285694],[-79.42296985777321,47.23201543285694],[-79.4217924012647,47.21965213951742],[-79.41664102903988,47.19934101474533],[-79.41561075459492,47.18756644966007],[-79.41943748824764,47.168138417269375],[-79.42635504523523,47.148121656624426],[-79.42870995825228,47.12928235248799],[-79.41546357253137,47.104555765808925],[-79.40987065411586,47.085422097545376],[-79.34304999725697,47.020956353703525],[-79.27564061214382,46.92705419714855]]]}}]}
