{"type":"FeatureCollection","features":[{"type":"Feature","id":15489,"properties":{"fid":15489,"logicalFid":4114,"awId":"lakes_base:1159110463","name":"lake-297","layerId":"lakes_natural_earth","category":"lake","bounds":[-93450598,29833329,-93248223,30093547],"stage":0,"flags":0,"fragmentIndex":0,"fragmentCount":1,"width":1,"sourceId":"1159110463","source":"Natural Earth 5.0.0 1:10m"},"geometry":{"type":"Polygon","coordinates":[[[-93.257642,29.947837],[-93.252049,29.935179],[-93.248223,29.918989],[-93.252049,29.876895],[-93.256759,29.865121],[-93.268387,29.855407],[-93.28281,29.848931],[-93.296057,29.846281],[-93.322991,29.846281],[-93.330939,29.844221],[-93.336238,29.839805],[-93.339917,29.83539],[-93.343891,29.833329],[-93.373622,29.835096],[-93.400115,29.840983],[-93.425135,29.853346],[-93.450598,29.873657],[-93.381717,29.893968],[-93.361258,29.905449],[-93.353605,29.91634],[-93.354341,29.952547],[-93.35125,29.987871],[-93.337121,30.056457],[-93.333883,30.093547],[-93.329173,30.085305],[-93.32358,30.081184],[-93.316221,30.080006],[-93.306654,30.079712],[-93.306654,30.072942],[-93.287667,30.054102],[-93.278248,30.026432],[-93.271772,29.976685],[-93.267945,29.96491],[-93.257642,29.947837]]]}},{"type":"Feature","id":15233,"properties":{"fid":15233,"logicalFid":3858,"awId":"lakes_base:1159107033","name":"lake-41","layerId":"lakes_natural_earth","category":"lake","bounds":[-90592911,30176264,-90401133,30354059],"stage":0,"flags":0,"fragmentIndex":0,"fragmentCount":1,"width":1,"sourceId":"1159107033","source":"Natural Earth 5.0.0 1:10m"},"geometry":{"type":"Polygon","coordinates":[[[-90.422327,30.30961],[-90.416145,30.301957],[-90.401133,30.298719],[-90.430422,30.240435],[-90.449261,30.211293],[-90.475607,30.188921],[-90.511372,30.176264],[-90.546549,30.176852],[-90.575544,30.190099],[-90.592911,30.216297],[-90.575544,30.219535],[-90.574808,30.229543],[-90.581136,30.243673],[-90.585405,30.257802],[-90.582903,30.273698],[-90.575985,30.284295],[-90.523,30.331688],[-90.499892,30.347289],[-90.475607,30.354059],[-90.469425,30.3467],[-90.457209,30.343168],[-90.446171,30.338458],[-90.436456,30.332571],[-90.428509,30.326095],[-90.424682,30.318441],[-90.422327,30.30961]]]}},{"type":"Feature","id":15490,"properties":{"fid":15490,"logicalFid":4115,"awId":"lakes_base:1159110475","name":"lake-298","layerId":"lakes_natural_earth","category":"lake","bounds":[-90346970,29663187,-90147244,29874540],"stage":0,"flags":0,"fragmentIndex":0,"fragmentCount":1,"width":1,"sourceId":"1159110475","source":"Natural Earth 5.0.0 1:10m"},"geometry":{"type":"Polygon","coordinates":[[[-90.184775,29.806837],[-90.159018,29.805365],[-90.147244,29.775045],[-90.149451,29.760916],[-90.15578,29.748847],[-90.165494,29.740016],[-90.197433,29.732657],[-90.20332,29.722943],[-90.204498,29.709696],[-90.209355,29.695567],[-90.228783,29.680554],[-90.259691,29.668485],[-90.290893,29.663187],[-90.311793,29.66878],[-90.306936,29.673784],[-90.298105,29.688797],[-90.33652,29.686736],[-90.34697,29.692918],[-90.346528,29.715878],[-90.337697,29.730008],[-90.271613,29.770924],[-90.254981,29.777695],[-90.242029,29.785937],[-90.23673,29.801832],[-90.240852,29.820672],[-90.252332,29.830386],[-90.291188,29.838922],[-90.291188,29.846281],[-90.269846,29.853346],[-90.252773,29.866592],[-90.236142,29.87454],[-90.215536,29.866887],[-90.196844,29.857762],[-90.185953,29.848342],[-90.181979,29.838922],[-90.189043,29.828325],[-90.202731,29.82391],[-90.216419,29.821555],[-90.222454,29.815962],[-90.210679,29.802715],[-90.184775,29.806837]]]}}]}
