{"type":"FeatureCollection","features":[{"type":"Feature","id":"lakes_base:1159110463","properties":{"pandolab_id":"lakes_base:1159110463","layer_id":"lakes_base","category":"lake","name":"lake-297","name_ko":"","name_en":"","name_original":"","feature_class":"Lake","scale_rank":8,"min_zoom":6.0,"stroke_width":1.2600000000000002,"source_id":1159110463,"wikidata_id":"","note":"_untitled_38","source":"Natural Earth 5.0.0 1:10m"},"geometry":{"type":"Polygon","coordinates":[[[-93.25764228677099,29.94783698006671],[-93.25204936835549,29.93517932260005],[-93.24822263470277,29.918989295607815],[-93.25204936835549,29.876895225427972],[-93.25675919438959,29.86512066034271],[-93.26838657741129,29.855406644147365],[-93.28281041964074,29.848930633350477],[-93.29605680536167,29.846281356206276],[-93.32299112299421,29.846281356206276],[-93.33093895442677,29.84422080731636],[-93.33623750871514,29.83980534540939],[-93.33991706030429,29.835389883502415],[-93.34389097602056,29.8333293346125],[-93.37362175286086,29.835095519375272],[-93.40011452430271,29.840982801917903],[-93.4251354751089,29.85334609525745],[-93.4505979721058,29.873657220029514],[-93.38171676635699,29.893968344801607],[-93.36125845952134,29.905448545759754],[-93.3536049922159,29.916340018463615],[-93.35434090253374,29.952546806100827],[-93.35125007919886,29.98787050135661],[-93.33712060109653,30.05645734297829],[-93.33388259569809,30.093547222996875],[-93.32917276966398,30.085305027437187],[-93.32357985124848,30.081183929657357],[-93.3162207480702,30.080006473148842],[-93.3066539139384,30.0797121090217],[-93.3066539139384,30.072941734097668],[-93.28766742773841,30.054102429961233],[-93.2782477756702,30.026432202010852],[-93.27177176487331,29.976684664525607],[-93.26794503122059,29.964910099440345],[-93.25764228677099,29.94783698006671]]]}},{"type":"Feature","id":"lakes_base:1159107033","properties":{"pandolab_id":"lakes_base:1159107033","layer_id":"lakes_base","category":"lake","name":"lake-41","name_ko":"","name_en":"","name_original":"","feature_class":"Lake","scale_rank":4,"min_zoom":4.0,"stroke_width":1.9800000000000002,"source_id":1159107033,"wikidata_id":"","note":"_untitled_28","source":"Natural Earth 5.0.0 1:10m"},"geometry":{"type":"Polygon","coordinates":[[[-90.42232701423875,30.30961049231152],[-90.41614536756897,30.301957025006118],[-90.40113279708527,30.29871901960766],[-90.43042202773486,30.240434922435583],[-90.4492613318713,30.211292873849544],[-90.47560692124958,30.188921200187536],[-90.51137216269608,30.176263542720875],[-90.5465486758883,30.17685227097516],[-90.57554354241078,30.19009865669608],[-90.59291102591155,30.216297064010803],[-90.57554354241078,30.219535069409233],[-90.57480763209296,30.22954344973172],[-90.58113646082629,30.24367292783404],[-90.58540474066969,30.25780240593636],[-90.58290264558907,30.27369806880148],[-90.57598508860147,30.284295177378198],[-90.52299954571778,30.331687801846414],[-90.49989196173794,30.34728910058439],[-90.47560692124958,30.35405947550842],[-90.4694252745798,30.346700372330133],[-90.45720916330384,30.343168002804532],[-90.44617050853641,30.338458176770445],[-90.43645649234107,30.332570894227814],[-90.4285086609085,30.326094883430898],[-90.4246819272558,30.318441416125495],[-90.42232701423875,30.30961049231152]]]}},{"type":"Feature","id":"lakes_base:1159110475","properties":{"pandolab_id":"lakes_base:1159110475","layer_id":"lakes_base","category":"lake","name":"lake-298","name_ko":"","name_en":"","name_original":"","feature_class":"Lake","scale_rank":8,"min_zoom":6.0,"stroke_width":1.2600000000000002,"source_id":1159110475,"wikidata_id":"","note":"_untitled_37","source":"Natural Earth 5.0.0 1:10m"},"geometry":{"type":"Polygon","coordinates":[[[-90.1847751636435,29.806836563170634],[-90.15901830251947,29.805364742534977],[-90.1472437374342,29.775045237440423],[-90.14945146838768,29.760915759338104],[-90.15578029712101,29.7488468301257],[-90.16549431331636,29.740015906311754],[-90.19743282111016,29.732656803133466],[-90.20332010365279,29.72294278693812],[-90.20449756016131,29.7096964012172],[-90.20935456825899,29.69556692311488],[-90.22878260064967,29.680554352631162],[-90.25969083399849,29.66848542341876],[-90.29089343147446,29.663186869130385],[-90.31179328450081,29.668779787545873],[-90.30693627640314,29.67378397770713],[-90.29810535258918,29.68879654819085],[-90.33651987117986,29.686735999300907],[-90.34696979769303,29.69291764597068],[-90.34652825150233,29.715878047886946],[-90.33769732768839,29.730007525989265],[-90.27161258114732,29.770924139660565],[-90.25498100796439,29.777694514584596],[-90.2420289863706,29.785936710144284],[-90.23673043208223,29.801832373009404],[-90.24085152986207,29.82067167714584],[-90.2523317308202,29.830385693341185],[-90.29118779560159,29.838922253027988],[-90.29118779560159,29.846281356206276],[-90.26984639638454,29.85334609525745],[-90.2527732770109,29.86659248097837],[-90.23614170382797,29.874540312410915],[-90.21553621492875,29.866886845105512],[-90.19684409285588,29.857761557164423],[-90.18595262015201,29.84834190509619],[-90.18197870443574,29.838922253027988],[-90.1890434434869,29.82832514445124],[-90.20273137539851,29.82390968254427],[-90.21641930731015,29.82155476952721],[-90.22245377191634,29.815961851111723],[-90.21067920683107,29.802715465390804],[-90.1847751636435,29.806836563170634]]]}}]}
